skz;name;plz;ort;strasse;tel;mail_vw;url_hp;art;
301011;Volksschule Krems an der Donau, Hafnerplatz;3500;Krems an der Donau;Hafnerplatz 1;02732/801-362;vs.krems-hafnerplatz@noeschule.at;www.vskrems-hafnerplatz.ac.at;APS $VS;
301013;Allgemeine Sonderschule Krems an der Donau;3500;Krems an der Donau;Edmund Hofbauer Straße 9;02732/73930;aso.krems@noeschule.at;www.asokrems.schulweb.at;APS $AS SPZ;
301014;Polytechnische Schule Krems an der Donau;3500;Krems an der Donau;Edmund-Hofbauer-Straße 9;02732/73920;pts.krems@noeschule.at;www.ptskrems.ac.at;APS PTS;
301016;Bundesgymnasium und Bundesrealgymnasium Krems, Piaristengasse;3500;Krems/Donau;Piaristengasse 2;02732/83300-0;bg.krems-piaristen@noeschule.at;www.piakrems.ac.at;AHS GYM;
30101F;IMC Fachhochschule Krems;3500;Krems/Donau;Piaristengasse 1;02732/802-0;;www.imc-krems.ac.at;FH;
301026;Bundesoberstufenrealgymnasium Krems;3500;Krems/Donau;Heinemannstraße 12;02732/82313;borg.krems@noeschule.at;www.borg-krems.ac.at;AHS ORG;
301036;Bundesrealgymnasium Krems, Ringstrasse;3500;Krems/Donau;Ringstraße 33;02732/82082-0;brg.krems@noeschule.at;www.brgkrems.ac.at;AHS GYM;
301041;Volksschule Krems an der Donau, Rehberg;3503;Krems an der Donau - Rehberg;Rehberger Hauptstraße 73;02732/71744;vs.krems-rehberg@noeschule.at;;APS $VS;
301042;Mary Ward Privathauptschule Krems, Vereinigung von Ordensschulen Österreichs;3500;Krems an der Donau;Hoher Markt 1;02732/82249-42;phs.krems@noeschule.at;www.marywardschulen.com/kremsphs/;APS $HS;
301046;MARY WARD Oberstufenrealgymnasium der Vereinigung von Ordensschulen Österreichs, Krems;3500;Krems/Donau;Hoher Markt 1;02732/82249-40;gym.krems@noeschule.at;www.gymkrems.ac.at;AHS ORG;
301051;Volksschule Krems an der Donau, Lerchenfeld;3502;Krems an der Donau - Lerchenfeld;Judenburger Straße 21;02732/801-361;vs.krems-lerchenfeld@noeschule.at;www.vskrems-lerchenfeld.ac.at;APS $VS;
301052;Neue Niederösterreichische Mittelschule Krems;3500;Krems;Edmund-Hofbauer-Straße 9;02732/73910-10;hs.krems@noeschule.at;www.hskrems.ac.at;APS $HS NMS;
301056;Bundesgymnasium Krems, Rechte Kremszeile;3500;Krems/Donau;Rechte Kremszeile 54;02732/82471-0;bg.krems-kremszeile@noeschule.at;www.bg-kremszeile.ac.at;AHS GYM;
301061;Volksschule Krems an der Donau, Stein;3504;Krems an der Donau - Stein;Maria Grengg-Gasse 2;02732/801/363;vs.krems-stein@noeschule.at;www.vskrems-stein.ac.at;APS $VS;
301071;Private Volksschule Krems der Hochschulstiftung der Erzdiözese Wien;3500;Krems an der Donau;Dr. Gschmeidler-Straße 22-30;02732/83591;;;APS $VS;
301081;Mary Ward Privatvolksschule Krems, Vereinigung von Ordensschulen Österreichs;3500;Krems an der Donau;Hoher Markt 1;02732/82249/31;pvs.krems@noeschule.at;www.pvskrems.ac.at;APS $VS;
301091;Volksschule Krems an der Donau, Egelsee;3500;Krems an der Donau - Egelsee;Schulstraße 8;0676848828334 od 0273241560;vs.krems-egelsee@noeschule.at;www.vskrems-egelsee.ac.at;APS $VS;
301418;Bundeshandelsakademie und Bundeshandelsschule Krems;3500;Krems/Donau;Langenloiser Straße 22;02732/82121-0;hak.krems@noeschule.at;www.hakkrems.ac.at;BBS K$S KMS KHS;
301439;Höhere gewerbliche Bundeslehranstalt, Fachrichtung Mode und Bekleidungstechnik und Höhere Bundeslehranstalt für wirtschaftliche Berufe Krems;3500;Krems/Donau;Kasernstraße 6;02732/85240-0;hlw.krems@noeschule.at;www.hlmhlw-krems.ac.at;BBS W$S WHS MODE;
301447;Höhere technische Bundeslehranstalt Krems;3500;Krems/Donau;Alauntalstraße 29;02732/83190-0;htl.krems@noeschule.at;www.htlkrems.ac.at;BBS T$S TMS THS KOLL;
301469;Höhere gewerbliche Bundeslehranstalt für Tourismus Krems;3500;Krems/Donau;Langenloiserstraße 22;02732/880-115;hlt.krems@noeschule.at;www.hlfkrems.ac.at;BBS W$S WHS WMS TOUR KOLL;
301710;Landwirtschaftliche Fachschule Krems;3500;Krems/Donau;Wiener Straße 101;02732/87516;;;BBS LFS;
301810;Pädagogische Hochschule der Diözese St. Pölten, Krems;3500;Krems/Donau;Dr. Gschmeidler Straße 22-30;02732/83591;paedak.krems@noeschule.at;www.paedak-krems.ac.at;PAI;
301960;Bundesschülerheim Krems;3500;Krems/Donau;Kasernstraße 6-8;02732/83111;bsh.krems@noeschule.at;www.bshkrems.at;$SH;
302011;Volksschule Daniel Gran I mit musikalischem Schwerpunkt;3100;St. Pölten;Kerensstraße 13;02742 / 323 23-11;vs.stpoelten-danielgran-1@noeschule.at;www.vsstpoelten-danielgran-1.ac.at;APS $VS;
302012;Neue Niederösterreichische Mittelschule St. Pölten, Dr. Theodor Körner I;3100;St. Pölten;Johann Gasser-Straße 7;02742/3231411;hs.stpoelten-koerner-1@noeschule.at;www.shsstpoelten.ac.at;APS $HS NMS;
302013;Allgemeine Sonderschule St. Pölten - Mitte;3100;St. Pölten;Hans Schickelgruber-Str. 7;02742/32314-61;aso.stpoelten-mitte@noeschule.at;www.spzstpoelten-mitte.ac.at;APS $AS SPZ;
302014;Polytechnische Schule St. Pölten;3100;St. Pölten;Hans-Schickelgruber-Straße 7;02742 32 314-50;pts.stpoelten@noeschule.at;www.ptsstpoelten.ac.at;APS PTS;
302015;Landesberufsschule St. Pölten;3100;St. Pölten;Hötzendorfstraße 8;02742/73210;direktion@lbsstpoelten.ac.at;www.lbsstpoelten.ac.at;BPS BRS;
302016;Bundesgymnasium und Bundesrealgymnasium St. Pölten, Josefstrasse;3100;St. Pölten;Josefstraße 84;02742/72959-0;bg.stpoelten@noeschule.at;www.bgstpoelten.ac.at;AHS GYM;
30201F;Gesellschaft zur Durchführung von Fachhochschul-Studiengängen St. Pölten m.b.H.;3100;St. Pölten;Herzogenburgerstraße 68;02742/313228;;www.fh-stpoelten.ac.at;FH;
302021;Daniel Gran Volksschule II St. Pölten;3100;St. Pölten;Daniel Gran-Straße 49;02742/3232320;vs.stpoelten-danielgran-2@noeschule.at;;APS $VS;
302023;Allgemeine Sonderschule St. Pölten - Nord;3100;St. Pölten;Heinrich Schneidmadl-Straße 10;02742/32318;aso.stpoelten-nord@noeschule.at;www.spzstpoelten-nord.ac.at;APS $AS SPZ;
302025;Private Berufsschule der ÖBB-Shared Service Center GMBH;3100;St. Pölten;Werkstättenstraße 17;;;;BPS BRS;
302026;Bundesrealgymnasium und Bundesoberstufenrealgymnasium St. Pölten, Schulring;3100;St. Pölten;Schulring 16;02742/72055;brg.stpoelten@noeschule.at;www.borgstpoelten.ac.at;AHS GYM ORG;
302031;Grillparzer Volksschule I St. Pölten;3100;St. Pölten;Grillparzerstraße 8;02742/32322-11;vs.stpoelten-grillparzer-1@noeschule.at;www.vsstpoelten-grillparzer1.ac.at;APS $VS;
302032;Neue Niederösterreichische Mittelschule St. Pölten, Dr. Theodor Körner II;3100;St. Pölten;Johann Gasser-Straße 7;02742/32314-21;hs.stpoelten-koerner-2@noeschule.at;www.musik-hs.schulweb.at;APS $HS NMS;
302033;Allgemeine Sonderschule St. Pölten, St. Georgen am Steinfelde;3151;St. Georgen am Steinfelde;Kirchengasse 1a;02742/32 31 520;aso.stpoelten-stgeorgen@noeschule.at;www.asostgeorgen-steinfelde.ac.at;APS $AS;
302036;MARY WARD Privatgymnasium und Oberstufenrealgymnasium der Vereinigung von Ordensschulen Österreichs, St. Pölten;3100;St. Pölten;Schneckgasse 3;02742/72656-0;gym.stpoelten@noeschule.at;www.privatgymstpoelten.ac.at;AHS GYM;
302041;Grillparzer Volksschule II St. Pölten;3100;St. Pölten;Grillparzerstraße 8;02742 - 32 322 21;vs.stpoelten-grillparzer-2@noeschule.at;www.vsstpoelten-grillparzer2.ac.at/;APS $VS;
302042;Neue Niederösterreichische Mittelschule St. Pölten, Dr. Theodor Körner III;3100;St. Pölten;Hans Schickelgruber-Straße 4;02742/32314-31;hs.stpoelten-koerner-3@noeschule.at;www.hs3online.com;APS $HS NMS;
302046;Oberstufenrealgymnasium und Bundeshandelsschule für Leistungssportler;3100;St. Pölten;Bimbo Binder-Promenade 5;02742/73453;dir.borgl.stpoelten@noeschule.at;www.borglsp-stpoelten.ac.at;AHS ORG;
302051;Volksschule St. Pölten, Harland;3104;St. Pölten - Harland;Salcherstraße 41;02742/32317-11;vs.stpoelten-harland@noeschule.at;www.vsstpoelten-harland.ac.at;APS $VS;
302052;Neue Niederösterreichische Mittelschule St. Pölten, Dr. Theodor Körner IV;3100;St. Pölten;Hans Schickelgruber-Straße 4;02742/32314-41;hs.stpoelten-koerner-4@noeschule.at;www.hsstpoelten-koerner4.ac.at;APS $HS $AS NMS;
302061;Volksschule St. Pölten, Radlberg;3105;St. Pölten - Radlberg;Radlberger Hauptstraße 123;02742/323 26-11;vs.stpoelten-radlberg@noeschule.at;www.vsstpoelten-radlberg.ac.at;APS $VS;
302062;Neue Niederösterreichische Mittelschule St. Pölten, Viehofen;3107;St. Pölten - Traisenpark;Austinstraße 27;02742/32311-31 oder 33;hs.stpoelten-viehofen@noeschule.at;www.hsstpoelten-viehofen.ac.at;APS $HS NMS;
302071;Volksschule St. Pölten, Spratzern;3106;St. Pölten - Spratzern;Pestalozzistraße 28;02742/32325-10;vs.stpoelten-spratzern@noeschule.at;www.vsstpoelten-spratzern.ac.at;APS $VS;
302072;Neue Niederösterreichische Mittelschule St. Pölten, Wagram;3108;St. Pölten - Wagram;Kudlichstraße 29;02742/32316-31;hs.stpoelten-wagram@noeschule.at;www.ibmswagram.at;APS $HS NMS;
302081;Volksschule St. Pölten, Stattersdorf;3100;St. Pölten;Stattersdorfer Hauptstraße 109;02742/32321-11;vs.stpoelten-stattersdorf@noeschule.at;www.vsstpoelten-stattersdorf.ac.at;APS $VS $AS;
302082;MARY WARD Privathauptschule;3100;St. Pölten;Schneckgasse 3;02742/352173-400;phs.stpoelten@noeschule.at;www.englischefraeulein.ac.at;APS $HS;
302091;Volksschule St. Pölten, Viehofen;3107;St. Pölten - Traisenpark;Austinstraße 27;02742/32311-11;vs.stpoelten-viehofen@noeschule.at;www.vsstpoelten-viehofen.ac.at;APS $VS;
302092;Hauptschule St. Pölten, Pottenbrunn;3140;Pottenbrunn;Weiglstraße 8;02742/32313;hs.stpoelten-pottenbrunn@noeschule.at;www.hspottenbrunn.ac.at;APS $HS;
302101;Volksschule St. Pölten, Wagram;3100;St. Pölten-Wagram;Unterwagramer Straße 49;02742 323 16 10;vs.stpoelten-wagram@noeschule.at;www.vsstpoelten-wagram.ac.at;APS $VS;
302102;Neue Niederösterreichische Mittelschule St. Pölten, St. Georgen am Steinfelde;3151;St. Georgen am Steinfelde;Kirchengasse 1a;02742/32315;hs.stpoelten-stgeorgen@noeschule.at;www.hsstpoelten-stgeorgen.ac.at/;APS $HS NMS;
302111;MARY WARD  Privatvolksschule;3100;St. Pölten;Schneckgasse 3;02742/355285;pvs.stpoelten@noeschule.at;www.pvsenglischefraeulein.at;APS $VS;
302112;Sekundarschule Integratives Montessori Atelier;3100;St. Pölten;Herzogenburgerstrasse 68;02742/21618;;www.ima-montessori-schule.at;APS $HS STS;
302131;Volksschule St. Pölten, Pottenbrunn;3140;Pottenbrunn;Weiglstraße 6;02742/32328-11;vs.stpoelten-pottenbrunn@noeschule.at;www.vsstpoelten-pottenbrunn.ac.at;APS $VS;
302151;Volksschule St. Pölten, St. Georgen am Steinfelde;3151;St. Georgen am Steinfelde;St. Georgener Hauptstraße 132;02742/32315-10;vs.stpoelten-stgeorgen@noeschule.at;www.vsstgeorgen-steinfelde.ac.at;APS $VS;
302161;Franz Jonas Volksschule St. Pölten;3100;St. Pölten;Franz Jonas-Straße 10;02742/ 3 23 24;vs.stpoelten-jonas@noeschule.at;www.vsstpoelten-jonas.ac.at;APS $VS;
302171;Otto Glöckel Volksschule St. Pölten;3100;St. Pölten;Otto Glöckel-Straße 1;02742/323 29 10;vs.stpoelten-gloeckel@noeschule.at;www.vsstpoelten-gloeckel.ac.at;APS $VS;
302181;"Lernwerkstatt im Wasserschloss ""Initiative für aktives und offenes Lernen""2";3140;Pottenbrunn;Josef Trauttmannsdorf-Straße 10;02742/43550;pvs.pottenbrunn@noeschule.at;;APS $VS STS;
302191;Private Volksschule des Vereins Integratives Montessori Atelier;3100;St. Pölten;Herzogenburgerstr. 68;02742/21618;pvs.stpoelten-montessori-atelier@noeschule.at;www.ima-montessori-schule.at;APS $VS;
302201;"Private Volksschule ""International School St. Pölten"" - verstärkter Sprachunterricht D/E, St. Pölten";3100;St. Pölten;Dr. Karl Renner Promenade 8;0676/9600093;pvs.stpoelten-international-school@noeschule.at;www.international-school.at;APS $VS;
302418;Bundeshandelsakademie und Bundeshandelsschule St. Pölten;3100;St. Pölten;Waldstraße 1,  Postfach 332;02742/71840;hak.stpoelten@noeschule.at;www.hakstpoelten.ac.at;BBS K$S KMS KHS;
302467;Höhere technische Bundeslehr- und Versuchsanstalt St. Pölten;3100;St. Pölten;Waldstraße 3;02742/75051-0;htl.stpoelten@noeschule.at;www.htlstp.ac.at;BBS T$S THS TMS;
302479;Bildungszentrum für Gesundheits- und Sozialberufe der Caritas der Diözese St. Pölten;3100;St. Pölten;Parkpromenade 10;02742/353550;fsb.stpoelten@noeschule.at;www.bigs.ac.at;BBS SOZ W$S;
302499;Höhere Bundeslehranstalt für wirtschaftliche Berufe St. Pölten;3100;St. Pölten;Eybnerstraße 23;02742/361515-0;hlw.stpoelten@noeschule.at;www.hlwstpoelten.ac.at;BBS W$S WMS WHS;
302517;Werkmeisterschule für Berufstätige für Technische Chemie und Umwelttechnik;3100;St. Pölten;Mariazeller Straße 97;02742/890-2212;wms.stpoelten-wifi@noeschule.at;;BBS T$S;
302539;Höhere Lehranstalt für Tourismus des WIFI, St. Pölten;3100;St. Pölten;Mariazeller Straße 97;02742/890-2301 oder 2300;hlt.stpoelten@noeschule.at;www.wifi-tours.at;BBS W$S WHS WMS TOUR;
302549;Private Fachschule für Altendienste und Pflegehilfe St. Pölten;3100;St. Pölten;Eybnerstraße 23;02742/361515;fs.stpoelten@noeschule.at;www.hlwstpoelten.ac.at;BBS GES;
302557;HLA-Aufbaulehrgang Möbeldesign und Kolleg für Möbeldesign;3100;St. Pölten;Mariazeller Straße 97;02742/890-2411;kolleg.moebeldesign@noeschule.at;;BBS T$S TMS KOLL;
302820;Bundesbildungsanstalt für Kindergarten- und Sozialpädagogik St. Pölten;3100;St. Pölten;Dr. Theodor-Körner-Straße 8;02742/74354;bakip.stpoelten@noeschule.at;www.bakipstpoelten.ac.at;BBS BAKIP KOLL;
302840;Ausbildungsinstitut für Mitarbeiter in der Erwachsenenbildung St. Pölten;3100;St. Pölten;Klostergasse 16;02742/3242-352;erwbld.stpoelten@noeschule.at;www.kbw-bildung.at;BBS W$S;
302850;Religionspädagogisches Institut der Diözese St. Pölten;3500;Krems;Dr. Gschmeidlerstrasse 22-30;02742/355566;relpaed.stpoelten@noeschule.at;www.dsp.at/rpi/;BBS W$S PAI;
302900;Schule für Gesundheits- und Krankenpflege am Landesklinikum St. Pölten;3100;St. Pölten;Matthias Corvinus Straße 26;02742/300-63 66 1;krpfl.stpoelten@noeschule.at;;BBS W$S GES WMS;
302950;Bundesschülerheim St. Pölten;3100;St. Pölten;Bimbo Binder-Promenade 5;02742/77470;bsh.stpoelten@noeschule.at;;$SH;
303011;Volksschule Waidhofen an der Ybbs, Plenkerstraße;3340;Waidhofen an der Ybbs;Plenkerstraße 8a;07442/52476-523;vs.waidhofen-ybbs-plenkerstrasse@noeschule.at;www.vswaidhofen.at;APS $VS;
303012;Wirtschaftshauptschule Waidhofen an der Ybbs, Pocksteinerstraße;3340;Waidhofen an der Ybbs;Pocksteinerstraße 4;07442/90512;hs.waidhofen-ybbs-1@noeschule.at;hswaidhofen-ybbs-1.ac.at;APS $HS;
303013;Allgemeine Sonderschule Waidhofen an der Ybbs;3340;Waidhofen an der Ybbs;Pocksteinerstraße 27a;07442/55558;aso.waidhofen-ybbs@noeschule.at;www.spz-waidhofen-ybbs.ac.at;APS $AS SPZ;
303014;Polytechnische Schule Waidhofen an der Ybbs;3340;Waidhofen an der Ybbs;Pocksteinerstr. 27a;07442/53220-561;pts.waidhofen-ybbs@noeschule.at;www.polyeisenstrasse.at;APS PTS;
303016;Bundesrealgymnasium Waidhofen/Ybbs;3340;Waidhofen/Ybbs;Schillerplatz 1;07442/52165-10;brg.waidhofen-ybbs@noeschule.at;www.brgwaidhofen-ybbs.ac.at;AHS GYM;
303021;Volksschule Waidhofen an der Ybbs, Windhag;3340;Waidhofen an der Ybbs;Windhag 5;07442/54276;vs.windhag@noeschule.at;;APS $VS;
303022;Hauptschule II Waidhofen an der Ybbs, Zell;3340;Waidhofen an der Ybbs;Zell, Hauptplatz 17a;07442/90510;hs.waidhofen-ybbs-2@noeschule.at;shs.waidhofen.at;APS $HS;
303023;Landessonderschule Waidhofen an der Ybbs, Reichenauerhof;3340;Waidhofen an der Ybbs;Weyrer Straße 81;07442/52489;lss.waidhofen-ybbs@noeschule.at;www.lsswaidhofen-ybbs.ac.at;APS $AS;
303031;Volksschule Waidhofen an der Ybbs, St. Leonhard am Walde;3340;Waidhofen an der Ybbs;St. Leonhard am Walde 98;07442/7345;vs.stleonhard-wald@noeschule.at;;APS $VS;
303041;Volksschule Waidhofen an der Ybbs, Konradsheim;3340;Waidhofen an der Ybbs;Konradsheim 47;07442/53085-0;vs.konradsheim@noeschule.at;;APS $VS;
303051;Volksschule Waidhofen an der Ybbs, St. Georgen in der Klaus;3340;Waidhofen an der Ybbs;Sankt Georgnerstraße 34;07442/58253;vs.stgeorgen-klaus@noeschule.at;;APS $VS;
303061;Volksschule Waidhofen an der Ybbs, Zell;3340;Waidhofen an der Ybbs;Zell, Hauptplatz 17;07442/90517;vs.zell@noeschule.at;www.vszell.ac.at;APS $VS;
303417;Höhere technische Bundeslehr- und Versuchsanstalt Waidhofen/Ybbs;3340;Waidhofen/Ybbs;Im Vogelsang 8;07442/52590-0;htl.waidhofen-ybbs@noeschule.at;www.htlwy.ac.at;BBS T$S TMS THS;
303428;Bundeshandelsakademie und Bundeshandelsschule Waidhofen/Ybbs;3340;Waidhofen/Ybbs;Pocksteinerstraße 3;07442/52142-0;hak.waidhofen-ybbs@noeschule.at;www.hakwaidhofen-ybbs.ac.at;BBS K$S KMS KHS;
303720;Forstfachschule Waidhofen an der Ybbs;3340;Waidhofen/Ybbs;Negelegasse 3;07442/52223-0;forstfachschule@edu.waidhofen.at;edu.waidhofen.at/~ffs/;BBS LFS;
304012;Hauptschule Wiener Neustadt, Primelgasse;2700;Wiener Neustadt;Primelgasse 12;0676-883732375;hs.wr-neustadt@noeschule.at;www.shs-wn.at;APS $HS;
304013;Allgemeine Sonderschule Wiener Neustadt;2700;Wiener Neustadt;Sonnleitnergasse 1;0676 883732392;aso.wr-neustadt@noeschule.at;ris.noe-online.at/wiener-neustadt/schulen/;APS $AS SPZ;
304014;Polytechnische Schule Wiener Neustadt;2700;Wiener Neustadt;Burgplatz 1;0676/883732366;pts.wr-neustadt@noeschule.at;www.poly-wienerneustadt.at;APS PTS;
304016;Bundesgymnasium Wr. Neustadt, Babenbergerring;2700;Wiener Neustadt;Babenbergerring 10;02622/22380;bg.wr-neustadt-babenberger@noeschule.at;www.bg-bab.ac.at;AHS GYM;
30401F;Fachhochschule Wr. Neustadt;2700;Wiener Neustadt;Johannes Gutenberg Straße 3;02622/89084-0;;www.fhwn.ac.at;FH;
304021;Volksschule Wiener Neustadt, Baumkirchnerring West;2700;Wiener Neustadt;Baumkirchnerring 18;0676/88 373 2396;vs.wr-neustadt-bkr-west@noeschule.at;www.vs-bkr.at;APS $VS;
304022;Neue Niederösterreichische Mittelschule Wiener Neustadt, Europaallee 1;2700;Wiener Neustadt;Europa-Allee 1;0676/883732370;hs.wr-neustadt-europa@noeschule.at;www.nms-europaschule.at;APS $HS NMS;
304023;Sonderschule für Körperbehinderte Wiener Neustadt, Waldschule, Wiener Neustadt;2700;Wiener Neustadt;Im Föhrenwald 3;02622/24159-25;aso.wr-neustadt-waldschule@noeschule.at;www.waldschule.at;APS $AS;
304025;Landesberufsschule Wr. Neustadt;2700;Wiener Neustadt;Schneeberggasse 26;02622/28298;office@lbswrneustadt.ac.at;www.lbswrneustadt.ac.at;BPS BRS;
304026;Bundesrealgymnasium Wr. Neustadt, Gröhrmühlgasse;2700;Wiener Neustadt;Gröhrmühlgasse 27;02622/23115-0;brg.wr-neustadt@noeschule.at;www.brg-wrn.ac.at;AHS GYM;
304031;Otto Glöckel Volksschule Wiener Neustadt;2700;Wiener Neustadt;Pottendorfer Straße 100;0676/883732388;vs.wr-neustadt-gloeckel@noeschule.at;vs-otto-gloeckel.schulweb.at/;APS $VS;
304032;Neue Niederösterreichische Mittelschule Wiener Neustadt, Burgplatz;2700;Wiener Neustadt;Burgplatz 1;0676 88373 2379;hs.wr-neustadt-musik@noeschule.at;http://www.musikhauptschule.com;APS $HS NMS;
304033;Heilstättenschule Wiener Neustadt;2700;Wiener Neustadt;Europaallee 1;0676/883732274;heilstaettenschule.wr-neustadt@noeschule.at;www.wiener-neustadt.at/schulen/;APS $AS;
304036;Bundesoberstufenrealgymnasium Wr. Neustadt;2700;Wiener Neustadt;Herzog Leopold-Straße 32;02622/23116-0;borg.wr-neustadt@noeschule.at;www.borgwr-neustadt.ac.at;AHS ORG;
304041;Rudolf Wehrl Volksschule Nord Wiener Neustadt;2700;Wiener Neustadt;Wöllersdorfer Straße 7;0676/883732380;vs.wr-neustadt-wehrl-nord@noeschule.at;www.vs-rudolfwehrl.at;APS $VS;
304042;Neue Niederösterreichische Mittelschule Wiener Neustadt, Fischauergasse;2700;Wiener Neustadt;Fischauer Gasse 109;0676/883732373;hs.wr-neustadt-west@noeschule.at;www.neuemittelschule-wirtschaft-technik.at;APS $HS NMS;
304046;Bundesgymnasium und Bundesrealgymnasium Wr. Neustadt, Zehnergasse;2700;Wiener Neustadt;Zehnergasse 15;02622/23136-0;bg.wr-neustadt-zehner@noeschule.at;www.bgzehnwn.ac.at;AHS GYM;
304052;Private Hauptschule Wiener Neustadt des Schulvereines Institut Sta. Christiana;2700;Wiener Neustadt;Wiener Straße 65;02622/22387-12;phs.wr-neustadt@noeschule.at;www.stachristiana.at;APS $HS PTS NMS;
304056;Bundesoberstufenrealgymnasium und Bundesrealgymnasium für Berufstätige Wr. Neustadt;2700;Wiener Neustadt;Burgplatz 1;050201 / 20 29601;borgmilak.wr-neustadt@noeschule.at;www.milrg.at;AHS ORG;
304061;Volksschule Wiener Neustadt, Herzog Leopold Straße;2700;Wiener Neustadt;Herzog Leopold-Straße 21;0676883732398;vs.wr-neustadt-herzogleopold@noeschule.at;;APS $VS;
304062;Hauptschule Wiener Neustadt, Europaallee 2;2700;Wiener Neustadt;Europaallee 2;0676/883732377;bilinguale-hs-wrneustadt@noeschule.at;www.bilingualeschule.at;APS $HS;
304071;Bürgermeister Hans Barwitzius-Volksschule Wiener Neustadt;2700;Wiener Neustadt;Hubertusgasse 25b;0676 88 373 2 390;vs.wr-neustadt-barwitzius@noeschule.at;www.vs-barwitzius.at;APS $VS;
304091;Pestalozzi Volksschule Nord Wiener Neustadt;2700;Wiener Neustadt;Schneeberggasse 41-43;0043/676/88373/2385;vs.wr-neustadt-pestalozzi-nord@noeschule.at;www.vswr-neustadt-bilingual.ac.at;APS $VS;
304101;Volksschule Wiener Neustadt, In der Josefstadt;2700;Wiener Neustadt;Sonnleitnergasse 1;0676 88373 2393;vs.wr-neustadt-josefstadt@noeschule.at;bsrwn.lsr-noe.gv.at;APS $VS;
304111;Private Volksschule Wiener Neustadt des Institutes Sta. Christiana;2700;Wiener Neustadt;Wiener Straße 65;02622/22387-16;pvs.wr-neustadt-sta-christiana@noeschule.at;www.wiener-neustadt.at/schulen/;APS $VS;
304121;Volksschule Wiener Neustadt, Im Ungarviertel;2700;Wiener Neustadt;Grünbeckgasse 1;0676/88373 2 383;vs.wr-neustadt-ungarviertel@noeschule.at;bsrwn.lsr-noe.gv.at;APS $VS;
304141;UNITAS - Lernwerkstatt;2700;Wr. Neustadt;Zulingergasse 6;;unitas.lernwerkstatt.wr.neustadt@noeschule.at;;APS $VS;
304417;Höhere technische Bundeslehr- und Versuchsanstalt Wr. Neustadt;2700;Wiener Neustadt;Dr. Eckener Gasse 2;02622/27871;htl.wr-neustadt@noeschule.at;www.htlwrn.ac.at;BBS T$S THS TMS KOLL;
304437;Werkmeisterschule des BFI NOE;2700;Wiener Neustadt;Molkereistraße 13;0699 / 133 33 100;s304437@noeschule.at;www.bfi-werkmeister.at;BBS T$S TWS;
304438;Bundeshandelsakademie und Bundeshandelsschule Wr. Neustadt;2700;Wiener Neustadt;Ungargasse 29;02622/23570-0;hak.wr-neustadt@noeschule.at;www.hakwr-neustadt.ac.at;BBS K$S KMS KHS KOLL;
304449;Städtische Höhere Lehranstalt für wirtschaftliche Berufe, Wr. Neustadt;2700;Wiener Neustadt;Burgplatz 1;02622/26570-11;hlw.wr-neustadt@noeschule.at;hla.wiener-neustadt.at;BBS W$S WMS WHS;
304459;Fachschule für Sozialberufe der Caritas der Erzdiözese Wien, Wr. Neustadt;2700;Wiener Neustadt;Grazer Straße 52;02622/23847;soz.wr-neustadt@noeschule.at;www.fsbwr-neustadt.ac.at;BBS W$S SOZ;
304469;Städtische Höhere gewerbliche Lehranstalt, Fachrichtung Mode und Bekleidungstechnik, Wr. Neustadt;2700;Wiener Neustadt;Bräunlichgasse 1;02622/85748-11;hlm.wr-neustadt@noeschule.at;www.hlm.wiener-neustadt.at;BBS W$S WHS MODE;
304810;Ausbildungsinstitut für Mitarbeiter in der Erwachsenenbildung Wr. Neustadt;2700;Wiener Neustadt;Neuklostergasse 1;01/3170510-17 oder 18;erwbld.wr-neustadt@noeschule.at;www.ausbildungsinstitut.at;BBS W$S;
304820;Bildungsanstalt für Kindergartenpädagogik der Stadt Wiener Neustadt;2700;Wiener Neustadt;Bräunlichgasse 1;02622/85748;bakip.wr-neustadt@noeschule.at;www.bakip.wiener-neustadt.at/;BBS BAKIP KOLL;
304900;Krankenpflegeschule Wr. Neustadt;2700;Wiener Neustadt;Corvinusring 20;02622/321/2755;krpfl.wr-neustadt@noeschule.at;;BBS W$S GES WMS;
304950;Schülerheim Wiener Neustadt;2700;Wiener Neustadt;Wohlfahrtgasse 47;02622/22304;sh.wr-neustadt@noeschule.at;;$SH;
305011;Volksschule Allhartsberg;3365;Allhartsberg;Markt 50;07448/3895;vs.allhartsberg@noeschule.at;www.vsfarbengarten.at;APS $VS;
305012;Neue Niederösterreichische Mittelschule Allhartsberg;3365;Allhartsberg;Markt 50;07448/3896;nms.allhartsberg@noeschule.at;www.hsallhartsberg.ac.at;APS $HS NMS;
305013;Allgemeine Sonderschule Amstetten;3300;Amstetten;Siedlungsstraße 4;07472/68355;aso.amstetten@noeschule.at;www.sonnenschule.at;APS $AS SPZ;
305014;Polytechnische Schule Amstetten;3300;Amstetten;Siedlungsstraße 2;07472/68464;pts.amstetten@noeschule.at;www.ptsamstetten.ac.at;APS PTS;
305015;Landesberufsschule Amstetten;3300;Amstetten;Leopold Maderthanerplatz 2;07472/62786-0;office@lbsamstetten.ac.at;www.lbsamstetten.ac.at;BPS BRS;
305016;Öffentliches Stiftsgymnasium der Benediktiner, Seitenstetten;3353;Seitenstetten;Am Klosterberg 1;07477/42300-317;gym.seitenstetten@noeschule.at;www.stiftsgymnasium.at;AHS GYM;
305021;Volksschule Amstetten, Preinsbacherstraße;3300;Amstetten;Preinsbacher Straße 17;07472/62227;vs.amstetten-preinsbacherstrasse@noeschule.at;www.vsamstetten-preinsbacherstrasse.ac.at;APS $VS;
305022;Hauptschule Amstetten, Pestalozzistraße;3300;Amstetten;Pestalozzistraße 2;07472/62911;hs.amstetten-pestalozzistrasse@noeschule.at;www.hs2-amstetten.at;APS $HS;
305026;Bundesgymnasium und Bundesrealgymnasium Amstetten;3300;Amstetten;Anzengruberstraße 6;07472/62903-0;bg.amstetten@noeschule.at;www.bgamstetten.ac.at;AHS GYM;
305031;Volksschule Amstetten, Allersdorferstraße;3300;Amstetten;Allersdorfer Straße 1;07472/68512;vs.amstetten-allersdorferstrasse@noeschule.at;www.vsamstetten-allersdorf.ac.at;APS $VS;
305032;Hauptschule Amstetten, Kirchenstraße;3300;Amstetten;Kirchenstraße 18;07472/62547;hs.amstetten-kirchenstrasse@noeschule.at;www.hsamstetten-1.ac.at;APS $HS;
305033;Allgemeine Sonderschule St. Valentin;4300;St. Valentin;Werkstraße 22;07435/52104;aso.stvalentin@noeschule.at;www.asostvalentin.ac.at;APS $AS;
305041;Volksschule Ardagger;3321;Ardagger Stift;Am Weinberg 1;07479/7316;vs.ardagger@noeschule.at;;APS $VS;
305042;Neue Niederösterreichische Mittelschule Ardagger;3321;Ardagger Stift;Am Weinberg 1;07479/7364;nms.ardagger@noeschule.at;www.hsardagger.ac.at;APS $HS NMS;
305043;Allgemeine Sonderschule Haag;3350;Haag;Höllriglstraße 17;07434/44349;aso.haag@noeschule.at;www.spzhaag.ac.at;APS $AS SPZ;
305052;Neue Niederösterreichische Mittelschule Aschbach-Markt;3361;Aschbach-Markt;Schulstraße 2;07476/7733011;nms.aschbach-markt@noeschule.at;;APS $HS NMS;
305061;Volksschule Aschbach-Markt;3361;Aschbach-Markt;Schulstraße 2;07476/773303;vs.aschbach-markt@noeschule.at;www.volksschule-aschbach.at;APS $VS;
305062;Neue Niederösterreichische Mittelschule Ertl;3355;Ertl;Schulstraße 1;07477/7319-40;nms.ertl@noeschule.at;;APS $HS NMS;
305071;Volksschule Behamberg;4441;Behamberg;Nr. 38;07252/32003-11;vs.behamberg@noeschule.at;www.vsbehamberg.ac.at;APS $VS;
305072;Hauptschule Euratsfeld;3324;Euratsfeld;Hoher Rain 6;07474/259;hs.euratsfeld@noeschule.at;www.hseuratsfeld.ac.at;APS $HS;
305074;Polytechnische Schule St. Valentin;4300;St. Valentin;Schubertviertel 50;07435/52987;pts.stvalentin@noeschule.at;www.ptsstvalentin.ac.at;APS PTS;
305081;Volksschule Biberbach;3353;Biberbach;Im Ort 8;07476/8218;vs.biberbach@noeschule.at;;APS $VS;
305082;Hauptschule Hollenstein an der Ybbs;3343;Hollenstein an der Ybbs;Dorf 31;0664 83 39 237;hs.hollenstein@noeschule.at;community.schule.at;APS $HS;
305084;Polytechnische Schule St. Peter in der Au;3352;St. Peter in der Au;Vogelhändlerplatz 4;07477/44000-30;pts.stpeter-au@noeschule.at;www.ptsstpeter-au.ac.at;APS PTS;
305091;Volksschule Sonntagberg, Böhlerwerk;3333;Böhlerwerk;Waidhofner Straße 42;07442/62770;vs.boehlerwerk@noeschule.at;;APS $VS;
305092;Hauptschule Neuhofen an der Ybbs;3364;Neuhofen an der Ybbs;Hauptstraße 21;07475/59048-33;hs.neuhofen@noeschule.at;www.hsneuhofen.ac.at;APS $HS;
305102;Neue Niederösterreichische Mittelschule Neustadtl an der Donau;3323;Neustadtl an der Donau;Feldgasse 5;07471/7003;nms.neustadtl@noeschule.at;www.hsneustadtl.ac.at;APS $HS NMS;
305111;Volksschule Ernsthofen;4432;Ernsthofen;Hauptstraße 19;07435/8450-22;vs.ernsthofen@noeschule.at;;APS $VS;
305112;Neue Niederösterreichische Mittelschule Sonntagberg;3332;Rosenau, Sonntagberg;Schulstraße 9;07448/2303;nms.sonntagberg-rosenau@noeschule.at;www.hsrosenau.ac.at;APS $HS NMS;
305121;Volksschule Ertl;3355;Ertl;Schulstraße 1;07477/731920;vs.ertl@noeschule.at;www.vsertl.ac.at;APS $VS;
305122;Neue Niederösterreichische Mittelschule St. Peter in der Au;3352;St. Peter in der Au;Vogelhändlerplatz 4;07477/44000-40;nms.stpeter-au@noeschule.at;www.hauptschule.at.hm;APS $HS NMS;
305131;Volksschule Euratsfeld;3324;Euratsfeld;Hauptstraße 8;07474/6585;vs.euratsfeld@noeschule.at;;APS $VS;
305132;Neue Niederösterreichische Mittelschule St. Valentin, Schubertviertel, Interessens- und Begabungsorientierte Mittelschule;4300;St. Valentin;Schubertviertel 50;07435/52439;nms.stvalentin-schubertviertel@noeschule.at;www.schulen.eduhi.at/hs1shs-st.valentin/deutsch.htm;APS $HS NMS;
305141;Volksschule Ferschnitz;3325;Ferschnitz;Schulstraße 7;07473/8387;vs.ferschnitz@noeschule.at;www.vsferschnitz.ac.at;APS $VS;
305142;Neue Niederösterreichische Mittelschule Seitenstetten;3353;Seitenstetten;Amstettner Straße 29;07477/42359;nms.seitenstetten@noeschule.at;;APS $HS NMS;
305152;Hauptschule Haag;3350;Haag;Höllriglstraße 17;07434/42146;hs.haag@noeschule.at;www.hshaag.ac.at;APS $HS;
305161;Volksschule Haidershofen;4431;Haidershofen;Nr. 5;07252/37831;vs.haidershofen@noeschule.at;www.vshaidershofen.ac.at;APS $VS;
305162;Hauptschule Amstetten, Hausmening;3363;Ulmerfeld-Hausmening;Winthalstraße 23;07475/59025;hs.hausmening@noeschule.at;;APS $HS;
305171;Volksschule Haidershofen, Vestenthal;4431;Haidershofen;Vestenthal 35;07434/42816;vs.haidershofen-vestenthal@noeschule.at;www.vsvestenthal.ac.at;APS $VS;
305172;Neue Niederösterreichische Mittelschule Wallsee-Sindelburg;3313;Wallsee;St. Severinstraße 17;07433/2708;nms.wallsee-sindelburg@noeschule.at;www.hswallsee.ac.at;APS $HS NMS;
305182;Neue Niederösterreichische Mittelschule Wolfsbach;3354;Wolfsbach;Schulstraße 2;07477/8274;nms.wolfsbach@noeschule.at;hs-wolfsbach.schulweb.at;APS $HS NMS;
305191;Volksschule Hollenstein an der Ybbs;3343;Hollenstein an der Ybbs;Dorf 31;0664 83 39 237;vs.hollenstein@noeschule.at;;APS $VS;
305192;Neue Niederösterreichische Mittelschule Ybbsitz;3341;Ybbsitz;Maisbergstraße 13;07443/86240;nms.ybbsitz@noeschule.at;;APS $HS NMS;
305201;Volksschule Kematen an der Ybbs;3331;Kematen an der Ybbs;13. a Straße 3;07448/3617;vs.kematen@noeschule.at;www.vskematen.ac.at;APS $VS;
305202;Private Hauptschule Amstetten der Kongregation der Schwestern vom 3.Orden des Hl. Franziskus;3300;Amstetten;Rathausstraße 16;07472/62577-18;phs.amstetten@noeschule.at;www.phsamstetten.ac.at;APS $HS;
305212;Private Hauptschule Rosenau - Sonntagberg der Kongregation der Schwestern vom göttlichen Erlöser;3332;Rosenau, Sonntagberg;Gleiss, Waidhofner Straße 22;07448/2316-14;phs.rosenau-sonntagberg@noeschule.at;www.phsgleiss.ac.at;APS $HS NMS;
305222;Neue Niederösterreichische Mittelschule Haidershofen;4431;Haidershofen;Nr. 100;07252/37849;nms.haidershofen@noeschule.at;hshaidershofen.ac.at;APS $HS NMS;
305232;Neue Niederösterreichische Mittelschule St. Valentin, Langenhart;4300;St. Valentin;Schulstraße 1;07435/53590;nms.stvalentin-langenhart@noeschule.at;www.hsstvalentin-2.ac.at;APS $HS NMS;
305241;Volksschule St. Peter in der Au, Kürnberg;3352;St. Peter in der Au;Kürnberg 10;07252/30294;vs.kuernberg@noeschule.at;;APS $VS;
305242;Hauptschule Amstetten, Mauer;3362;Mauer bei Amstetten;Hausmeninger Straße 6;07475/59064;hs.mauer@noeschule.at;www.hsmauer.ac.at;APS $HS;
305251;Volksschule Neuhofen an der Ybbs;3364;Neuhofen an der Ybbs;Hauptstraße 23;07475/52116;vs.neuhofen@noeschule.at;www.vsneuhofen.ac.at;APS $VS;
305252;Neue Niederösterreichische Mittelschule Strengberg;3314;Strengberg;Schulplatz 5;07432/2336-1;nms.strengberg@noeschule.at;hsstrengberg.comteam.at;APS $HS NMS;
305261;Volksschule Neustadtl an der Donau;3323;Neustadtl an der Donau;Marktstraße 6;07471/2217;vs.neustadtl@noeschule.at;;APS $VS;
305262;Neue Niederösterreichische Mittelschule St. Peter in der Au, Ramingtal;4442;Kleinraming;Ramingtal 30;07252/30155;nms.stpeter-au-ramingtal@noeschule.at;;APS $HS NMS;
305271;Volksschule Oed - Öhling, Oed;3312;Oed bei Amstetten;Nr. 50;07478/216;vs.oed@noeschule.at;www.vsoed.ac.at;APS $VS;
305281;Volksschule Oed - Öhling, Öhling;3362;Oehling;Nr. 39;07475/53103;vs.oehling@noeschule.at;;APS $VS;
305291;Volksschule Opponitz;3342;Opponitz;Hauslehen 23;07444/7268;vs.opponitz@noeschule.at;;APS $VS;
305301;Volksschule Sonntagberg, Rosenau;3332;Rosenau, Sonntagberg;Schulstraße 9;07448/2295;vs.rosenau@noeschule.at;;APS $VS;
305321;Volksschule St. Georgen am Reith;3344;St. Georgen am Reith;Dorf 36;07484/8226;vs.stgeorgen-reith@noeschule.at;;APS $VS;
305331;Volksschule St. Georgen am Ybbsfelde;3304;St. Georgen am Ybbsfelde;Marktplatz 2;07473/2305;vs.stgeorgen-ybbsfeld@noeschule.at;www.vsstgeorgen-ybbsfelde@asn-noe.ac.at;APS $VS;
305371;Volksschule St. Pantaleon - Erla;4303;St. Pantaleon;Ringstraße 12;07435/7592;vs.stpantaleon-erla@noeschule.at;www.st-pantaleon-erla.gv.at/gemeinde/volksschule.html;APS $VS;
305381;Volksschule St. Peter in der Au;3352;St. Peter in der Au;Haghofstraße 3;07477/42317;vs.stpeter-au@noeschule.at;www.vsstpeter-au.ac.at;APS $VS;
305391;Volksschule St. Valentin, Hauptplatz;4300;St. Valentin;Hauptplatz 9;07435/521610;vs.stvalentin-hauptplatz@noeschule.at;www.vsstvalentin-hauptplatz.ac.at;APS $VS;
305401;Volksschule St. Valentin, Werkstraße;4300;St. Valentin;Werkstraße 22;07435/52235;vs.stvalentin-werkstrasse@noeschule.at;www.vsstvalentin-werkstrasse.ac.at;APS $VS;
305411;Volksschule Seitenstetten;3353;Seitenstetten;Schulgasse 6;07477/42273;vs.seitenstetten@noeschule.at;www.vsseitenstetten.ac.at;APS $VS;
305419;Fachschule für wirtschaftliche Berufe der Marienschwestern vom Karmel, Klein Erla;4303;St. Pantaleon-Erla;Klein Erla 1;07435/7464;fs.erla@noeschule.at;www.fachschulenerla.ac.at;BBS W$S WMS;
305428;Bundeshandelsakademie und Bundeshandelsschule Amstetten;3300;Amstetten;Stefan Fadinger-Straße 36;07472/62628;hak.amstetten@noeschule.at;www.hakamstetten.ac.at;BBS K$S KMS KHS;
305431;Volksschule Haag;3350;Haag;Wiener Straße 2;07434/43959;vs.haag@noeschule.at;www.vshaag.ac.at;APS $VS;
305449;Fachschule für wirtschaftliche Berufe der Kongregation der Schulschwestern, Amstetten;3300;Amstetten;Rathausstraße 16;07472/62577-25;fs.amstetten@noeschule.at;www.fwamstetten.ac.at;BBS W$S WMS;
305451;Volksschule Strengberg;3314;Strengberg;Schulplatz 3;07432/2241;vs.strengberg@noeschule.at;www.vsstrengberg.ac.at;APS $VS;
305459;Fachschule für Sozialberufe Gleiß;3332;Rosenau/Sonntagberg;Waidhofner Straße 22;07448/2316-16;fsb.gleiss@noeschule.at;www.fsbgleiss.ac.at;BBS W$S WMS SOZ;
305461;Volksschule Amstetten, Hausmening;3363;Ulmerfeld - Hausmening - Neufurth;Hausmening, Josef Hiebl-Straße 12;07475/52202;vs.hausmening@noeschule.at;in Arbeit;APS $VS;
305469;Höhere Bundeslehranstalt für wirtschaftliche Berufe Amstetten;3300;Amstetten;Stefan Fadinger-Straße 36;07472/68210-0;hlw.amstetten@noeschule.at;www.hlwamstetten.ac.at;BBS W$S WMS WHS;
305471;Volksschule Viehdorf;3322;Viehdorf;Nr. 112;07472/64192;vs.viehdorf@noeschule.at;www.vsviehdorf.ac.at;APS $VS;
305479;Höhere Bundeslehranstalt für wirtschaftliche Berufe Haag;3350;Haag;Wienerstraße 2;07434/43717-0;hlw.haag@noeschule.at;www.hlwhaag.ac.at;BBS W$S WMS WHS;
305489;Private Fachschule für Altendienste und Pflegehilfe Haag;3350;Haag;Wienerstraße 2;07434/43717;fs.haag@noeschule.at;;BBS GES;
305501;Volksschule Wallsee - Sindelburg;3313;Wallsee;St. Severinstraße 17;07433/2239;vs.wallsee-sindelburg@noeschule.at;;APS $VS;
305511;Volksschule Weistrach;3351;Weistrach;Dorf 50;07477/42398;vs.weistrach@noeschule.at;;APS $VS;
305531;Volksschule Winklarn;3300;Winklarn;Hauptstraße 13;07472/6431930;vs.winklarn@noeschule.at;;APS $VS;
305541;Volksschule Wolfsbach;3354;Wolfsbach;Schulstraße 2;07477/820411;vs.wolfsbach@noeschule.at;www.vswolfsbach.ac.at;APS $VS;
305551;Volksschule Ybbsitz;3341;Ybbsitz;Schulgasse 1;07443/86386;vs.ybbsitz@noeschule.at;www.vsybbsitz.ac.at;APS $VS;
305561;Volksschule Zeillern;3311;Zeillern;Schulstraße 14;07472/64402;vs.zeillern@noeschule.at;;APS $VS;
305581;Private Volksschule Amstetten der Kongregation der Schwestern vom 3.Orden des Hl. Franziskus;3300;Amstetten;Rathausstraße 16;07472/62577-49;pvs.amstetten@noeschule.at;www.pvsamstetten.ac.at;APS $VS;
305591;Private Volksschule Rosenau - Sonntagberg der Kongregation der Schwestern vom göttlichen Erlöser;3332;Rosenau, Sonntagberg;Gleiss, Waidhofner Straße 22;07448/231618;pvs.rosenau-sonntagberg@noeschule.at;www.pvsgleiss.ac.at;APS $VS;
305611;Volksschule Ennsdorf;4482;Ennsdorf;Ziegelgasse 4b;07223/82860;vs.ennsdorf@noeschule.at;vsennsdorf.ac.at;APS $VS;
305621;Volksschule Amstetten, Elsa Brandström-Straße;3300;Amstetten;Elsa Brandström-Straße 5;07472/61630;vs.amstetten-brandstroemstrasse@noeschule.at;www.vsamstetten-brandstroemstrasse.ac.at;APS $VS;
305631;Mostviertler Montessorischule Aschbach-Markt;3361;Aschbach-Markt;Gunnersdorf 5;07476/77824;pvs.aschbach@noeschule.at;;APS $VS STS;
305710;Landwirtschaftliche Fachschule Gießhübl;3300;Amstetten;Gießhübl 7;07472/62722;;;BBS LFS;
305720;Landwirtschaftliche Fachschule Hohenlehen;3343;Hollenstein/Ybbs;Garnberg 8;07445/225;;www.hohenlehen.at;BBS LFS;
305730;Landwirtschaftliche Fachschule Unterleiten;3343;Hollenstein/Ybbs;Unterleiten;07445/204;;;BBS LFS;
305810;Bildungsanstalt für Kindergartenpädagogik Trägerverein Franziskanerinnen;3300;Amstetten;Rathausstraße 16;07472/62577-21;bakip.amstetten@noeschule.at;www.bakipamstetten.ac.at;BBS BAKIP;
306011;Volksschule Alland;2534;Alland;Heiligenkreuzer Straße 151;02258/2407;vs.alland@noeschule.at;;APS $VS;
306012;Neue Niederösterreichische Mittelschule Alland;2534;Alland;Nr. 303;02258/2340;hs.alland@noeschule.at;www.hs-alland.at;APS $HS NMS;
306013;Allgemeine Sonderschule Baden;2500;Baden;Hildegardgasse 8;02252/84707;aso.baden@noeschule.at;www.spz-baden.ac.at;APS $AS SPZ;
306015;Landesberufsschule Baden;2500;Baden;Josef Kollmann-Straße 1;02252/86772-0;direktion@lbsbaden.ac.at;www.lbsbaden.ac.at;BPS BRS;
306016;Bundesgymnasium und Bundesrealgymnasium Baden, Biondekgasse;2500;Baden;Biondekgasse 6;02252/89787-0;bg.baden-biondek@noeschule.at;www.brgbaden-biondek.ac.at;AHS GYM;
306021;Volksschule Altenmarkt an der Triesting;2571;Altenmarkt an der Triesting;Hainfelder Straße 12;02673/2733;vs.altenmarkt-triesting@noeschule.at;;APS $VS;
306022;Praxishauptschule der pädagogischen Hochschule NÖ;2500;Baden;Pelzgasse 17;02252/44480;306022@noeschule.at;www.praxishsbaden.ac.at;APS $HS NMS;
306023;Allgemeine Sonderschule Bad Vöslau;2540;Bad Vöslau;Rudolf Reiter-Straße 11;02252/71451;aso.badvoeslau@noeschule.at;;APS $AS;
306024;Polytechnische Schule Baden;2500;Baden;Hildegardgasse 8;02252/46310;pts.baden@noeschule.at;www.polybaden.at;APS PTS;
306026;Bundesgymnasium Baden, Frauengasse;2500;Baden;Frauengasse 3-5;02252/44403-0;bg.baden-frauen@noeschule.at;www.bgbaden-frauen.ac.at;AHS GYM;
306031;Volksschule I Baden;2500;Baden;Pfarrplatz 1-3;02252/209226;vs.baden-1@noeschule.at;www.vs2-baden.at;APS $VS;
306032;Neue Niederösterreichische Mittelschule Baden;2500;Baden;Pelzgasse 13;02252/44480;hs.baden@noeschule.at;www.whsbaden.at;APS $HS NMS;
306033;Allgemeine Sonderschule Berndorf;2560;Berndorf;Karl Kislinger-Platz 5;0676 848225113;aso.berndorf@noeschule.at;www.spzberndorf.ac.at;APS $AS SPZ;
306036;Bundesgymnasium und Bundesrealgymnasium Berndorf;2560;Berndorf;Sportpromenade 19;02672/82265-0;bg.berndorf@noeschule.at;www.bgberndorf.ac.at;AHS GYM;
306041;Volksschule II Baden;2500;Baden;Pfarrplatz 1-3;02252/209226;vs.baden-2@noeschule.at;www.vs2-baden.at;APS $VS;
306042;Neue Niederösterreichische Mittelschule Berndorf I;2560;Berndorf;Margaretenplatz 2;0676848225390;hs.berndorf-1@noeschule.at;www.whs1berndorf.at;APS $HS NMS;
306044;Polytechnische Schule Pottenstein;2563;Pottenstein;Hainfelder Straße 24;02672/87275-21;pts.pottenstein@noeschule.at;www.poly-pottenstein.at;APS PTS;
306046;Real-, Aufbau- und Aufbaurealgymnasium des Schulvereins der Salesianer Don Boscos;2442;Unterwaltersdorf;Don Bosco-Straße 20;02254/72313-0;gym.unterwaltersdorf@noeschule.at;www.donbosco.at/unterwaltersdorf;AHS GYM;
306051;Volksschule Baden, Radetzkystraße;2500;Baden;Radetzkystraße 14;02252/86800-630;vs.baden-radetzkystrasse@noeschule.at;;APS $VS;
306052;Neue Niederösterreichische Mittelschule Berndorf II;2560;Berndorf;Margaretenplatz 2;0676 848225394;hs.berndorf-2@noeschule.at;nmsberndorf.ac.at;APS $HS $AS NMS;
306053;Allgemeine Sonderschule Traiskirchen;2514;Traiskirchen;Karl Hilber-Straße 1;02252/52 149;aso.traiskirchen@noeschule.at;asotraiskirchen.ac.at;APS $AS;
306054;Polytechnische Schule Kottingbrunn;2542;Kottingbrunn;Renngasse 18;02252/76334;pts.kottingbrunn@noeschule.at;www.ptskottingbrunn.at;APS PTS;
306056;Expositur Bad Vöslau-Gainfarn;2540;Bad Vöslau;Petzgasse 36;02252/76287;gym.gainfarn-expositur@noeschule.at;www.gymnasium-badvoeslau.ac.at;AHS GYM;
306061;Volksschule Baden, Uetzgasse;2500;Baden;Uetzgasse 12;02252/86800-640;vs.baden-uetzgasse@noeschule.at;www.vs-uetzgasse.at;APS $VS;
306062;Hauptschule Hirtenberg;2552;Hirtenberg;Leobersdorfer Straße 66;02256/81131;hs.hirtenberg@noeschule.at;www.hshirtenberg.at;APS $HS;
306071;Volksschule Bad Vöslau;2540;Bad Vöslau;Raulestraße 6;02252/71970;vs.badvoeslau@noeschule.at;www.vsbadvoeslau.ac.at;APS $VS;
306072;Neue Niederösterreichische Mittelschule Leobersdorf;2544;Leobersdorf;Schulgasse 5;02256/62110;hs.leobersdorf@noeschule.at;www.hsleobersdorf.ac.at;APS $HS NMS;
306081;Volksschule I Berndorf;2560;Berndorf;Margaretenplatz 5;0676 / 84 8225 362;vs.berndorf-1@noeschule.at;;APS $VS;
306082;Neue Niederösterreichische Mittelschule Oberwaltersdorf;2522;Oberwaltersdorf;Badener Straße 26;02253/61000-222;hs.oberwaltersdorf@noeschule.at;www.hs-oberwaltersdorf.at;APS $HS NMS;
306083;Allgemeine Sonderschule Ebreichsdorf;2483;Ebreichsdorf;Hans Hofer-Gasse 4;02254/74474;aso.ebreichsdorf@noeschule.at;www.aso-ebreichsdorf.ac.at;APS $AS SPZ;
306091;Volksschule II Berndorf;2560;Berndorf;Margaretenplatz 5;0676/84 8225 362;vs.berndorf-2@noeschule.at;;APS $VS;
306092;Neue Niederösterreichische Mittelschule Pottendorf;2486;Pottendorf;Johannes Heigl-Gasse 2;02623/722381;hs.pottendorf@noeschule.at;;APS $HS NMS;
306093;Allgemeine Sonderschule Teesdorf;2524;Teesdorf;Alfred Schedewy-Straße 10;02253/81770;aso.teesdorf@noeschule.at;http://www.asoteesdorf.ac.at;APS $AS;
306101;Volksschule Berndorf, St. Veit;2560;Berndorf;St. Veit, Hauptplatz 2;0676/84 8225-364;vs.berndorf-stveit@noeschule.at;;APS $VS;
306102;Neue Niederösterreichische Mittelschule Teesdorf;2524;Teesdorf;Schulstraße 5;02253/81650/100;hs.teesdorf@noeschule.at;;APS $HS NMS;
306103;Allgemeine Sonderschule Oberwaltersdorf;2522;Oberwaltersdorf;Badener Straße 26;0225361000233;aso.oberwaltersdorf@noeschule.at;www.oberwaltersdorf.at;APS $AS;
306112;Neue Niederösterreichische Mittelschule Traiskirchen;2514;Traiskirchen;Johann Wolfgang von Goethe-Straße 6-8;02252/52644;hs.traiskirchen@noeschule.at;www.hstraiskirchen.at;APS $HS NMS;
306121;Volksschule Seibersdorf an der Leitha;2443;Seibersdorf Deutsch-Brodersdorf;Obere Hauptstraße 39;02255/6236;vs.seibersdorf@noeschule.at;www.marktgemeinde-seibersdorf.at/schule;APS $VS;
306122;Hauptschule Weissenbach an der Triesting;2564;Weissenbach an der Triesting;Hollergasse 46;02674/87381;hs.weissenbach@noeschule.at;www.hsweissenbach.at;APS $HS;
306131;Volksschule Enzesfeld - Lindabrunn;2551;Enzesfeld - Lindabrunn;Schulgasse 2;02256/81090;vs.enzesfeld-lindabrunn@noeschule.at;www.vs-enzesfeld-lindabrunn.at;APS $VS;
306132;Neue Niederösterreichische Mittelschule Bad Vöslau;2540;Bad Vöslau;Raulestraße 9;02252/76181;hs.badvoeslau@noeschule.at;www.sms-badvoeslau.at;APS $HS NMS;
306141;Volksschule Furth an der Triesting;2564;Furth an der Triesting;Nr. 2;02674/88290;vs.furth@noeschule.at;;APS $VS;
306142;Neue Niederösterreichische Mittelschule Ebreichsdorf;2483;Ebreichsdorf;Schulgasse 6;02254/72239;hs.ebreichsdorf@noeschule.at;;APS $HS PTS NMS;
306151;Volksschule Bad Vöslau, Gainfarn;2541;Bad Vöslau/Gainfarn;Hauptstraße 54-56;02252/70465;vs.badvoeslau-gainfarn@noeschule.at;www.vsgainfarn.ac.at;APS $VS;
306161;Volksschule Hernstein, Grillenberg;2560;Grillenberg;Schulgasse 6;02672/87149;vs.hernstein-grillenberg@noeschule.at;;APS $VS;
306191;Volksschule Heiligenkreuz;2532;Heiligenkreuz;Nr. 50;02258/8730;vs.heiligenkreuz@noeschule.at;www.heiligenkreuz.at;APS $VS;
306201;Volksschule Hirtenberg;2552;Hirtenberg;Feldgasse 1a;02256/81130;vs.hirtenberg@noeschule.at;www.vs-hirtenberg.at;APS $VS;
306221;Volksschule Klausen - Leopoldsdorf;2533;Klausen - Leopoldsdorf;Nr. 81;02257/273;vs.klausen-leopoldsdorf@noeschule.at;www.vsklausen.at;APS $VS;
306231;Volksschule Kottingbrunn;2542;Kottingbrunn;Franz Nagl-Gasse 20;02252/76107;vs.kottingbrunn@noeschule.at;www.vskottingbrunn.at;APS $VS;
306251;Volksschule Traiskirchen, Möllersdorf;2514;Traiskirchen;Guntramsdorfer Straße 1-3;02252/52150 oder 050355/362;vs.moellersdorf@noeschule.at;www.vsmoellersdorf.ac.at;APS $VS;
306271;Volksschule Pfaffstätten;2511;Pfaffstätten;Schulgasse 2;02252/43860;vs.pfaffstaetten@noeschule.at;volksschule.pfaffstaetten.at;APS $VS;
306281;Volksschule Pottendorf;2486;Pottendorf;Johannes Heigl-Gasse 2;02623/72238-2;vs.pottendorf@noeschule.at;www.vspottendorf.at;APS $VS;
306301;Volksschule Reisenberg;2440;Reisenberg;Kirchengasse 11;02234/80566;vs.reisenberg@noeschule.at;;APS $VS;
306331;Volksschule Sooß;2500;Sooß;Hauptstraße 29;02252/22592;vs.sooss@noeschule.at;www.vssooss.at;APS $VS;
306351;Volksschule Traiskirchen;2514;Traiskirchen;Karl Hilber-Straße 1;02252/52386;vs.traiskirchen@noeschule.at;www.vstraiskirchen.ac.at;APS $VS;
306361;Volksschule Traiskirchen, Tribuswinkel;2512;Tribuswinkel;Josef Lichtenecker-Gasse 5;02252/85078;vs.tribuswinkel@noeschule.at;;APS $VS;
306371;Volksschule Trumau;2521;Trumau;Kirchengasse 5;02253/6500;vs.trumau@noeschule.at;;APS $VS;
306381;Volksschule Ebreichsdorf, Unterwaltersdorf;2442;Unterwaltersdorf;Pflanzsteig 9;02254/73930;vs.unterwaltersdorf@noeschule.at;www.vs-unterwaltersdorf.schulweb.at;APS $VS;
306401;Volksschule Ebreichsdorf, Weigelsdorf;2484;Weigelsdorf;Hauptstraße 32;02254/73700;vs.weigelsdorf@noeschule.at;;APS $VS;
306411;Volksschule Weissenbach an der Triesting;2564;Weissenbach an der Triesting;Hauptstraße 16;02674/89389;vs.weissenbach@noeschule.at;www.school4you.at/2564/vs-weissenbach;APS $VS;
306419;Höhere Bundeslehranstalt für wirtschaftliche Berufe Baden;2500;Baden;Germergasse 5;02252/89151;hlw.baden@noeschule.at;www.hlabaden.at;BBS W$S WMS WHS KOLL;
306421;Volksschule Leobersdorf;2544;Leobersdorf;Rathausplatz 3;02256/62267;vs.leobersdorf@noeschule.at;www.vsleobersdorf.at;APS $VS;
306428;Bundeshandelsakademie und Bundeshandelsschule Baden;2500;Baden;Mühlgasse 65;02252/88568-0;hak.baden@noeschule.at;www.hak-baden.ac.at;BBS K$S KMS KHS;
306429;International College of Tourismus and Management - ITM GmbH;2540;Bad Vöslau;Johann Strauß Strasse 2;+43 (0) 664 910 8 200;itm.semmering@noeschule.at;www.itm-college.eu;BBS W$S WHS TOUR KOLL;
306431;Volksschule Ebreichsdorf;2483;Ebreichsdorf;Schulgasse 2;02254/72528;vs.ebreichsdorf@noeschule.at;vsebreichsdorf.schulweb.at;APS $VS;
306437;Höhere technische Lehranstalt Baden, Malerschule Leesdorf;2500;Baden;Leesdorfer Hauptstraße 69;02252/80250;ms.baden@noeschule.at;www.malerschule-baden.ac.at;BBS T$S TMS THS KOLL;
306441;Volksschule Oberwaltersdorf;2522;Oberwaltersdorf;Badener Straße 26;02253/61000 - 215;vs.oberwaltersdorf@noeschule.at;vs-oberwaltersdorf.at;APS $VS;
306451;Volksschule Teesdorf;2524;Teesdorf;Alfred Schedewy-Straße 10;02253/81660;vs.teesdorf@noeschule.at;www.teesdorf.at;APS $VS;
306461;Volksschule Pottenstein;2563;Pottenstein;Hainfelder Straße 24;02672/85170-10;vs.pottenstein@noeschule.at;www.vspottenstein.com;APS $VS;
306471;Praxisvolksschule der Pädagogischen Hochschule für NÖ;2500;Baden;Mühlgasse 67;02252/88570-141;uevs.baden@noeschule.at;http://praxisvs.ph-noe.ac.at;APS $VS;
306481;"""Rudolf Steiner Landschule"" Schönau - Freie Waldschule";2525;Schönau an der Triesting;Kirchengasse 22;02256/62181;pvs.schoenau@noeschule.at;www.waldorf-schoenau.at;APS $VS STS;
306491;Schulzentrum für ganzheitliches Lernen von der 1.-9. Schulstufe;2551;Enzesfeld;Schlossstraße 34;02256/824713;pvs.enzesfeld@noeschule.at;;APS $VS STS;
306501;"Private Volksschule ""Badener Regenbogen"" Privatschule des Hr. Herbert Vanicek, Baden";2500;Baden;Trostgasse 17;02252/42300;pvs.baden-vanicek@noeschule.at;;APS $VS;
306521;Privatschule Montessorischule;2500;Baden;Kaiser Franz Josef Ring 1;0664 5711722;pvs.zak-baden@noeschule.at;www.montessori-in-baden.at;APS $VS STS;
306531;Schulwerkstatt Ebreichsdorf;2483;Ebreichsdorf;Wienerstrasse 25a;0664/2346148;vs.ebreichsdorf2@noeschule.at;;APS $VS STS;
306541;"Privatschule ""School4kids""";2500;Baden;Rollettgasse 2;0676-9061829;;;APS $VS;
306551;Volksschule Mitterndorf an der Fischa;2441;Mitterndorf;Hauptstraße 28;02234/78835;vs.mitterndorf@noeschule.at;;APS $VS;
306561;Volksschule Schönau an der Triesting;2525;Schönau a.d. Triesting;Friedhofstraße 9;;vs.schoenau@noeschule.at;;APS $VS;
306660;Pädagogische Hochschule Niederösterreich;2500;Baden;Mühlgasse 67;02252/88570;office@ph-noe.ac.at;www.ph-noe.ac.at;PAI;
306810;Bundesinstitut für Sozialpädagogik Baden;2500;Baden;Elisabethstraße 14-16;02252/482820;bisop.baden@noeschule.at;www.bisopbaden.ac.at;BBS W$S SOZ KOLL;
307011;Volksschule Au am Leithaberge;2451;Au am Leithaberge;Hauptplatz 6;02168/8235;vs.au-leithaberge@noeschule.at;;APS $VS;
307012;Neue Niederösterreichische Mittelschule Bruck an der Leitha I;2460;Bruck an der Leitha;Lagerhausstraße 1;02162/62566;hs.bruck-leitha-1@noeschule.at;hsbruck-leitha-1.ac.at;APS $HS NMS;
307013;Allgemeine Sonderschule Bruck an der Leitha;2460;Bruck an der Leitha;Hauptplatz 8;02162/63283;aso.bruck-leitha@noeschule.at;;APS $AS SPZ;
307016;Bundesgymnasium und Bundesrealgymnasium Bruck/Leitha;2460;Bruck/Leitha;Fischamender Straße 23-25;02162/62432-0;bg.bruck-leitha@noeschule.at;www.bgbruck-leitha.ac.at;AHS GYM;
307021;Volksschule Bad Deutsch-Altenburg;2405;Bad Deutsch-Altenburg;Neustiftgasse 23;02165/64073;vs.baddeutsch-altenburg@noeschule.at;www.vsbaddeutschaltenburg.ac.at;APS $VS;
307022;Neue Niederösterreichische Mittelschule Bruck an der Leitha II;2460;Bruck an der Leitha;Raiffeisengürtel 35;02162/62348;hs.bruck-leitha-2@noeschule.at;www.hsbruck-leitha2.ac.at;APS $HS NMS;
307031;Volksschule Bruck an der Leitha, Fischamender Straße;2460;Bruck an der Leitha;Fischamender Straße 48;02162/62347;vs.bruck-leitha-fischamenderstrasse@noeschule.at;;APS $VS;
307032;Neue Niederösterreichische Mittelschule Hainburg an der Donau;2410;Hainburg an der Donau;Babenbergerstraße 27;02165/62175;hs.hainburg@noeschule.at;www.hs-hainburg.at;APS $HS NMS;
307033;Allgemeine Sonderschule Hainburg an der Donau;2410;Hainburg an der Donau;Alte Poststraße 24;02165/64164;aso.hainburg@noeschule.at;www.asohainburg.ac.at;APS $AS;
307041;Volksschule Bruck an der Leitha, Hauptplatz;2460;Bruck an der Leitha;Hauptplatz 8;02162/62569;vs.bruck-leitha-hauptplatz@noeschule.at;www.vsbruck-leitha-hauptplatz.ac.at;APS $VS;
307051;Volksschule Enzersdorf an der Fischa;2431;Enzersdorf an der Fischa;Schlossstraße 4;02230/867920;vs.enzersdorf@noeschule.at;;APS $VS;
307052;Neue Niederösterreichische Mittelschule Mannersdorf am Leithagebirge;2452;Mannersdorf am Leithagebirge;Fleischgasse 3;02168/62358;hs.mannersdorf-leithagebirge@noeschule.at;www.hsmannersdorf.at;APS $HS NMS;
307061;Volksschule Göttlesbrunn - Arbesthal;2464;Göttlesbrunn;Schulgasse 43;02162/8264;vs.goettlesbrunn-arbesthal@noeschule.at;;APS $VS;
307064;Polytechnische Schule Bruck an der Leitha;2460;Bruck an der Leitha;Stefaniegasse 5;02162/63831;pts.bruck-leitha@noeschule.at;;APS PTS;
307071;Volksschule Götzendorf an der Leitha;2434;Götzendorf an der Leitha;Dr. Heidrichgasse 2;02169/2661;vs.goetzendorf@noeschule.at;;APS $VS;
307081;Volksschule Hainburg an der Donau;2410;Hainburg an der Donau;Alte Poststraße 24;02165/62547;vs.hainburg@noeschule.at;;APS $VS;
307101;Volksschule Haslau - Maria Ellend;2402;Haslau;Bahnstraße 8;02232/80220;vs.haslau-maria-ellend@noeschule.at;www.vshaslau-mariaellend.ac.at;APS $VS;
307111;Volksschule Hof am Leithaberge;2451;Hof am Leithaberge;Schulgasse 5;02168/62715;vs.hof-leithaberge@noeschule.at;;APS $VS;
307121;Volksschule Höflein;2465;Höflein;Am Limes 1;02162/63166;vs.hoeflein@noeschule.at;www.vshoeflein.at;APS $VS;
307131;Volksschule Mannersdorf am Leithagebirge;2452;Mannersdorf am Leithagebirge;Hauptstraße 15;02168/62471;vs.mannersdorf-leithagebirge@noeschule.at;;APS $VS;
307151;Volksschule Petronell - Carnuntum;2404;Petronell;Hauptstraße 55;02163/2829;vs.petronell-carnuntum@noeschule.at;;APS $VS;
307161;Volksschule Prellenkirchen;2472;Prellenkirchen;Grünaugasse 8;02145/2238;vs.prellenkirchen@noeschule.at;vsprellenkirchen.com;APS $VS;
307171;Volksschule Rohrau;2471;Rohrau;Obere Hauptstraße 1;02164/2239;vs.rohrau@noeschule.at;www.vs-rohrau.schulweb.at;APS $VS;
307181;Volksschule Sommerein;2453;Sommerein;Schlossstraße 25;02168/63654;vs.sommerein@noeschule.at;schulen.asn-noe.ac.at/vssommerein/;APS $VS;
307191;Volksschule Trautmannsdorf an der Leitha;2454;Trautmannsdorf an der Leitha;Hauptstraße 42;02169/2690;vs.trautmannsdorf@noeschule.at;www.vstrautmannsdorf.ac.at;APS $VS;
307201;Volksschule Wolfsthal;2412;Wolfsthal;Hauptstraße 42;02165/62676-20;vs.wolfsthal@noeschule.at;;APS $VS;
307428;Bundeshandelsakademie und Bundeshandelsschule Bruck/Leitha;2460;Bruck/Leitha;Fischamender Straße 23-25;02162/62723-0;hak.bruck-leitha@noeschule.at;www.hakbruck-leitha.ac.at;BBS K$S KMS KHS;
308011;Volksschule Angern an der March;2261;Angern an der March;Schulgasse 2;02283/28 00;vs.angern@noeschule.at;;APS $VS;
308012;Hauptschule Auersthal;2214;Auersthal;Schulring 18;02288/2305;hs.auersthal@noeschule.at;http://mhsauersthal.schulweb.at/;APS $HS;
308015;Landesberufsschule Zistersdorf;2225;Zistersdorf;Schlossplatz 7;02532/2360-0;direktion@lbszistersdorf.ac.at;www.lbszistersdorf.ac.at;BPS BRS;
308016;Bundesgymnasium und Bundesrealgymnasium Gänserndorf;2230;Gänserndorf;Gärtnergasse 5-7;02282/2308;bg.gaenserndorf@noeschule.at;www.klg.or.at;AHS GYM;
308021;Volksschule Auersthal;2214;Auersthal;Schulring 18;02288/23 01;vs.auersthal@noeschule.at;vsauersthal.schulweb.at;APS $VS;
308022;Neue Niederösterreichische Mittelschule Deutsch-Wagram;2232;Deutsch-Wagram;Friedhofallee 8;02247/24 91;hs.deutsch-wagram@noeschule.at;www.hsdeutschwagram.ac.at;APS $HS NMS;
308023;Allgemeine Sonderschule Gänserndorf;2230;Gänserndorf;Siebenbrunner Straße 7;02282/86 85-20;aso.gaenserndorf@noeschule.at;;APS $AS SPZ;
308024;Polytechnische Schule Gänserndorf;2230;Gänserndorf;Kirchenplatz 9;02282/25 82;pts.gaenserndorf@noeschule.at;www.ptsgaenserndorf.ac.at;APS PTS;
308026;BORG Deutsch-Wagram;2232;Deutsch-Wagram;Schulallee 4;02247/65087;borg.deutsch-wagram@noeschule.at;www.borgdw.at;AHS ORG;
308031;Volksschule Bad Pirawarth;2222;Bad Pirawarth;Kirchengasse 6;02574/37 75;vs.badpirawarth@noeschule.at;;APS $VS;
308032;Neue Niederösterreichische Mittelschule Dürnkrut;2263;Dürnkrut;Hauptstraße 8;02538/80840;hs.duernkrut@noeschule.at;www.hsduernkrut.ac.at;APS $HS NMS;
308033;Allgemeine Sonderschule Hohenau an der March;2273;Hohenau an der March;Hauptstraße 28;02535/22 50;aso.hohenau@noeschule.at;;APS $AS;
308036;Expositur Groß-Enzersdorf des BG Gänserndorf;2301;Groß-Enzersdorf;Freiherr-von-Smola-Straße 3;02249 / 28451;exp.bg.gaenserndorf@noeschule.at;;AHS GYM;
308041;Volksschule Deutsch-Wagram;2232;Deutsch-Wagram;Schulallee 11;02247/24 90;vs.deutsch-wagram@noeschule.at;www.vsdeutsch-wagram.ac.at;APS $VS;
308042;Neue Niederösterreichische Mittelschule Gänserndorf;2230;Gänserndorf;Eichamtstraße 4;02282/23 40;hs.gaenserndorf@noeschule.at;www.hsgaenserndorf-1.ac.at;APS $HS NMS;
308043;Allgemeine Sonderschule Matzen - Raggendorf;2243;Matzen;Jubiläumsplatz 7;02289/22 41;aso.matzen-raggendorf@noeschule.at;www.spz-matzen.at;APS $AS SPZ;
308051;Volksschule Drösing;2265;Drösing;Schulgasse 2;02536/72 86;vs.droesing@noeschule.at;;APS $VS;
308053;Allgemeine Sonderschule Zistersdorf;2225;Zistersdorf;Schlossplatz 5;02532/82 124;aso.zistersdorf@noeschule.at;;APS $AS;
308054;Polytechnische Schule Zistersdorf;2225;Zistersdorf;Grillparzergasse 1A;02532/83 34;pts.zistersdorf@noeschule.at;www.tszistersdorf.ac.at;APS PTS;
308061;Volksschule Dürnkrut;2263;Dürnkrut;Hauptstraße 8;02538/80 740;vs.duernkrut@noeschule.at;;APS $VS;
308062;Hauptschule Groß-Enzersdorf;2301;Groß-Enzersdorf;Schießstattring 2;02249/23 46;hs.gross-enzersdorf@noeschule.at;www.hsgrossenzersdorf.ac.at;APS $HS;
308063;Allgemeine Sonderschule Strasshof an der Nordbahn;2231;Strasshof an der Nordbahn;Schulstraße 19;02287/5342;aso.strasshof@noeschule.at;www.a-so.info;APS $AS;
308071;Volksschule Ebenthal;2251;Ebenthal;Am Schulplatz 1;02538/8570 05;vs.ebenthal@noeschule.at;;APS $VS;
308072;Neue Niederösterreichische Mittelschule Hohenau an der March I;2273;Hohenau an der March;Hauptstraße 27;02535/2334;hs.hohenau-1@noeschule.at;;APS $HS NMS;
308073;Allgemeine Sonderschule Groß-Enzersdorf;2301;Groß-Enzersdorf;Schießstattring 2;02249/2393;aso.gross-enzersdorf@noeschule.at;;APS $AS SPZ;
308081;Volksschule Engelhartstetten;2292;Engelhartstetten;Untere Hauptstraße 16;02214/23 51;vs.engelhartstetten@noeschule.at;;APS $VS;
308083;Allgemeine Sonderschule Lassee;2291;Lassee;Stift Melk Gasse 2;02213/43667;aso.lassee@noeschule.at;;APS $AS SPZ;
308091;Volksschule Gänserndorf;2230;Gänserndorf;Siebenbrunnerstraße 7;02282/60536-10;vs.gaenserndorf@noeschule.at;www.volksschule.gaenserndorf.at;APS $VS;
308092;Hauptschule Hohenruppersdorf;2223;Hohenruppersdorf;Marktplatz 38;02574/83 26;hs.hohenruppersdorf@noeschule.at;www.hshohenruppersdorf.ac.at;APS $HS;
308101;Volksschule Groß-Enzersdorf;2301;Groß-Enzersdorf;Kaiser Franz Josef-Straße 8;02249/25 85;vs.gross-enzersdorf@noeschule.at;www.vsgrossenzersdorf.ac.at;APS $VS;
308102;Hauptschule Lassee;2291;Lassee;Bahnstraße 68;02213/22 23;hs.lassee@noeschule.at;;APS $HS;
308104;Polytechnische Schule Groß-Enzersdorf;2301;Groß-Enzersdorf;Schießstattring 2;02249/23 95;pts.gross-enzersdorf@noeschule.at;www.pts-grossenzersdorf.ac.at;APS PTS;
308111;Volksschule Groß-Enzersdorf, Oberhausen;2301;Oberhausen;Sonnleithnergasse 22;02215/22 47;vs.oberhausen@noeschule.at;www.vsoberhausen.ac.at;APS $VS;
308112;Hauptschule Leopoldsdorf im Marchfelde;2285;Leopoldsdorf im Marchfelde;Hauptstraße 2;02216/22 69;hs.leopoldsdorf@noeschule.at;www.hsleopoldsdorf.ac.at;APS $HS;
308121;Volksschule Groß-Schweinbarth;2221;Groß-Schweinbarth;Kirchenplatz 1;02289/27019;vs.gross-schweinbarth@noeschule.at;;APS $VS;
308122;Hauptschule Marchegg;2293;Marchegg;Fünfhaus 2;02285/8375;hs.marchegg@noeschule.at;www.hs-marchegg.at;APS $HS;
308131;Volksschule Haringsee;2286;Haringsee;Hauptstraße 3;02214/84130;vs.haringsee@noeschule.at;;APS $VS;
308132;Neue Niederösterreichische Mittelschule Matzen - Raggendorf;2243;Matzen;Jubiläumsplatz 10;02289/22 19;hs.matzen-raggendorf@noeschule.at;shsmatzen.ac.at;APS $HS NMS;
308141;Privatschule Elusch Hollerbusch - Schule für ganzheitliches Lernen;2244;Spannberg;Halbgasse 7;02538/89895;;;APS $VS STS;
308142;Hauptschule Neusiedl an der Zaya;2183;Neusiedl an der Zaya;Hauptschulstraße 18;02533/89 264;hs.neusiedl-zaya@noeschule.at;;APS $HS;
308151;Volksschule Hauskirchen;2184;Hauskirchen;Schulgasse 106;02533/82 11;vs.hauskirchen@noeschule.at;;APS $VS;
308152;Neue Niederösterreichische Mittelschule Orth an der Donau;2304;Orth an der Donau;Schlossplatz 4;02212/23 95;hs.orth@noeschule.at;hs-orth.schulweb.at;APS $HS NMS;
308161;Volksschule Hohenau an der March;2273;Hohenau an der March;Hauptstraße 35;02535/22 50;vs.hohenau@noeschule.at;www.vshohenau-march.ac.at;APS $VS;
308162;Hauptschule Zistersdorf;2225;Zistersdorf;Kirchengasse 1;02532/22 46;hs.zistersdorf@noeschule.at;www.hauptschule-zistersdorf.at;APS $HS;
308172;Neue Niederösterreichische Mittelschule Strasshof an der Nordbahn;2231;Strasshof an der Nordbahn;Schulstraße 13;02287/212501;hs.strasshof@noeschule.at;www.emsstrasshof.at;APS $HS NMS;
308181;Volksschule Hohenruppersdorf;2223;Hohenruppersdorf;Marktplatz 38;02574/82 72;vs.hohenruppersdorf@noeschule.at;;APS $VS;
308191;Volksschule Jedenspeigen;2264;Jedenspeigen;Kirchenplatz 2;02536/87 255;vs.jedenspeigen@noeschule.at;;APS $VS;
308201;Volksschule Lassee;2291;Lassee;Stift Melk-Gasse 2;02213/2250;vs.lassee@noeschule.at;www.vslassee.ac.at;APS $VS;
308211;Volksschule Leopoldsdorf im Marchfelde;2285;Leopoldsdorf im Marchfelde;Kempfendorf 2a;02216/23 278;vs.leopoldsdorf@noeschule.at;www.vsleopoldsdorf.ac.at;APS $VS;
308231;Volksschule Marchegg;2293;Marchegg;Fünfhaus 2;02285/8231;vs.marchegg@noeschule.at;www.vs-marchegg.schulweb.at;APS $VS;
308241;Volksschule Markgrafneusiedl;2282;Markgrafneusiedl;Bischof Mayer-Platz 1;02248/22 85;vs.markgrafneusiedl@noeschule.at;www.vsmarkgrafneusiedl.ac.at;APS $VS;
308251;Volksschule Matzen - Raggendorf;2243;Matzen;Josefsplatz 5;02289/22 79;vs.matzen-raggendorf@noeschule.at;www.vsmatzen-raggendorf.ac.at;APS $VS;
308261;Volksschule Neusiedl an der Zaya;2183;Neusiedl an der Zaya;Schulgasse 6;02533/89 350;vs.neusiedl-zaya@noeschule.at;;APS $VS;
308271;Volksschule Obersiebenbrunn;2283;Obersiebenbrunn;Hauptplatz 10;02286/ 27376;vs.obersiebenbrunn@noeschule.at;;APS $VS;
308281;Volksschule Orth an der Donau;2304;Orth an der Donau;Am Markt 30;02212/28 03;vs.orth@noeschule.at;vsorth.ac.at;APS $VS;
308291;Volksschule Palterndorf - Dobermannsdorf;2182;Palterndorf;Dobermannsdorfer Straße 279;02533/89 375;vs.palterndorf-dobermannsdorf@noeschule.at;;APS $VS;
308311;Volksschule Prottes;2242;Prottes;Hauptstraße 3;02282/89 66;vs.prottes@noeschule.at;www.vsprottes.ac.at;APS $VS;
308321;Volksschule Ringelsdorf - Niederabsdorf;2272;Niederabsdorf;Schulstraße 375;02536/7585;vs.ringelsdorf-niederabsdorf@noeschule.at;;APS $VS;
308341;Volksschule Schönkirchen - Reyersdorf;2241;Schönkirchen;Schulstraße 6;02282/22 68;vs.schoenkirchen-reyersdorf@noeschule.at;;APS $VS;
308351;Volksschule Spannberg;2244;Spannberg;Kirchengasse 22;02538/85495;vs.spannberg@noeschule.at;;APS $VS;
308371;Volksschule Strasshof an der Nordbahn;2231;Strasshof an der Nordbahn;Schulstraße 19;02287/22 30;vs.strasshof@noeschule.at;;APS $VS;
308381;Volksschule Sulz im Weinviertel;2224;Obersulz;Kirchenberg 217;02534/236;vs.sulz@noeschule.at;;APS $VS;
308391;Volksschule Untersiebenbrunn;2284;Untersiebenbrunn;Hauptstraße 12;02286/22 94;vs.untersiebenbrunn@noeschule.at;;APS $VS;
308401;"Privatschule ""Marchschule-Montessorihaus""";2293;Marchegg;Friedhofgasse 21;;;;APS $VS;
308411;Volksschule Weikendorf;2253;Weikendorf;Franz Mair-Weg 3;02282/36 55;vs.weikendorf@noeschule.at;;APS $VS;
308418;Bundeshandelsakademie und Bundeshandelsschule Gänserndorf;2230;Gänserndorf;Hans Kudlich-Gasse 30;02282/2291;hak.gaenserndorf@noeschule.at;www.hakgaenserndorf.ac.at;BBS K$S KMS KHS;
308421;Volksschule Zistersdorf;2225;Zistersdorf;Schlossplatz 5;02532/24 43;vs.zistersdorf@noeschule.at;www.vszistersdorf.ac.at;APS $VS;
308427;Werkmeisterschule für Berufstätige des WIFI der Wirtschaftskammer für NÖ, Gänserndorf;2230;Gänserndorf;Eichamtstraße 15;02282/4494;wms.gaenserndorf@noeschule.at;;BBS T$S TWS;
308710;Landwirtschaftliche Fachschule Obersiebenbrunn;2283;Obersiebenbrunn;Feldhofgasse 6;02286/2202;;;BBS LFS;
309011;Volksschule Brand - Nagelberg, Altnagelberg;3871;Altnagelberg;Hauptstraße 82;02859/7216;vs.altnagelberg@noeschule.at;;APS $VS;
309012;Hauptschule I Gmünd;3950;Gmünd;Otto Glöckel-Straße 2;02852/52113-0;hs.gmuend-1@noeschule.at;www.hsgmuend1.ac.at;APS $HS;
309015;Landesberufsschule Schrems;3943;Schrems;Dr. Theodor Körner-Platz 1;02853/76016;office@lbsschrems.ac.at;www.lbsschrems.ac.at;BPS BRS;
309016;Bundesgymnasium und Bundesrealgymnasium Gmünd;3950;Gmünd;Gymnasiumstraße 5;02852/52700-0;bg.gmuend@noeschule.at;www.bggmuend.ac.at;AHS GYM;
309021;Volksschule Amaliendorf - Aalfang;3872;Amaliendorf;Hauptstraße 159;02862/53498;vs.amaliendorf-aalfang@noeschule.at;www.vsamaliendorf-aalfang.ac.at;APS $VS;
309022;Hauptschule II Gmünd;3950;Gmünd;Schulgasse 1;02852/52104;hs.gmuend-2@noeschule.at;www.hsgmuend2.ac.at;APS $HS;
309032;Neue Niederösterreichische Mittelschule Bad Großpertholz;3972;Bad Großpertholz;Nr. 180;02857/2202;hs.badgrosspertholz@noeschule.at;www.hsbad-grosspertholz.ac.at;APS $HS NMS;
309041;Volksschule Großdietmanns;3950;Dietmanns;Hörmannser Straße 21;02852/8217;vs.grossdietmanns@noeschule.at;www.vsgrossdietmanns.ac.at;APS $VS;
309042;Hauptschule Heidenreichstein;3860;Heidenreichstein;Anton Ullrich-Gasse 7;02862/52169;hs.heidenreichstein@noeschule.at;;APS $HS;
309043;Allgemeine Sonderschule Schrems;3943;Schrems;Stadtpark 1;02853/76537;aso.schrems@noeschule.at;www.aso-schrems.schulweb.at;APS $AS SPZ;
309051;Volksschule Eggern;3861;Eggern;Litschauer Straße 8;02863/298;vs.eggern@noeschule.at;www.vseggern.ac.at;APS $VS;
309052;Hauptschule Litschau;3874;Litschau;Wiener Straße 3;02865/241;hs.litschau@noeschule.at;www.hslitschau.ac.at;APS $HS;
309054;Polytechnische Schule Gmünd;3950;Gmünd;Otto Glöckel-Straße 4;02852/52342;pts.gmuend@noeschule.at;www.ptsgmuend.ac.at;APS PTS;
309062;Neue Niederösterreichische Mittelschule Schrems;3943;Schrems;Stadtpark 1;02853/77350;nms.schrems@noeschule.at;www.hsschrems.ac.at;APS $HS NMS;
309063;Allgemeine Sonderschule Gmünd;3950;Gmünd-Neustadt;Dr.-Karl-Renner-Straße 33;02852/52455;aso.gmuend@noeschule.at;www.aso-gmuend.schulweb.at;APS $AS;
309071;Volksschule Eisgarn;3862;Eisgarn;Nr. 100;02863/212;vs.eisgarn@noeschule.at;;APS $VS;
309072;Neue Niederösterreichische Mittelschule Weitra;3970;Weitra;Karl-Egon-Straße 200;02856/2421;hs.weitra@noeschule.at;www.hsweitra.ac.at;APS $HS NMS;
309082;PAN - Freilandschule für 6-15- jährige;3922;Großschönau;Harmannstein 2;02815/6651;phs.gross-schoenau@noeschule.at;;APS $HS STS;
309091;Volksschule I Gmünd;3950;Gmünd;Volksheimgasse 4;02852/52465;vs.gmuend-1@noeschule.at;vsgmuend1.ac.at;APS $VS;
309101;Volksschule II Gmünd;3950;Gmünd;Dr. Karl Renner-Straße 33;02852/52455;vs.gmuend-2@noeschule.at;;APS $VS $AS;
309121;Volksschule Bad Großpertholz;3972;Bad Großpertholz;Nr. 180;02857/2338;vs.badgrosspertholz@noeschule.at;www.vsbad-grosspertholz.ac.at;APS $VS;
309141;Volksschule Großschönau;3922;Großschönau;Harmannsteiner Straße 120;02815/6237;vs.gross-schoenau@noeschule.at;;APS $VS;
309161;Volksschule Moorbad Harbach;3970;Moorbad Harbach;Nr. 41;02858/5224;vs.moorbad-harbach@noeschule.at;;APS $VS;
309181;Volksschule Haugschlag;3874;Haugschlag;Nr. 39;02865/8202;vs.haugschlag@noeschule.at;;APS $VS;
309191;Volksschule Heidenreichstein;3860;Heidenreichstein;Schulgasse 2;02862/52236;vs.heidenreichstein@noeschule.at;;APS $VS $AS;
309211;Volksschule Hirschbach;3942;Hirschbach;Nr. 66;02854/6227;vs.hirschbach@noeschule.at;www.vshirschbach.ac.at;APS $VS;
309231;Volksschule Hoheneich;3945;Hoheneich;Schulgasse 156;02852/52344;vs.hoheneich@noeschule.at;;APS $VS;
309261;Volksschule Kirchberg am Walde;3932;Kirchberg am Walde;Nr. 109;02854/271;vs.kirchberg-walde@noeschule.at;;APS $VS;
309301;Volksschule Litschau;3874;Litschau;Schulstraße 7-9;02865/390;vs.litschau@noeschule.at;www.vslitschau.ac.at;APS $VS;
309331;Volksschule Reingers;3863;Reingers;Nr. 43;02863/8245;vs.reingers@noeschule.at;teacher.schule.at/vs.reingers;APS $VS;
309391;Volksschule Schrems;3943;Schrems;Stadtpark 1;02853/77470;vs.schrems@noeschule.at;;APS $VS;
309401;Volksschule St. Martin;3971;St. Martin;Nr. 15;02857/2312;vs.stmartin@noeschule.at;;APS $VS;
309418;Bundeshandelsakademie und Bundeshandelsschule Gmünd;3950;Gmünd;Otto Glöckel-Straße 6;02852/52901;hak.gmuend@noeschule.at;www.hakgmuend.ac.at;BBS K$S KMS KHS;
309429;Bundesfachschule für wirtschaftliche Berufe Gmünd;3950;Gmünd;Otto Glöckel-Straße 6;02852/52901;bfs.gmuend@noeschule.at;www.fwgmuend.ac.at;BBS W$S WMS;
309437;Werkmeisterschule für Berufstätige des WIFI der Kammer der gewerblichen Wirtschaft für NÖ, Gmünd;3950;Gmünd;Weitraer Straße 42-44;02852/51533;wms.gmuend@noeschule.at;;BBS T$S TWS;
309441;Volksschule Unserfrau - Altweitra;3970;Unserfrau;Nr. 67;02856/2960;vs.unserfrau-altweitra@noeschule.at;;APS $VS;
309449;Schule für Sozialbetreuungsberufe, Schwerpunkt Altenarbeit;3950;Gmünd;Otto-Glöckel-Straße 6;02852/52901;fw.gmuend@noeschule.at;;BBS GES;
309451;Volksschule Waldenstein;3961;Waldenstein;Nr. 62;02855/202;vs.waldenstein@noeschule.at;;APS $VS;
309461;Volksschule Weitra;3970;Weitra;Schubertstraße 209;02856/2422;vs.weitra@noeschule.at;;APS $VS $AS;
310011;Volksschule Alberndorf im Pulkautal;2054;Alberndorf im Pulkautal;Schulgasse 129;02944/27722;vs.alberndorf-pulkautal@noeschule.at;;APS $VS;
310012;Neue Niederösterreichische Mittelschule Göllersdorf;2013;Göllersdorf;Schulgasse 273;02954/2275;hs.goellersdorf@noeschule.at;;APS $HS NMS;
310013;Allgemeine Sonderschule Hollabrunn;2020;Hollabrunn;Koliskoplatz 7 und Koliskoplatz 8;02952/3308 und 20192;aso.hollabrunn@noeschule.at;www.spzhollabrunn.ac.at;APS $AS SPZ;
310014;Polytechnische Schule Hollabrunn;2020;Hollabrunn;Kornhergasse 1;02952/2572;pts.hollabrunn@noeschule.at;www.ptshollabrunn.ac.at;APS PTS;
310015;Landesberufsschule Hollabrunn;2020;Hollabrunn;Josef Weislein-Straße 7;02952/2492-0;office@lbshollabrunn.ac.at;www.hollabrunn.ac.at;BPS BRS;
310016;Bundesgymnasium und Bundesrealgymnasium Hollabrunn;2020;Hollabrunn;Reucklstraße 9;02952/2628-0;bg.hollabrunn@noeschule.at;www.bghollabrunn.ac.at;AHS GYM;
310022;Hauptschule Hadres;2061;Hadres;Nr. 80;02943/2302;hs.hadres@noeschule.at;www.hshadres.ac.at;APS $HS;
310023;Landessonderschule Hollabrunn, Sondererziehungsschule;2020;Hollabrunn;Elsa-Brandström-Straße 1;02952/20825;lss.hollabrunn@noeschule.at;;APS $AS;
310026;Erzbischöfliches Realgymnasium und Aufbaugymnasium Hollabrunn;2020;Hollabrunn;Kirchenplatz 2;02952/4421-0;gym.hollabrunn@noeschule.at;www.ebgymhollabrunn.ac.at;AHS GYM;
310031;Volksschule Hollabrunn, Breitenwaida;2014;Breitenwaida;Quergasse 267 /2;02954/2034;vs.hollabrunn-breitenwaida@noeschule.at;;APS $VS;
310032;Hauptschule Haugsdorf;2054;Haugsdorf;Hauptstraße 1;02944/2205;hs.haugsdorf@noeschule.at;www.hshaugsdorf.ac.at;APS $HS;
310041;Volksschule Hollabrunn, Eggendorf im Thale;2031;Eggendorf im Thale;Nr. 15;02953/8340;vs.eggendorf-thale@noeschule.at;;APS $VS;
310052;Neue Niederösterreichische Mittelschule Hollabrunn;2020;Hollabrunn;Kornhergasse 4;02952/2444;hs.hollabrunn@noeschule.at;www.hshollabrunn.ac.at;APS $HS NMS;
310062;Neue Niederösterreichische Mittelschule Pulkau;3741;Pulkau;Retzer Weg 4;02946/2244;hs.pulkau@noeschule.at;www.hspulkau.ac.at;APS $HS NMS;
310063;Allgemeine Sonderschule Sitzendorf an der Schmida (IFZ Sitzendorf);3714;Sitzendorf an der Schmida;Schulgasse 7;02959/25173;aso.sitzendorf@noeschule.at;;APS $AS;
310072;Hauptschule Ravelsbach;3720;Ravelsbach;Neugasse 3;02958/82488;hs.ravelsbach@noeschule.at;www.hs-ravelsbach.at;APS $HS;
310081;Volksschule Göllersdorf;2013;Göllersdorf;Schulgasse 405;02954/2391;vs.goellersdorf@noeschule.at;www.vsgoellersdorf.ac.at;APS $VS;
310082;Neue Niederösterreichische Mittelschule Retz;2070;Retz;Rupert Rockenbauer-Platz 1;02942/2332;hs.retz@noeschule.at;www.hsretz.ac.at;APS $HS PTS NMS;
310091;Volksschule Grabern;2020;Schöngrabern/Mittergrabern;Nr. 99;02951/2282;vs.grabern@noeschule.at;;APS $VS;
310102;Hauptschule Sitzendorf an der Schmida;3714;Sitzendorf an der Schmida;Hauptplatz 1;02959/2446;hs.sitzendorf@noeschule.at;www.hssitzendorf.ac.at;APS $HS;
310112;Hauptschule Wullersdorf;2041;Wullersdorf;Schulstraße 243;02951/8428;hs.wullersdorf@noeschule.at;www.hswullersdorf.at;APS $HS;
310121;Volksschule Guntersdorf;2042;Guntersdorf;Schüttkastenweg 1;0676/846422477;vs.guntersdorf@noeschule.at;;APS $VS;
310122;Hauptschule Zellerndorf;2051;Zellerndorf;Nr. 269;02945/2500;hs.zellerndorf@noeschule.at;www.hszellerndorf.ac.at;APS $HS;
310131;Volksschule Hadres;2061;Hadres;Nr. 2;02943/2479;vs.hadres@noeschule.at;;APS $VS;
310132;Hauptschule Ziersdorf;3710;Ziersdorf;Hollabrunner Straße 24;02956/2258;hs.ziersdorf@noeschule.at;www.hsz.at;APS $HS;
310141;Volksschule Haugsdorf;2054;Haugsdorf;Auggenthal 156;02944/2257;vs.haugsdorf@noeschule.at;www.vshaugsdorf.ac.at;APS $VS $AS;
310151;Volksschule Hohenwarth - Mühlbach am Manhartsberg;3473;Mühlbach;Nr. 5;02957/433;vs.hohenwarth-muehlbach@noeschule.at;;APS $VS;
310161;Volksschule Hollabrunn, Kirchenplatz;2020;Hollabrunn;Kirchenplatz 4;02952/2759;vs.hollabrunn-kirchenplatz@noeschule.at;www.vshollabrunn-1.ac.at;APS $VS;
310171;Volksschule Hollabrunn, Koliskoplatz;2020;Hollabrunn;Koliskoplatz 7;+43/2952/2646;vs.hollabrunn-koliskoplatz@noeschule.at;www.vs2-hollabrunn.eduhi.at;APS $VS;
310221;Volksschule Maissau;3712;Maissau;Kirchenplatz 5;02958/82282;vs.maissau@noeschule.at;www.vsmaissau.jimdo.com;APS $VS;
310241;Volksschule Nappersdorf - Kammersdorf;2023;Nappersdorf;Nr. 152;02953/2630;vs.nappersdorf-kammersdorf@noeschule.at;;APS $VS;
310261;Volksschule Hardegg;2083;Pleissing;Nr. 84;02948/8450-33;vs.hardegg-pleissing@noeschule.at;;APS $VS;
310271;Volksschule Pulkau;3741;Pulkau;Anton Reich-Straße 5;02946/2246;vs.pulkau@noeschule.at;www.vspulkau.ac.at;APS $VS $AS;
310281;Volksschule Ravelsbach;3720;Ravelsbach;Kremser Straße 7;02958/82401;vs.ravelsbach@noeschule.at;;APS $VS $AS;
310291;Volksschule Retz;2070;Retz;Kirchenstraße 1;02942/20820;vs.retz@noeschule.at;;APS $VS $AS;
310311;Volksschule Seefeld - Kadolz;2062;Seefeld - Großkadolz;Großkadolz 114;02943/2406;vs.seefeld-kadolz@noeschule.at;;APS $VS;
310321;Volksschule Sitzendorf an der Schmida;3714;Sitzendorf an der Schmida;Schulgasse 7;02959/2445;vs.sitzendorf@noeschule.at;www.vssitzendorf.ac.at;APS $VS;
310361;Volksschule Wullersdorf;2041;Wullersdorf;Nr. 256;02951/8423;vs.wullersdorf@noeschule.at;www.vswullersdorf.ac.at;APS $VS $AS;
310371;Volksschule Zellerndorf;2051;Zellerndorf;Nr. 269;02945/2500;vs.zellerndorf@noeschule.at;;APS $VS $AS;
310381;Volksschule Ziersdorf;3710;Ziersdorf;Erlenaugasse 10;02956/2736;vs.ziersdorf@noeschule.at;www.vsziersdorf.ac.at;APS $VS;
310391;Private Volksschule Mailberg;2024;Mailberg;Nr. 17;02943/30070;pvs.mailberg@noeschule.at;;APS $VS;
310418;Bundeshandelsakademie und Bundeshandelsschule Retz;2070;Retz;Rupert Rockenbauer-Platz 2;02942/20420-0;hak.retz@noeschule.at;www.hakretz.ac.at;BBS K$S KMS KHS;
310429;Höhere Bundeslehranstalt für wirtschaftliche Berufe Hollabrunn;2020;Hollabrunn;Mühlgasse 35;02952/2546-0;hlw.hollabrunn@noeschule.at;www.hlwhollabrunn.ac.at;BBS W$S WMS WHS KOLL;
310438;Bundeshandelsakademie und Bundeshandelsschule Hollabrunn;2020;Hollabrunn;Kirchenplatz 2;02952/2223-0;hak.hollabrunn@noeschule.at;www.hakhollabrunn.ac.at;BBS K$S KMS KHS;
310447;Höhere technische Bundeslehranstalt Hollabrunn;2020;Hollabrunn;Anton Ehrenfriedstraße 10;02952/3361-0;htl.hollabrunn@noeschule.at;www.htl-hl.ac.at;BBS T$S TMS THS;
310457;Priv. Höhere technische Lehranstalt für Lebensmitteltechnologie Hollabrunn;2020;Hollabrunn;Anton Ehrenfriedstraße 10;02952/3361-200;htl-lt.hollabrunn@noeschule.at;;BBS T$S TMS THS;
310469;Höhere Bundeslehranstalt für Tourismus Retz;2070;Retz;Seeweg 2;02942/20464;hlt.retz@noeschule.at;www.hltretz.ac.at;BBS W$S WMS WHS TOUR;
310710;Landwirtschaftliche Fachschule Hollabrunn;2020;Hollabrunn;Sonnleitenweg 2;02952/2133;;;BBS LFS;
311011;Volksschule Altenburg;3591;Altenburg;Pflieglerstraße 13;02982/35685;vs.altenburg@noeschule.at;www.vsaltenburg.ac.at;APS $VS;
311012;Neue Niederösterreichische Mittelschule Drosendorf - Zissersdorf;2095;Drosendorf;Hornerstraße 24;02915/2253;hs.drosendorf-zissersdorf@noeschule.at;hsdrosendorf-zissersdorf.ac.at;APS $HS NMS;
311013;Allgemeine Sonderschule Eggenburg;3730;Eggenburg;Mozartstraße 12;02984/2400;aso.eggenburg@noeschule.at;www.asoeggenburg.ac.at;APS $AS SPZ;
311014;Polytechnische Schule Horn;3580;Horn;Ferdinand-Kurz-Gasse 26;02982/30058;pts.horn@noeschule.at;www.ptshorn.ac.at;APS PTS;
311016;Bundesgymnasium, Bundesaufbaugymnasium und Bundesaufbaurealgymnasium Horn;3580;Horn;Puechhaimgasse 21;02982/2347-0;bg.horn@noeschule.at;www.bghorn.ac.at;AHS GYM;
311021;Volksschule Brunn an der Wild;3595;Brunn an der Wild;Schulstraße 2;02989/2210;vs.brunn-wild@noeschule.at;;APS $VS;
311022;Hauptschule Eggenburg;3730;Eggenburg;Mozartstraße 10;02984/2644;hs.eggenburg@noeschule.at;www.hseggenburg.ac.at;APS $HS;
311023;Allgemeine Sonderschule Horn;3580;Horn;Schulgasse 1;02982/2543;aso.horn@noeschule.at;;APS $AS SPZ;
311025;Landesberufsschule Eggenburg;3730;Eggenburg;Siegfried Marcus-Straße 2;02984/2500;office@lbseggenburg.ac.at;www.lbseggenburg.ac.at;BPS BRS;
311032;Neue Niederösterreichische Mittelschule Gars am Kamp;3571;Gars am Kamp;Haanstrasse 450;02985/2224;hs.gars-kamp@noeschule.at;www.shs-gars.at;APS $HS NMS;
311042;Neue Niederösterreichische Mittelschule Horn;3580;Horn;Robert Hamerling-Straße 1;02982/2414;hs.horn@noeschule.at;www.hshorn.at/;APS $HS NMS;
311045;Landesberufsschule Geras;2093;Geras;Am  Goggitschberg 5;02912/591;lbsdirektion@lbsgeras.ac.at;www.lbsgeras.ac.at;BPS BRS;
311051;Volksschule Drosendorf - Zissersdorf;2095;Drosendorf;Horner Straße 24;02915/2300;vs.drosendorf-zissersdorf@noeschule.at;;APS $VS;
311052;Hauptschule Irnfritz - Messern;3754;Irnfritz;Hauptstraße 8;02986/6229;hs.irnfritz@noeschule.at;;APS $HS;
311061;Volksschule Eggenburg;3730;Eggenburg;Mozartstraße 12;02984/3511;vs.eggenburg@noeschule.at;www.vseggenburg.ac.at;APS $VS;
311062;Neue Niederösterreichische Mittelschule Weitersfeld;2084;Weitersfeld;Nr. 154;02948/8240;hs.weitersfeld@noeschule.at;www.hsweitersfeld.ac.at;APS $HS NMS;
311091;Volksschule Gars am Kamp;3571;Gars am Kamp;Spitalgasse 500;02985/2292;vs.gars-kamp@noeschule.at;www.ktv-gars.at/vs-gars;APS $VS;
311101;Volksschule Geras;2093;Geras;Hauptstraße 15;02912/249;vs.geras@noeschule.at;www.vsgeras.ac.at;APS $VS;
311111;Volksschule Horn;3580;Horn;Ferdinand Kurz-Gasse 24;02982/2370;vs.horn@noeschule.at;www.vshorn.ac.at;APS $VS;
311121;Volksschule Irnfritz;3754;Irnfritz;Schulstraße 2;02986/6245;vs.irnfritz@noeschule.at;;APS $VS;
311131;Volksschule Japons;3763;Japons;Nr. 54;02914/6226;vs.japons@noeschule.at;;APS $VS;
311151;Volksschule Langau;2091;Langau bei Geras;Hauptplatz 270;02912/40125;vs.langau@noeschule.at;;APS $VS;
311171;Volksschule Rosenburg - Mold;3573;Rosenburg;Nr. 16;02982/3216;vs.rosenburg-mold@noeschule.at;;APS $VS;
311181;Volksschule Pernegg;3753;Pernegg;Nr. 74;02913/256;vs.pernegg@noeschule.at;www.vspernegg.ac.at;APS $VS;
311191;Volksschule Burgschleinitz - Kühnring, Reinprechtspölla;3713;Reinprechtspölla;Nr. 65;02984/8256;vs.burgschleinitz-kuehnring@noeschule.at;;APS $VS;
311211;Volksschule Röhrenbach;3592;Röhrenbach;Eich Maria 2;02989/8212;vs.roehrenbach@noeschule.at;;APS $VS;
311221;Volksschule Röschitz;3743;Röschitz;Schulgasse 3;02984/2912;vs.roeschitz@noeschule.at;;APS $VS;
311261;Volksschule Sigmundsherberg;3751;Sigmundsherberg;Bruggerstraße 7;02983/2449;vs.sigmundsherberg@noeschule.at;;APS $VS;
311271;Volksschule St. Bernhard - Frauenhofen;3580;Frauenhofen;Nr. 71;02982/38122;vs.stbernhard-frauenhofen@noeschule.at;;APS $VS;
311291;Volksschule Straning - Grafenberg;3722;Straning;Nr. 115;02984/7239;vs.straning-grafenberg@noeschule.at;;APS $VS;
311311;Volksschule Weitersfeld;2084;Weitersfeld;Nr. 268;02948/8452;vs.weitersfeld@noeschule.at;;APS $VS;
311418;Bundeshandelsakademie und Bundeshandelsschule Horn;3580;Horn;Gartengasse 1;02982/2696-0;hak.horn@noeschule.at;www.hakhorn.ac.at;BBS K$S KMS KHS;
311429;Höhere Bundeslehranstalt für wirtschaftliche Berufe Horn;3580;Horn;Gartengasse 1;02982/2235;hlw.horn@noeschule.at;www.hlwhorn.ac.at;BBS W$S WMS WHS;
311439;Schule für Sozialbetreuungsberufe;3580;Horn;Gartengasse 1;02982/2235;fs.horn@noeschule.at;;BBS GES;
311950;Bundesschülerheim Horn;3580;Horn;Wiesengasse 3;02982/2363;bsh.horn@noeschule.at;www.bshhorn.ac.at;$SH;
312011;Volksschule Bisamberg;2102;Bisamberg;Hauptstraße 30;02262/62 080;vs.bisamberg@noeschule.at;;APS $VS;
312012;Neue Niederösterreichische Mittelschule Ernstbrunn;2115;Ernstbrunn;Laaer Straße 1;02576/2252;hs.ernstbrunn@noeschule.at;www.hsernstbrunn.ac.at;APS $HS NMS;
312013;Allgemeine Sonderschule Stockerau;2000;Stockerau;Schießstattgasse 18;02266/62491;aso.stockerau@noeschule.at;www.blackboard.at/schulen/spzstock;APS $AS SPZ;
312014;Polytechnische Schule Stockerau;2000;Stockerau;Judithastraße 3;02266/63942;pts.stockerau@noeschule.at;www.polystockerau.ac.at;APS PTS;
312015;Berufsschule Korneuburg;2100;Korneuburg;Stockerauer Straße 80;02262/64097 (DW 10 od. 12);direktion@lbskorneuburg.ac.at;www.lbskorneuburg.ac.at;BPS BRS;
312016;Bundesgymnasium und Bundesrealgymnasium Stockerau;2000;Stockerau;Unter den Linden 16;02266/62143-0;bg.stockerau@noeschule.at;www.bgstockerau.ac.at;AHS GYM;
312021;Volksschule Enzersfeld;2202;Enzersfeld;Schulgasse 30;02262/67 31 67;vs.enzersfeld@noeschule.at;;APS $VS;
312022;Hauptschule Harmannsdorf - Neue Modellschule;2111;Harmannsdorf;Bahnstraße 1;02264/7314;hs.harmannsdorf@noeschule.at;www.hsharmannsdorf.ac.at;APS $HS;
312023;Allgemeine Sonderschule Korneuburg;2100;Korneuburg;Liese Prokop-Straße 5;02262/72181;aso.korneuburg@noeschule.at;;APS $AS SPZ;
312025;Landesberufsschule Eggenburg - Standort Stockerau;2000;Stockerau;Weg zur Marienhöhe 3;02266/63401;direktion@lbsstockerau-2.ac.at;www.lbseggenburg-stockerau.ac.at;BPS BRS;
312026;Bundesgymnasium und Bundesrealgymnasium;2100;Korneuburg;Liese-Prokop-Straße 1;02262/90400;gym.korneuburg@noeschule.at;;AHS GYM;
312031;Volksschule Ernstbrunn;2115;Ernstbrunn;Laaer Straße 1;02576/2460-30;vs.ernstbrunn@noeschule.at;;APS $VS;
312032;Hauptschule Hausleiten;3464;Hausleiten;Schulgasse 6;02265/7248;hs.hausleiten@noeschule.at;www.hshausleiten.ac.at;APS $HS;
312034;Polytechnische Schule Korneuburg;2100;Korneuburg;Windmühlgasse 1;02262/72982;pts.korneuburg@noeschule.at;www.polykorneuburg.at;APS PTS;
312035;Landesberufsschule Stockerau;2000;Stockerau;Brodschildstraße 20;02266/62158;office@lbsstockerau.ac.at;www.lbsstockerau.ac.at;BPS BRS;
312041;Volksschule Großmugl;2002;Großmugl;Kirchenplatz 135;02268/6648;vs.grossmugl@noeschule.at;;APS $VS;
312042;Neue Niederösterreichische Mittelschule Korneuburg I;2100;Korneuburg;Windmühlgasse 3;02262/74510474;hs.korneuburg-1@noeschule.at;www.mhskorneuburg.ac.at;APS $HS NMS;
312051;Volksschule Großrußbach;2114;Großrußbach;Schlossbergstraße 9;02263/6732;vs.grossrussbach@noeschule.at;http://www.vsgrossrussbach.ac.at/;APS $VS;
312052;Neue Niederösterreichische Mittelschule Korneuburg-Sport-und Kreative Modellschule II;2100;Korneuburg;Windmühlgasse 1-3;02262/74510-475;hs.korneuburg-2@noeschule.at;www.hskorneuburg-2.ac.at;APS $HS NMS;
312061;Volksschule Hagenbrunn;2102;Hagenbrunn;Salzstraße 12;02262/67 27 71;vs.hagenbrunn@noeschule.at;www.vshagenbrunn.ac.at;APS $VS;
312062;Neue Niederösterreichische Mittelschule Langenzersdorf;2103;Langenzersdorf;Klosterneuburger Straße 12;02244/2312-10;hs.langenzersdorf@noeschule.at;www.hs.langenzersdorf.ac.at;APS $HS NMS;
312071;Volksschule Harmannsdorf;2111;Harmannsdorf;Bahnstraße 1;02264/6424;vs.harmannsdorf@noeschule.at;www.asn-noe.ac.at/schulen/vsharmannsdorf/;APS $VS;
312072;Neue Niederösterreichische Mittelschule Stockerau - Ost;2000;Stockerau;Schulweg 1;02266/62228-11;hs.stockerau-ost@noeschule.at;www.infhs-stockerau.ac.at;APS $HS NMS;
312081;Volksschule Hausleiten;3464;Hausleiten;Schulgasse 2;02265/7402-11;vs.hausleiten@noeschule.at;www.vshausleiten.ac.at;APS $VS;
312082;Neue Niederösterreichische Mittelschule Stockerau - West;2000;Stockerau;Judithastraße 1;02266/62248-17;hs.stockerau-west@noeschule.at;www.hsstockerau-west.ac.at;APS $HS NMS;
312091;Volksschule I Korneuburg;2100;Korneuburg;Bankmannring 21;02262/74511-472;vs.korneuburg-1@noeschule.at;www.asn-noe.ac.at/schulen/vskorneuburg-1/;APS $VS;
312101;Volksschule II Korneuburg;2100;Korneuburg;Bankmannring 21;02262/74511-473;vs.korneuburg-2@noeschule.at;www.vskorneuburg-2.ac.at;APS $VS;
312111;Volksschule Langenzersdorf;2103;Langenzersdorf;Steyrer Gasse 22;02244/2334;vs.langenzersdorf@noeschule.at;;APS $VS;
312121;Volksschule Leitzersdorf;2003;Leitzersdorf;Ernstbrunner Straße 15;02266/63 488;vs.leitzersdorf@noeschule.at;;APS $VS;
312131;Volksschule Leobendorf;2100;Leobendorf;Nussallee 2a;02262/66 131;vs.leobendorf@noeschule.at;;APS $VS;
312141;Volksschule Niederhollabrunn;2004;Bruderndorf;Schulplatz 1;02269/2556;vs.niederhollabrunn@noeschule.at;;APS $VS;
312181;Volksschule Rußbach;3702;Niederrußbach;Schulgasse 7;02955/70432;vs.niederrussbach@noeschule.at;www.vs-russbach.at;APS $VS;
312191;Volksschule Sierndorf;2011;Sierndorf;Schulstraße 5;02267/2539;vs.sierndorf@noeschule.at;www.sierndorf.at/volksschule;APS $VS;
312201;Volksschule Spillern;2104;Spillern;Kirchenplatz 2;02266/80200;vs.spillern@noeschule.at;;APS $VS;
312221;Volksschule Stetten;2100;Stetten;Schulgasse 2;02262/672113/20 oder 21;vs.stetten@noeschule.at;;APS $VS;
312231;Volksschule Stockerau - Josef Wondrak;2000;Stockerau;Schulweg 4;02266/62020;vs.stockerau-wondrak@noeschule.at;;APS $VS;
312241;Volksschule Stockerau - West;2000;Stockerau;Schulweg 3;02266/62035-12;vs.stockerau-west@noeschule.at;www.vswest.at;APS $VS;
312261;"Private Volksschule ""Schule für ganzheitliches Lernen"" des Vereins für lebendiges und ganzheitliches Lernen, Korneuburg";2100;Korneuburg;Dammstraße 9;02262/71908;pvs.korneuburg@noeschule.at;www.schulele.at;APS $VS STS;
312418;SDV-Informatik-Schule;2100;Korneuburg;Johann Pamer Straße 4;02262/72545;dv.korneuburg@noeschule.at;;BBS K$S KMS;
312419;Fachschule für Sozialberufe der Missionsschwestern, Stockerau;2000;Stockerau;Horner Straße 56;02266/64586;fs.stockerau@noeschule.at;www.fsstockerau.ac.at;BBS W$S SOZ;
312438;Bundeshandelsakademie und Bundeshandelsschule Korneuburg;2100;Korneuburg;Bankmannring 1;02262/72150-0;hak.korneuburg@noeschule.at;www.hak-korneuburg.at;BBS K$S KMS KHS;
312448;Bundeshandelsschule Stockerau;2000;Stockerau;Schulgasse 4;02266/62025;has.stockerau@noeschule.at;www.hasstockerau.ac.at;BBS K$S KMS;
312910;Krankenpflegeschule am A.Ö. Krankenhaus Stockerau und Korneuburg;2000;Stockerau;Landstraße 18;02266/609-820;krpfl.stockerau@noeschule.at;;BBS W$S WMS GES;
313011;Volksschule Aggsbach;3641;Aggsbach Markt;Nr. 12;02712/512;vs.aggsbach-markt@noeschule.at;;APS $VS;
313012;Hauptschule Albrechtsberg an der Großen Krems;3613;Els;Nr. 54;02876/372;hs.albrechtsberg@noeschule.at;www.hs-albrechtsberg.at;APS $HS;
313015;Landesberufsschule Langenlois;3550;Langenlois;Walterstraße 35;02734/2502;direktion@lbslangenlois.ac.at;www.lbslangenlois.ac.at;BPS BRS;
313021;Volksschule Albrechtsberg an der Großen Krems;3613;Albrechtsberg an der Großen Krems;Nr. 62;02876/317;vs.albrechtsberg@noeschule.at;;APS $VS;
313023;Allgemeine Sonderschule Langenlois;3550;Langenlois;Auböckallee 12;02734/3770;aso.langenlois@noeschule.at;www.spz-langenlois.at;APS $AS SPZ;
313032;Neue Niederösterreichische Mittelschule Grafenegg;3492;Etsdorf am Kamp;Hauptstraße 29;02735/5454;hs.grafenegg@noeschule.at;www.hs-grafenegg.at;APS $HS PTS NMS;
313041;Volksschule Gedersdorf;3494;Brunn im Felde;Schulsiedlung 1;+43 2735 8870;vs.gedersdorf@noeschule.at;www.vsgedersdorf.at;APS $VS;
313042;Hauptschule Furth bei Göttweig;3511;Furth bei Göttweig;Linke Bachzeile 246;02732/8464 0;hs.furth-goettweig@noeschule.at;www.furth.at/hs;APS $HS;
313052;Hauptschule Gföhl;3542;Gföhl;Jaidhofer Gasse 18;+4366473454405 bzw 02716/8639;hs.gfoehl@noeschule.at;www.hsgfoehl.ac.at/;APS $HS PTS;
313062;Neue Niederösterreichische Mittelschule Langenlois;3550;Langenlois;Kaserngasse 2;02734/7016;hs.langenlois@noeschule.at;www.hslangenlois.at;APS $HS PTS NMS;
313071;Volksschule Droß;3552;Droß;Kirchenplatz 82;02719/2282;vs.dross@noeschule.at;;APS $VS;
313072;Hauptschule Mautern an der Donau;3512;Mautern an der Donau;Melker Straße 24;02732/84911;hs.mautern@noeschule.at;www.hsmautern.at;APS $HS;
313081;Volksschule Dürnstein;3601;Dürnstein;Nr. 1;02711/202;vs.duernstein@noeschule.at;;APS $VS;
313082;Neue Niederösterreichische Mittelschule Rastenfeld;3532;Rastenfeld;Nr. 88;02826/285;hs.rastenfeld@noeschule.at;school4you.schulweb.at/3532/rastenfeld;APS $HS NMS;
313092;Hauptschule Spitz an der Donau;3620;Spitz an der Donau;Rote Torgasse 3;02713/2355;hs.spitz@noeschule.at;www.rhswachau.at;APS $HS;
313131;Volksschule Grafenegg, Etsdorf;3492;Etsdorf am Kamp;Hauptstraße 31;02735/2592;vs.etsdorf@noeschule.at;;APS $VS;
313161;Volksschule Furth bei Göttweig;3511;Furth bei Göttweig;Kirchengasse 51;02732/84606;vs.furth-goettweig@noeschule.at;www.vsfurth.ac.at/;APS $VS $AS;
313181;Volksschule Gföhl;3542;Gföhl;Ernest Thum-Straße 4;02716/6388;vs.gfoehl@noeschule.at;http://vsgfoehl.ac.at/;APS $VS $AS;
313221;Volksschule Hadersdorf - Kammern;3493;Hadersdorf am Kamp;Landsknechtplatz 2;02735/5749-20;vs.hadersdorf-kammern@noeschule.at;;APS $VS;
313231;Volksschule Grafenegg, Haitzendorf;3485;Grafenegg;Haitzendorf, Kirchenplatz 11;02735/5214;vs.haitzendorf@noeschule.at;;APS $VS $AS;
313261;Volksschule Krumau am Kamp;3543;Krumau am Kamp;Nr. 38;02731/8201;vs.krumau-kamp@noeschule.at;;APS $VS;
313281;Volksschule Langenlois;3550;Langenlois;Auböckallee 12;02734/2308;vs.langenlois@noeschule.at;vs-langenlois.schulweb.at;APS $VS;
313291;Volksschule Lengenfeld;3552;Lengenfeld;Kremser Straße 13;02719/2429;vs.lengenfeld@noeschule.at;;APS $VS;
313301;Volksschule Lichtenau im Waldviertel;3522;Lichtenau;Nr. 64;02718/331;vs.lichtenau@noeschule.at;www.vs-lichtenau.schulweb.at;APS $VS;
313321;Volksschule Maria Laach am Jauerling;3643;Maria Laach am Jauerling;Nr. 70;02712/82430;vs.maria-laach@noeschule.at;;APS $VS;
313331;Volksschule Mautern an der Donau;3512;Mautern an der Donau;Melker Straße 10;02732/83497;vs.mautern@noeschule.at;www.mautern.at;APS $VS;
313361;Volksschule Mühldorf;3622;Mühldorf;Niederranna 14;02713/8224;vs.muehldorf@noeschule.at;;APS $VS;
313391;Volksschule Paudorf;3508;Paudorf;Kremserstraße 63;02736/7247;vs.paudorf@noeschule.at;vspaudorf.ac.at;APS $VS;
313419;Fachschule für wirtschaftliche Berufe der Schulschwestern, Langenlois;3550;Langenlois;Anton-Zöhrer-Straße 3;02734/2368;fs.langenlois@noeschule.at;www.fssblangenlois.ac.at;BBS W$S WMS;
313421;Volksschule Rastenfeld;3532;Rastenfeld;Nr. 88;02826/305;vs.rastenfeld@noeschule.at;http://vsr.heim.at;APS $VS;
313431;Volksschule Rohrendorf bei Krems;3495;Rohrendorf bei Krems;Obere Hauptstraße  21;02732/84490/14;vs.rohrendorf@noeschule.at;;APS $VS;
313437;Werkmeisterschule für Berufstätige des WIFI der Kammer der gewerblichen Wirtschaft für NÖ, Langenlois;3550;Langenlois;Schloss Haindorf, Krumpöckallee 21;;wms.langenlois@noeschule.at;;BBS T$S TWS;
313441;Volksschule Rossatz - Arnsdorf;3621;Mitterarnsdorf;Hofarnsdorf 2;02714/8278;vs.rossatz-arnsdorf@noeschule.at;;APS $VS;
313451;Volksschule Weinzierl am Walde, St. Johann;3611;Großheinrichschlag;St. Johann 2;02876/88111;vs.stjohann@noeschule.at;vsweinzierl.schulweb.at;APS $VS;
313461;Volksschule St. Leonhard am Hornerwald;3572;St. Leonhard am Hornerwald;Nr. 61;02987/2237;vs.stleonhard@noeschule.at;;APS $VS;
313471;Volksschule Langenlois, Schiltern;3553;Schiltern bei Langenlois;Schulgasse 8;02734/8240;vs.schiltern@noeschule.at;;APS $VS;
313481;Volksschule Schönberg am Kamp;3562;Schönberg am Kamp;Hauptstraße 37;02733/8295;vs.schoenberg-kamp@noeschule.at;;APS $VS;
313491;Volksschule Senftenberg;3541;Senftenberg;Hofgarten 5;02719/2347;vs.senftenberg@noeschule.at;;APS $VS;
313501;Volksschule Spitz an der Donau;3620;Spitz an der Donau;Rote Torgasse 3a;02713/2324;vs.spitz@noeschule.at;www.vsspitz.ac.t;APS $VS $AS;
313521;Volksschule Straß im Straßertale;3491;Straß im Straßertale;Nr. 32;02735/2331;vs.strass-strassertale@noeschule.at;;APS $VS;
313561;Volksschule Bergern im Dunkelsteinerwald;3512;Unterbergern;Nr. 45;02714/7230;vs.bergern@noeschule.at;;APS $VS;
313581;Volksschule Weißenkirchen;3610;Weißenkirchen in der Wachau;Nr. 169;02715/2331;vs.weissenkirchen@noeschule.at;;APS $VS;
313710;Landwirtschaftliche Fachschule Langenlois;3550;Langenlois;Am Rosenhügel 15;02734/2106;;;BBS LFS;
313730;Landwirtschaftliche Berufsschule Langenlois;3550;Langenlois;Am Rosenhügel 15;02734/2106;;;BBS LFS;
314011;Volksschule Annaberg;3222;Annaberg;Annarotte 10;02728/8470;vs.annaberg@noeschule.at;;APS $VS;
314012;Hauptschule Hainfeld;3170;Hainfeld;Schulgasse 7;02764/2290;hs.hainfeld@noeschule.at;www.hshainfeld.ac.at;APS $HS PTS;
314013;Allgemeine Sonderschule Hainfeld;3170;Hainfeld;Kirchengasse 10;02764/2445;aso.hainfeld@noeschule.at;www.asohainfeld.ac.at;APS $AS SPZ;
314015;Landesberufsschule Lilienfeld;3180;Lilienfeld;Berghofstraße 14-26;02762/54670;direktion@lbslilienfeld.ac.at;www.lbslilienfeld.ac.at;BPS BRS;
314016;Bundesgymnasium und Bundesrealgymnasium Lilienfeld;3180;Lilienfeld;Klosterrotte 1;02762/52380-0;bg.lilienfeld@noeschule.at;www.bglilienfeld.ac.at;AHS GYM;
314021;Volksschule Eschenau;3153;Eschenau;Schulgasse 3;02762/67225;vs.eschenau@noeschule.at;;APS $VS;
314022;Neue Niederösterreichische Mittelschule Hohenberg;3192;Hohenberg;Obere Hauptstraße 5;02767/8278;hs.hohenberg@noeschule.at;www.hshohenberg.ac.at;APS $HS NMS;
314032;Neue Niederösterreichische Mittelschule Lilienfeld, Schihauptschule;3180;Lilienfeld;Castellistraße 8;02762/52432;hs.lilienfeld@noeschule.at;in Arbeit;APS $HS PTS NMS;
314033;Allgemeine Sonderschule Traisen;3160;Traisen;Ebnerstraße 6;02762/63178;aso.traisen@noeschule.at;www.asotraisen.ac.at;APS $AS SPZ;
314041;Volksschule Hainfeld;3170;Hainfeld;Kirchengasse 10;02764/2353-1 (Direktion);vs.hainfeld@noeschule.at;www.vshainfeld.ac.at;APS $VS;
314042;Neue Niederösterreichische Mittelschule St. Aegyd am Neuwalde;3193;St. Aegyd am Neuwalde;Pfarrsiedlung 1;02768/6101;hs.staegyd@noeschule.at;;APS $HS NMS;
314051;Volksschule Hohenberg;3192;Hohenberg;Obere Hauptstraße 5;02767/8264;vs.hohenberg@noeschule.at;;APS $VS;
314052;Neue Niederösterreichische Mittelschule Traisen;3160;Traisen;Hainfelder Straße 2;02762/62397;hs.traisen@noeschule.at;;APS $HS PTS NMS;
314061;Volksschule Kaumberg;2572;Kaumberg;Markt 150;0660 73 50 138;vs.kaumberg@noeschule.at;www.vs-kaumberg.at;APS $VS;
314062;Neue Niederösterreichische Mittelschule St. Veit an der Gölsen;3161;St. Veit an der Gölsen;Bahnstraße 3;02763/2454;hs.stveit-goelsen@noeschule.at;www.hsstveit-goelsen.ac.at;APS $HS NMS;
314081;Volksschule Kleinzell;3171;Kleinzell;Nr. 112;02766/246;vs.kleinzell@noeschule.at;;APS $VS;
314101;Volksschule Lilienfeld;3180;Lilienfeld;Schulgasse 6;02762/52137-1;vs.lilienfeld@noeschule.at;www.vslilienfeld.ac.at/;APS $VS;
314111;Volksschule Mitterbach am Erlaufsee;3224;Mitterbach am Erlaufsee;Hauptstraße 15;03882/2472;vs.mitterbach@noeschule.at;;APS $VS;
314121;Volksschule St. Veit an der Gölsen, Rainfeld;3162;Rainfeld an der Gölsen;Rainfelder Hauptstraße 44;02763/2216;vs.rainfeld@noeschule.at;;APS $VS;
314131;Volksschule Ramsau;3172;Ramsau;Oberdörfl 13;02764/8245;vs.ramsau@noeschule.at;;APS $VS;
314151;Volksschule Rohrbach an der Gölsen;3163;Rohrbach an der Gölsen;Schulstraße 10;02764/2337;vs.rohrbach-goelsen@noeschule.at;;APS $VS;
314161;Volksschule St. Aegyd am Neuwalde;3193;St. Aegyd am Neuwalde;Kirchenplatz 6;02768/2221;vs.staegyd@noeschule.at;www.vsstaegyd.ac.at;APS $VS;
314171;Volksschule St. Veit an der Gölsen;3161;St. Veit an der Gölsen;Bahnstraße 3;02763/2334;vs.stveit-goelsen@noeschule.at;vsstveit-goelsen.ac.at;APS $VS;
314191;Volksschule Traisen;3160;Traisen;Ebnerstraße 6;02762/62572, 02762/65444;vs.traisen@noeschule.at;vstraisen.ac.at;APS $VS;
314201;Volksschule Türnitz;3184;Türnitz;Unterer Markt 16;02769/8232;vs.tuernitz@noeschule.at;;APS $VS;
314241;"Niederhofschule des Vereins ""Lebensraum Niederhof"", Lilienfeld";3180;Lilienfeld;Zögersbachstraße 26;02762/5509933;pvs.lilienfeld@noeschule.at;www.niederhof.org;APS $VS STS;
314419;Höhere Bundeslehranstalt für wirtschaftliche Berufe Türnitz;3184;Türnitz;Auhofstrasse 41;02769/8301-0;hlw.tuernitz@noeschule.at;www.hlwtuernitz.ac.at;BBS W$S WHS WMS;
315011;Volksschule Schönbühel - Aggsbach;3642;Aggsbach Dorf;Nr. 43;02753/8004;vs.schoenbuehel-aggsbach@noeschule.at;www.aggsbach-dorf.at/daten/schule/schule.htm;APS $VS;
315012;Hauptschule Yspertal;3683;Yspertal;Schulstraße 11;07415/7346;hs.yspertal@noeschule.at;www.hs.yspertal.com;APS $HS;
315013;Allgemeine Sonderschule Loosdorf;3382;Loosdorf;Otto Glöckel-Straße 6-8;02754/6821;spz.loosdorf@noeschule.at;www.spzloosdorf.ac.at;APS $AS SPZ;
315014;Polytechnische Schule Mank Melk;3240;Mank;Schulstraße 7;02755/2424, Mobil 0664/5902770;pts.mank@noeschule.at;www.poly-mank-melk.at;APS PTS;
315015;Landesberufsschule Pöchlarn;3380;Pöchlarn;Plesserstraße 1;02757/2634;holz.it@lbspoechlarn.ac.at;www.lbspoechlarn.ac.at;BPS BRS;
315016;Öffentliches Stiftsgymnasium und Oberstufenrealgymnasium der Benediktiner, Melk;3390;Melk;Abt Berthold Dietmayr-Straße 1;02752/555-411;gym.melk@noeschule.at;www.gymmelk.ac.at;AHS GYM ORG;
315021;Volksschule Yspertal;3683;Yspertal;Pisching 14;07415/7367;vs.yspertal@noeschule.at;www.vsyspertal.ac.at;APS $VS;
315022;Hauptschule Blindenmarkt;3372;Blindenmarkt;Lindenstraße 18;07473/2359;hs.blindenmarkt@noeschule.at;www.hsblindenmarkt.ac.at;APS $HS PTS;
315023;Allgemeine Sonderschule Pöchlarn;3380;Pöchlarn;Gernotstraße 4;02757/2720;aso.poechlarn@noeschule.at;www.nibelungenschule.at;APS $AS;
315031;Volksschule Artstetten - Pöbring;3661;Artstetten;Schulstr. 1;07413/8520;vs.artstetten-poebring@noeschule.at;;APS $VS;
315032;Neue Niederösterreichische Mittelschule Kilb;3233;Kilb;Kohlenbergstraße 3;02748/7209;hs.kilb@noeschule.at;www.hs.kilb.at;APS $HS NMS;
315041;Volksschule Bischofstetten;3232;Bischofstetten;Kirchenplatz 5;02748/8250;vs.bischofstetten@noeschule.at;;APS $VS;
315042;Neue Niederösterreichische Mittelschule Krummnussbaum;3375;Krummnussbaum;Rathausstraße 10;02757/2424;hs.krummnussbaum@noeschule.at;www.hskrummnussbaum.ac.at;APS $HS NMS;
315051;Volksschule Blindenmarkt;3372;Blindenmarkt;Lindenstraße 18;07473/2373;vs.blindenmarkt@noeschule.at;www.vsblindenmarkt.at;APS $VS;
315052;Neue Niederösterreichische Mittelschule Loosdorf;3382;Loosdorf;Otto Glöckel-Straße 6-8;02754/6282;hs.loosdorf@noeschule.at;www.hsloosdorf.ac.at;APS $HS NMS;
315053;Allgemeine Sonderschule Ybbs an der Donau;3370;Ybbs an der Donau;Schulring 7;07412/52588;aso.ybbs@noeschule.at;www.spz-ybbs.ac.at;APS $AS SPZ;
315062;Hauptschule Mank;3240;Mank;Schulstraße 7;02755/2335;hs.mank@noeschule.at;www.nms-mank.at;APS $HS;
315063;Allgemeine Sonderschule Mank;3240;Mank;Schulstraße 7;02755/2335 32;aso.mank@noeschule.at;http://www.asomank.ac.at/;APS $AS;
315071;Volksschule Dorfstetten;4392;Dorfstetten;Forstamt 8;07260/8209;vs.dorfstetten@noeschule.at;;APS $VS;
315072;Neue Niederösterreichische Mittelschule Melk;3390;Melk;Abt Karl Straße 41;02752/52512;hs.melk@noeschule.at;www.hsmelk.at;APS $HS NMS;
315082;Neue Niederösterreichische Mittelschule Pöchlarn;3380;Pöchlarn;Nibelungenstraße 5;02757/2317;hs.poechlarn@noeschule.at;;APS $HS NMS;
315091;Volksschule Erlauf;3253;Erlauf;Schulstraße 17;02757/6279;vs.erlauf@noeschule.at;;APS $VS;
315092;Hauptschule Pöggstall;3650;Pöggstall;Schulstraße 3;02758/4004;hs.poeggstall@noeschule.at;www.hspoeggstall.ac.at;APS $HS;
315101;Volksschule Dunkelsteinerwald, Gansbach;3122;Gansbach;Marktplatz 15;02753/364;vs.gansbach@noeschule.at;www.vsgansbach.ac.at;APS $VS;
315102;Hauptschule St. Leonhard am Forst;3243;St. Leonhard am Forst;Manker Straße 1;02756/2261;hs.stleonhard-forst@noeschule.at;http://www.hsstleonhard-forst.ac.at;APS $HS;
315111;Volksschule Dunkelsteinerwald, Gerolding;3392;Gerolding;Dorfplatz 1;02752/8649;vs.gerolding@noeschule.at;www.vsgerolding.at;APS $VS;
315112;Hauptschule Ybbs an der Donau;3370;Ybbs an der Donau;Schulring 7;07412/52491;hs.ybbs@noeschule.at;www.shsybbs.ac.at;APS $HS PTS;
315121;Volksschule Golling an der Erlauf;3381;Golling an der Erlauf;Schulstraße 2;02757/2635;vs.golling@noeschule.at;www.vsgolling.ac.at;APS $VS;
315132;Neue Niederösterreichische Mittelschule Emmersdorf an der Donau;3644;Emmersdorf an der Donau;Schulgasse 2;02752/70039;hs.emmersdorf@noeschule.at;www.nms-emmersdorf.at;APS $HS NMS;
315134;Polytechnische Schule Münichreith - Laimbach;3663;Laimbach am Ostrong;Nr. 102;02758/5251;pts.muenichreith-laimbach@noeschule.at;www.ptslaimbach.ac.at;APS PTS;
315142;Hauptschule Hürm;3383;Hürm;Nr. 15;02754/8542;hs.huerm@noeschule.at;www.hshuerm.ac.at;APS $HS;
315151;Volksschule Hürm;3383;Hürm;Nr. 15;02754/854220;vs.huerm@noeschule.at;vshuerm.ac.at;APS $VS;
315152;Hauptschule Persenbeug - Gottsdorf;3680;Persenbeug;Schubertstraße 32;07412/58002;hs.persenbeug@noeschule.at;www.hspersenbeug.ac.at;APS $HS;
315171;Volksschule Kilb;3233;Kilb;St. Pöltner Straße 11;02748/7827;vs.kilb@noeschule.at;www.vskilb.ac.at;APS $VS;
315181;Volksschule Kirnberg an der Mank;3241;Kirnberg an der Mank;Schulgasse 2;02755/4082;vs.kirnberg@noeschule.at;;APS $VS;
315191;Volksschule Kleinpöchlarn;3660;Kleinpöchlarn;Schulstraße 2;07413/8227-11;vs.kleinpoechlarn@noeschule.at;;APS $VS;
315201;Volksschule Krummnussbaum;3375;Krummnussbaum;Rathausstraße 10;02757/8632;vs.krummnussbaum@noeschule.at;;APS $VS;
315211;Volksschule Münichreith - Laimbach, Laimbach;3663;Laimbach am Ostrong;Nr. 102;02758/5250;vs.laimbach@noeschule.at;;APS $VS;
315221;Volksschule Leiben;3652;Leiben;Hauptstraße 11;02752/71064;vs.leiben@noeschule.at;;APS $VS;
315231;Volksschule Loosdorf;3382;Loosdorf;Otto Glöckel-Straße 6-8;02754/6401;vs.loosdorf@noeschule.at;www.vsloosdorf.at;APS $VS;
315241;Volksschule Mank;3240;Mank;Friedhofsweg 6;02755/4013;vs.mank@noeschule.at;;APS $VS;
315251;Volksschule Marbach an der Donau;3671;Marbach an der Donau;Prangerplatz 36;07413/374;vs.marbach@noeschule.at;www.vsmarbach.ac.at;APS $VS;
315261;Volksschule Maria Taferl;3672;Maria Taferl;Nr. 32;07413/321;vs.maria-taferl@noeschule.at;;APS $VS;
315291;Volksschule Melk;3390;Melk;Dr. Wilhelm Reich-Straße 7;02752/52610;vs.melk@noeschule.at;www.vsmelk.ac.at;APS $VS;
315301;Volksschule Münichreith - Laimbach, Münichreith;3662;Münichreith am Ostrong;Nr. 44;07413/7800;vs.muenichreith@noeschule.at;;APS $VS;
315321;Volksschule Neumarkt an der Ybbs;3371;Neumarkt an der Ybbs;Schulstraße 7;07412/58979;vs.neumarkt@noeschule.at;www.vsneumarkt.ac.at;APS $VS;
315331;Volksschule Nöchling;3691;Nöchling;Unterer Markt 12;07414/7297;vs.noechling@noeschule.at;;APS $VS;
315341;Volksschule Persenbeug - Gottsdorf;3680;Persenbeug;Rollfährestraße 15;07412/52378;vs.persenbeug@noeschule.at;www.vspersenbeug.ac.at;APS $VS;
315351;Volksschule Petzenkirchen;3252;Petzenkirchen;Fritz Sedlazeck-Platz 5;07416/52137;vs.petzenkirchen@noeschule.at;;APS $VS;
315391;Volksschule Pöchlarn;3380;Pöchlarn;Gernotstraße 4;02757/7687;vs.poechlarn@noeschule.at;www.vspoechlarn.ac.at;APS $VS;
315401;Volksschule Pöggstall;3650;Pöggstall;Schulstraße 5;02758/4034;vs.poeggstall@noeschule.at;www.volksschule.poeggstall.at;APS $VS $AS;
315411;Volksschule Raxendorf;3654;Raxendorf;Nr. 28;02758/7191;vs.raxendorf@noeschule.at;;APS $VS;
315428;Handelsakademie und Handelsschule der Stadtgemeinde Ybbs/Donau;3370;Ybbs/Donau;Schulring 1;07412/52575;hak.ybbs@noeschule.at;www.sz-ybbs.ac.at;BBS K$S KMS KHS;
315437;Meisterklasse für Tischlerei, Pöchlarn;3380;Pöchlarn;Oskar Kokoschka Straße 5;02757/7690;ms.poechlarn@noeschule.at;www.meisterschule-tischler.at;BBS T$S TMS;
315441;Volksschule Ruprechtshofen;3244;Ruprechtshofen;Schulstraße 2;02756/2518;vs.ruprechtshofen@noeschule.at;;APS $VS;
315449;Höhere Lehranstalt für wirtschaftliche Berufe des Zisterzienserstiftes, Ysper;3683;Yspertal;Schulstraße 13;07415/7249-0;hla.ysper@noeschule.at;www.hlaysper.ac.at;BBS W$S WMS WHS;
315451;Volksschule St. Martin - Karlsbach;3376;St.Martin-Karlsbach;Lindenstraße 2;07412/58901;vs.stmartin-karlsbach@noeschule.at;;APS $VS;
315461;Volksschule St. Oswald;3684;St. Oswald;Nr. 59;07415/7472;vs.stoswald@noeschule.at;;APS $VS;
315467;Höhere technische Lehranstalt der Stadtgemeinde Ybbs/Donau;3370;Ybbs/Donau;Schulring 6;07412/52575-511;htl.ybbs@noeschule.at;www.sz-ybbs.ac.at;BBS T$S THS;
315491;Volksschule Texingtal, Texing;3242;Texing;Nr. 19;02755/7256;vs.texing@noeschule.at;www.vstexing.ac.at;APS $VS;
315501;Volksschule Weiten;3653;Weiten;Schulstraße 122;02758/8010;vs.weiten@noeschule.at;www.vs.weiten.at;APS $VS;
315511;Volksschule Ybbs an der Donau;3370;Ybbs an der Donau;Prof. Wirtinger Gasse 1;07412/52409;vs.ybbs@noeschule.at;;APS $VS;
315521;Volksschule Zelking - Matzleinsdorf;3393;Zelking;Pöchlarner Straße 9;02752/52010;vs.zelking-matzleinsdorf@noeschule.at;;APS $VS;
315541;Volksschule Emmersdorf an der Donau;3644;Emmersdorf an der Donau;Schulgasse 1;02752/71410;vs.emmersdorf@noeschule.at;www.vsemmersdorf.ac.at;APS $VS;
315710;Landwirtschaftliche Fachschule Sooß;3382;Loosdorf;Sooß 1;02754/6154;;;BBS LFS;
316011;Volksschule Altlichtenwarth;2144;Altlichtenwarth;Hauptstraße 430;02533/801109;vs.altlichtenwarth@noeschule.at;;APS $VS;
316012;Hauptschule Asparn an der Zaya;2151;Asparn an der Zaya;Schulgasse 12;02577/8003;hs.asparn-zaya@noeschule.at;www.hsasparn.ac.at;APS $HS $AS;
316013;Allgemeine Sonderschule Laa an der Thaya;2136;Laa an der Thaya;Anton Bruckner-Straße 1-3;02522/8303;aso.laa-thaya@noeschule.at;www.spzlaa.ac.at;APS $AS SPZ;
316015;Landesberufsschule Laa/Thaya;2136;Laa/Thaya;Wehrgärten 3;02522/2304;direktion@lbslaa-thaya.ac.at;www.lbslaa-thaya.ac.at;BPS BRS;
316016;Bundesgymnasium und Bundesrealgymnasium Laa/Thaya;2136;Laa/Thaya;Martin Wachter-Platz 6;02522/2401-0;bg.laa-thaya@noeschule.at;www.bglaa.ac.at;AHS GYM;
316023;Allgemeine Sonderschule Mistelbach;2130;Mistelbach;Thomas Freund-Gasse 3;02572/2291;aso.mistelbach@noeschule.at;www.spzmistelbach.ac.at;APS $AS SPZ;
316025;Landesberufsschule Mistelbach;2130;Mistelbach;Conrad von Hötzendorf-Platz 2;02572/2369;direktion@lbsmistelbach.ac.at;www.lbsmistelbach.ac.at;BPS BRS;
316026;Bundesoberstufenrealgymnasium Mistelbach;2130;Mistelbach;Brennerweg 8;02572/2341-29;borg.mistelbach@noeschule.at;www.borgmistelbach.ac.at;AHS ORG;
316032;Neue Niederösterreichische Mittelschule Gaweinstal;2191;Gaweinstal;Schulstraße 2;02574 29500;hs.gaweinstal@noeschule.at;www.hs-gaweinstal.schulweb.at;APS $HS NMS;
316033;Allgemeine Sonderschule Wolkersdorf im Weinviertel;2120;Wolkersdorf im Weinviertel;Kirchenplatz 7;02245/2794;aso.wolkersdorf@noeschule.at;;APS $AS SPZ;
316034;Polytechnische Schule Laa an der Thaya;2136;Laa an der Thaya;Burgplatz 3;0664 1045506;pts.laa-thaya@noeschule.at;http://www.pts-laa.at/;APS PTS;
316036;Bundesgymnasium und Bundesrealgymnasium Wolkersdorf;2120;Wolkersdorf;Withalmstraße 14;02245/82555;bg.wolkersdorf@noeschule.at;www.ahs-wolkersdorf.at;AHS GYM;
316041;Volksschule Asparn an der Zaya;2151;Asparn an der Zaya;Schulgasse 10;02577/8205;vs.asparn-zaya@noeschule.at;;APS $VS;
316042;Hauptschule Großkrut;2143;Großkrut;Schulstraße 5;02556/7254;hs.grosskrut@noeschule.at;;APS $HS;
316043;Allgemeine Sonderschule Poysdorf;2170;Poysdorf;Wiener Straße 3;02552/2297;aso.poysdorf@noeschule.at;;APS $AS;
316051;Volksschule Bernhardsthal;2275;Bernhardsthal;Schulstraße 19;02557/8824;vs.bernhardsthal@noeschule.at;;APS $VS;
316052;Hauptschule Hausbrunn;2145;Hausbrunn;Gottfried von Preyer-Weg 22;02533/808104;hs.hausbrunn@noeschule.at;hs-hausbrunn.at;APS $HS;
316061;Volksschule Bockfließ;2213;Bockfließ;Hauptstraße 56;02288/6525;vs.bockfliess@noeschule.at;;APS $VS;
316062;Hauptschule I Laa an der Thaya;2136;Laa an der Thaya;Anton Bruckner-Straße 1-3;02522/7000;hs.laa-thaya-1@noeschule.at;www.hslaa-thaya-1.ac.at;APS $HS;
316071;Volksschule Drasenhofen;2165;Drasenhofen;Nr. 178;02554/6382;vs.drasenhofen@noeschule.at;;APS $VS;
316072;Hauptschule II Laa an der Thaya;2136;Laa an der Thaya;Breitegasse 6;02522/2272;hs.laa-thaya-2@noeschule.at;http://www.mhs-laa.at/;APS $HS;
316082;Hauptschule I Mistelbach;2130;Mistelbach;Thomas-Freund-Gasse 3;02572/32236;hs.mistelbach-1@noeschule.at;www.hsmistelbach-1.ac.at;APS $HS;
316084;Polytechnische Schule Mistelbach;2130;Mistelbach;Conrad Hötzendorf-Platz 2;02572/32238-11;pts.mistelbach@noeschule.at;www.pts-mistelbach.at;APS PTS;
316092;Europa-Hauptschule II Mistelbach;2130;Mistelbach;Thomas Freund-Gasse 3;02572/32237;hs.mistelbach-2@noeschule.at;www.hsmistelbach-2.ac.at;APS $HS;
316094;Polytechnische Schule Wolkersdorf im Weinviertel;2120;Wolkersdorf im Weinviertel;Obersdorf, Hauptstraße 54;02245/83577;pts.wolkersdorf@noeschule.at;www.pts-wolkersdorf.at;APS PTS;
316102;Neue Niederösterreichische Mittelschule Poysdorf I;2170;Poysdorf;Hindenburgstraße 34;02552/2446;hs.poysdorf-1@noeschule.at;www.hspoysdorf1.ac.at;APS $HS NMS;
316112;Neue Niederösterreichische Mittelschule Poysdorf II;2170;Poysdorf;Wiener Straße 5;02552/2522;hs.poysdorf-2@noeschule.at;www.hspoysdorf-2.ac.at;APS $HS NMS;
316122;Hauptschule Stronsdorf;2153;Stronsdorf;Nr. 3;02526/7326;hs.stronsdorf@noeschule.at;members.nanet.at/hs.stronsdorf;APS $HS;
316131;Volksschule Gaweinstal;2191;Gaweinstal;Schulstraße 4;02574 29400;vs.gaweinstal@noeschule.at;http://www.schoolweb.vsgaweinstal.at;APS $VS $AS;
316132;Neue Niederösterreichische Mittelschule Wolkersdorf I;2120;Wolkersdorf im Weinviertel;Withalmstraße 4;02245/2363;hs.wolkersdorf-1@noeschule.at;www.sps1wolkersdorf.at;APS $HS NMS;
316141;Volksschule Gnadendorf;2152;Gnadendorf;Nr. 106;02525/253;vs.gnadendorf@noeschule.at;www.vsgnadendorf.ac.at/;APS $VS;
316142;Neue Niederösterreichische MittelschuleWolkersdorf II;2120;Wolkersdorf im Weinviertel;Kirchenplatz 7;02245 / 2677;hs.wolkersdorf-2@noeschule.at;www.hswolkersdorf2.ac.at;APS $HS NMS;
316151;Volksschule Großebersdorf;2203;Großebersdorf;Am Sandgraben 1;02245/3511;vs.grossebersdorf@noeschule.at;;APS $VS;
316161;Volksschule Groß-Engersdorf;2212;Groß-Engersdorf;Bahngasse 14;02245/88180;vs.grossengersdorf@noeschule.at;;APS $VS;
316171;Volksschule Großharras;2034;Großharras;Nr. 52;02526/7364;vs.grossharras@noeschule.at;www.vsgrossharras.ac.at;APS $VS;
316181;Volksschule Großkrut;2143;Großkrut;Schulstraße 5;02556/7264 und 02556/7280;vs.grosskrut@noeschule.at;;APS $VS;
316191;Volksschule Fallbach, Hagenberg;2133;Loosdorf;Hagenberg 75;02524/8597;vs.fallbach-hagenberg@noeschule.at;;APS $VS;
316221;Volksschule Hausbrunn;2145;Hausbrunn;Hauptstraße 22;02533/801690;vs.hausbrunn@noeschule.at;;APS $VS;
316231;Volksschule Herrnbaumgarten;2171;Herrnbaumgarten;Hauptstraße 55;02555/2574;vs.herrnbaumgarten@noeschule.at;;APS $VS;
316291;Volksschule Kreuzstetten;2124;Niederkreuzstetten;Schulgasse 25;02263/8487;vs.kreuzstetten@noeschule.at;volksschule.kreuzstetten.at;APS $VS;
316301;Volksschule Laa an der Thaya;2136;Laa an der Thaya;Hubertusgasse 17;02522/2338;vs.laa-thaya@noeschule.at;www.vslaa.ac.at;APS $VS;
316311;Volksschule Ladendorf;2126;Ladendorf;Schulgasse 2;02575/2373;vs.ladendorf@noeschule.at;www.school4you.at/2126/vsladendorf;APS $VS;
316331;Volksschule I Mistelbach;2130;Mistelbach;Bahnzeile 1;02572 2515-6110;vs.mistelbach-1@noeschule.at;www.vsmistelbach-1.ac.at;APS $VS;
316341;Volksschule II Mistelbach;2130;Mistelbach;Bahnzeile 1;02572 2515/6120;vs.mistelbach-2@noeschule.at;www.vs2mistelbach.schulweb.at;APS $VS;
316351;Volksschule Neudorf bei Staatz;2135;Neudorf bei Staatz;Nr. 174;02523/8386;vs.neudorf-staatz@noeschule.at;www.vs-neudorf.schulweb.at;APS $VS;
316371;Volksschule Niederleis;2116;Niederleis;Hauptstraße 153;02576/2228;vs.niederleis@noeschule.at;;APS $VS;
316391;Volksschule Ottenthal;2163;Ottenthal;Nr. 94;02554/8135;vs.ottenthal@noeschule.at;vsottenthal.ac.at;APS $VS;
316417;Höhere technische Lehranstalt für Elektronik Mistelbach;2130;Mistelbach;Karl Katschthaler-Str. 2;02572/32036;htl.mistelbach@noeschule.at;www.htlmistelbach.ac.at;BBS T$S THS;
316418;Bundeshandelsakademie und Bundeshandelsschule Laa/Thaya;2136;Laa/Thaya;Anton-Bruckner-Straße 39;02522/2297-0;hak.laa-thaya@noeschule.at;www.haklaa.ac.at;BBS K$S KMS KHS;
316421;Volksschule Pillichsdorf;2211;Pillichsdorf;Bahnstraße 3;02245/3139;vs.pillichsdorf@noeschule.at;;APS $VS;
316431;Volksschule Poysdorf;2170;Poysdorf;Wiener Straße 3;02552/2580;316431@noeschule.at;www.vspoysdorf.ac.at;APS $VS;
316437;Werkmeisterschule für Berufstätige des WIFI der Wirtschaftskammer für NÖ, Mistelbach;2130;Mistelbach;Pater Helde Straße 19;;wms.mistelbach@noeschule.at;;BBS T$S TWS;
316441;Volksschule Rabensburg;2274;Rabensburg;Hauptstraße 73;02535/3543;vs.rabensburg@noeschule.at;;APS $VS;
316448;Bundeshandelsakademie und Bundeshandelsschule Mistelbach;2130;Mistelbach;Brennerweg 8;02572/2305;hak.mistelbach@noeschule.at;www.hakmistelbach.ac.at;BBS K$S KMS KHS;
316451;Volksschule Schrattenberg;2172;Schrattenberg;Schulgasse 1;02555/24615;vs.schrattenberg@noeschule.at;;APS $VS;
316459;Höhere Bundeslehranstalt für wirtschaftliche Berufe Mistelbach;2130;Mistelbach;Brennerweg 8;02572/2950;hlw.mistelbach@noeschule.at;www.hlwmistelbach.ac.at;BBS W$S WMS WHS;
316469;Schule für Sozialbetreuungsberufe mit dem Schwerpunkt Altenarbeit Mistelbach;2130;Mistelbach;Brennerweg 8;02572/2950-15;fs.mistelbach@noeschule.at;;BBS GES;
316491;Volksschule Staatz;2134;Staatz-Kautendorf;Schlossplatz 3;02524/3530;vs.staatz@noeschule.at;;APS $VS;
316501;Volksschule Stronsdorf;2153;Stronsdorf;Oberschoderlee 64;02526/7290;vs.stronsdorf@noeschule.at;;APS $VS;
316511;Volksschule Ulrichskirchen - Schleinbach;2122;Ulrichskirchen;Neue Schule 1;02245/83018;vs.ulrichskirchen-schleinbach@noeschule.at;www.millenniumsschule.at;APS $VS;
316521;Volksschule Kreuttal;2123;Kreuttal;Unterolberndorf, Kirchenplatz 2;02245/89308;vs.kreuttal@noeschule.at;www.kreuttal.at/Bildung/VSKreuttal/index.html;APS $VS;
316531;Volksschule Gaubitsch;2154;Gaubitsch;Nr. 125;02522/88501;vs.gaubitsch@noeschule.at;;APS $VS;
316561;Volksschule Wildendürnbach;2164;Wildendürnbach;Nr. 183;02523/825240;vs.wildenduernbach@noeschule.at;vs-wildenduernbach.jimdo.com/;APS $VS;
316571;Volksschule Wilfersdorf;2193;Wilfersdorf;Sportplatzstraße 49;02573/2309;vs.wilfersdorf@noeschule.at;;APS $VS;
316581;Volksschule Hochleithen;2123;Traunfeld;Hauptstraße 63;02245/89588;vs.hochleithen@noeschule.at;www.vshochleithen.ac.at;APS $VS;
316591;Volksschule Wolkersdorf im Weinviertel;2120;Wolkersdorf im Weinviertel;Obersdorf, Kirschenallee 2;02245/2481;vs.wolkersdorf@noeschule.at;www.vswolkersdorf.ac.at;APS $VS;
316601;Volksschule Laa an der Thaya, Wulzeshofen;2064;Wulzeshofen;Nr. 53;02527/273;vs.wulzeshofen@noeschule.at;www.wulzeshofen.at;APS $VS;
316631;"Privatschule ""Waldorfschule Dreiklang"" des Verein ""Walddorfschule Dreiklang""";2123;Unterolberndorf;Kreuttalstraße 107;;;;APS STS;
316710;Landwirtschaftliche Fachschule Mistelbach;2130;Mistelbach;Winzerschulgasse 50;02572/2421;;;BBS LFS;
316730;Landwirtschaftliche Fachschule Poysdorf;2170;Poysdorf;Oberer Markt 7;02552/2421;;www.lfs-poysdorf.ac.at;BBS LFS;
316810;Bundesbildungsanstalt für Kindergartenpädagogik Mistelbach;2130;Mistelbach;Brennerweg 8;02572/2950;bakip.mistelbach@noeschule.at;www.bakipmistelbach.ac.at;BBS BAKIP;
317011;Volksschule Achau;2481;Achau;Schulweg 1;02236/722 20;317011@noeschule.at;www.vsachau.ac.at;APS $VS;
317012;Neue Niederösterreichische Mittelschule Brunn am Gebirge-Maria Enzersdorf;2345;Brunn am Gebirge;Jubiläumstraße 1-5;02236/31388;hs.brunn-gebirge@noeschule.at;www.edvhsbrunn.at;APS $HS NMS;
317013;Allgemeine Sonderschule Mödling;2340;Mödling;Untere Bachgasse 3;02236/231 98;317013@noeschule.at;www.spzmoedling.ac.at;APS $AS SPZ;
317014;Polytechnische Schule Mödling;2340;Mödling;Dr. Hanns Schürff-Gasse 51;02236/24673-20;317014@noeschule.at;www.pts-moedling.at/;APS PTS;
317016;Bundesgymnasium Mödling, Untere Bachgasse;2340;Mödling;Untere Bachgasse 8;02236/22511;bg.moedling-bach@noeschule.at;www.bgmoedling-bach.ac.at;AHS GYM;
317021;Volksschule Biedermannsdorf;2362;Biedermannsdorf;Schulweg 5;02236/71331;317021@noeschule.at;www.vsbiedermannsdorf.ac.at;APS $VS;
317022;Neue Niederösterreichische Mittelschule Gumpoldskirchen;2352;Gumpoldskirchen;Jubiläumstraße 23;02252/62152;317022@noeschule.at;www.hsgumpoldskirchen.ac.at;APS $HS NMS;
317023;Allgemeine Sonderschule Hinterbrühl;2371;Hinterbrühl;Gaadnerstraße 36c;02236/267 57;317023@noeschule.at;www.spzhinterbruehl.ac.at;APS $AS SPZ;
317026;Bundesgymnasium und Bundesrealgymnasium Mödling, Keimgasse;2340;Mödling;Franz Keim-Gasse 3;02236/24244-0;bg.moedling-keim@noeschule.at;www.bgmoedling-keim.ac.at;AHS GYM;
317031;Volksschule Breitenfurt bei Wien;2384;Breitenfurt bei Wien;Schulgasse 1;02239/4201;317031@noeschule.at;www.vsbreitenfurt.ac.at;APS $VS;
317032;Neue Niederösterreichische Mittelschule Guntramsdorf;2353;Guntramsdorf;Sportplatzstraße 15;02236/52504-150 od. 151, 152,;hs.guntramsdorf@noeschule.at;www.ms-guntramsdorf.at;APS $HS $AS NMS;
317036;Bundesgymnasium und Bundesrealgymnasium Perchtoldsdorf;2380;Perchtoldsdorf;Roseggergasse 2-4;01/8694728-0;bg.perchtoldsdorf@noeschule.at;www.bgperchtoldsdorf.ac.at;AHS GYM;
317041;Volksschule Brunn am Gebirge;2345;Brunn am Gebirge;Wiener Straße 23;02236/32960;vs.brunn-gebirge@noeschule.at;www.vsbrunn-gebirge.ac.at/;APS $VS;
317042;Neue Niederösterreichische Mittelschule Hinterbrühl;2371;Hinterbrühl;Gaadner Straße 36a;02236/26363;317042@noeschule.at;www.ims-hinterbruehl.at;APS $HS NMS;
317043;Allgemeine Sonderschule Perchtoldsdorf;2380;Perchtoldsdorf;Beatrixgasse 5A;01/8658042;aso.perchtoldsdorf@noeschule.at;www.spzperchtoldsdorf.ac.at;APS $AS SPZ;
317046;Bundesrealgymnasium unter bes. Berücksichtigung d. sportlichen Ausbildung, Maria Enzersdorf;2344;Maria Enzersdorf;Giesshübler Straße 37;02236/46742-0;brg.maria-enzersdorf@noeschule.at;www.sportgymnasium.at;AHS GYM ORG;
317051;Volksschule Gaaden;2531;Gaaden bei Mödling;Schulgasse 1;02237/833 3;317051@noeschule.at;www.vsgaaden.ac.at;APS $VS;
317053;Landessonderschule Hinterbrühl;2371;Hinterbrühl;Urlaubskreuzstraße 15;02236/44183-361;317053@noeschule.at;www.lsshinterbruehl.ac.at;APS $AS;
317056;Liese Prokop Privatschule für Hochleistungssportler;2344;Maria Enzersdorf;Liese Prokop Platz 1;02236 / 26 833 - 601;gym.maria-enzersdorf@noeschule.at;www.lpps.at;AHS BBS ORG K$S KMS KHS;
317062;Neue Niederösterreichische Mittelschule Mödling, Lerchengasse;2340;Mödling;Lerchengasse 18;02236/23514-10;hs.moedling-lerchengasse@noeschule.at;www.esm-mödling.at;APS $HS NMS;
317066;Privates Oberstufenrealgymnasium der Marktgemeinde Guntramsdorf;2353;Guntramsdorf;Sportplatzstraße 15;0664 413 6009;org.guntramsdorf@noeschule.at;in Arbeit;AHS ORG;
317071;Volksschule Gumpoldskirchen;2352;Gumpoldskirchen;Schulgasse 21;02252/62 9 75;vs.gumpoldskirchen@noeschule.at;www.vsgumpoldskirchen.ac.at;APS $VS;
317072;Neue Niederösterreichische Mittelschule Mödling, Jakob Thoma-Straße;2340;Mödling;Jakob Thoma-Straße 20;02236/22543-1;317072@noeschule.at;www.nms-thoma.ac.at;APS $HS NMS;
317081;Volksschule Guntramsdorf, Hauptstraße;2353;Guntramsdorf;Hauptstraße 35;02236/ 506 0 13-141;317081@noeschule.at;www.vsguntramsdorf-hauptstr.ac.at;APS $VS;
317082;Neue Niederösterreichische Mittelschule Perchtoldsdorf;2380;Perchtoldsdorf;Roseggergasse 2 - 6;01/869 04 73;317082@noeschule.at;www.mittelschule-perchtoldsdorf.at;APS $HS NMS;
317091;Volksschule Guntramsdorf, Dr. Karl Renner-Straße;2353;Guntramsdorf;Dr. Karl Renner-Straße 27;02236/473 50;vs.guntramsdorf-rennerstrasse@noeschule.at;www.vsguntramsdorf-rennerstr.ac.at/;APS $VS;
317101;Volksschule Hinterbrühl;2371;Hinterbrühl;Beethovengasse 4;02236/263 87;vs.hinterbruehl@noeschule.at;www.vshinterbruehl.ac.at;APS $VS;
317111;Volksschule Kaltenleutgeben;2391;Kaltenleutgeben;Hauptstraße 76;02238/77588 oder 02238/77588DW.12;vs.kaltenleutgeben@noeschule.at;www.vskaltenleutgeben.ac.at;APS $VS;
317122;"Privatschule ""Evangelische Schule für ganzheitliches Lernen für 10- bis 15-Jährige - Erlebnisschule"" des Evangelischen Schulwerks A.B. Wien, Maria Enzersdorf";2340;Mödling;Grenzgasse 111, Objekt 9/3;02236 / 205811;phs.moedling-erlebnisschule@noeschule.at;www.erlebnisschule.net;APS $HS STS;
317131;Volksschule Laxenburg;2361;Laxenburg;Martin Ebner-Gasse 10;02236/71119;vs.laxenburg@noeschule.at;www.vslaxenburg.ac.at;APS $VS;
317132;Libo-Montessori-Schule 10-15 jährige;2344;Maria Enzersdorf;Barmhartstalweg 13;0664/3325314;phs.moedling-libo-montessori@noeschule.at;;APS $HS;
317141;Volksschule Maria Enzersdorf, Schulplatz;2344;Maria Enzersdorf;Schulplatz 2;02236/24133;vs.maria-enzersdorf-schulplatz@noeschule.at;www.vsmaria-enzersdorf.ac.at/schulplatz;APS $VS;
317151;Volksschule Maria Enzersdorf, Südstadt;2344;Maria Enzersdorf;Theißplatz 2;02236/44169;vs.maria-enzersdorf-suedstadt@noeschule.at;www.vssuedstadt.ac.at;APS $VS;
317161;Volksschule Mödling, Babenbergergasse;2340;Mödling;Babenbergergasse 18-20;02236/22114 oder 02236/42398 DW30;317161@noeschule.at;www.vsmoedling-babenberger.ac.at;APS $VS;
317171;Volksschule Mödling, Lerchengasse;2340;Mödling;Lerchengasse 35;02236/22115;vs.moedling-lerchengasse@noeschule.at;http://www.vslerchengasse.at/;APS $VS;
317181;Volksschule Mödling, Hyrtlplatz;2340;Mödling;Hyrtlplatz 2;02236/23248-11;vs.moedling-hyrtlplatz@noeschule.at;www.vshyrtlplatz.at;APS $VS;
317191;Volksschule Münchendorf;2482;Münchendorf;Sportplatzstraße 5;02259/2286;vs.muenchendorf@noeschule.at;vsmuenchendorf.ac.at;APS $VS;
317201;Volksschule Perchtoldsdorf, Roseggergasse;2380;Perchtoldsdorf;Roseggergasse 2-6;01/8693528;vs.perchtoldsdorf-roseggergasse@noeschule.at;www.vsperchtoldsdorf.ac.at;APS $VS;
317211;Volksschule Wienerwald, Sittendorf;2393;Sittendorf bei Wien;Gaadner Straße 24;02237/7639-1;vs.wienerwald-sittendorf@noeschule.at;www.vswienerwald.ac.at;APS $VS;
317231;Volksschule Vösendorf;2331;Vösendorf;Kirchenplatz 2;01/699 15 85;vs.voesendorf@noeschule.at;www.vsvoesendorf.ac.at;APS $VS;
317241;Volksschule Wiener Neudorf;2351;Wiener Neudorf;Europaplatz 6;02236/61122;vs.wr-neudorf@noeschule.at;www.vswr-neudorf.ac.at;APS $VS;
317251;Volksschule Perchtoldsdorf, Sebastian Kneipp-Gasse;2380;Perchtoldsdorf;Sebastian Kneipp-Gasse 20-26;01/869 23 10;317251@noeschule.at;www.vsperchtoldsdorf.ac.at;APS $VS;
317261;Private Volksschule Maria Enzersdorf der Erzdiözese Wien;2344;Maria Enzersdorf;Gießhübler Straße 41;02236/26122;pvs.maria-enzersdorf@noeschule.at;www.sme.ac.at;APS $VS;
317281;Volksschule Mödling, Pfandlbrunngasse;2340;Mödling;Pfandlbrunngasse 2;02236/42398- DW 14 Konferenzz.,DW 30 Direktion;vs.moedling-pfandlbrunngasse@noeschule.at;www.stinglvs.at/;APS $VS;
317321;"Privatschule ""Evangelische Volksschule - Erlebnisschule"" des Evangelischen Schulwerks A.B. Wien, Maria Enzersdorf";2340;Mödling;Grenzgasse 111, Objekt 9/3;02236 /205 8 11;pvs.moedling-erlebnisschule@noeschule.at;www.erlebnisschule.net;APS $VS;
317331;"Private Volksschule des gemeinnützigen Vereins ""Libo-Montessori-Schule""";2344;Maria Enzersdorf;Barmhartstalweg 13;0664/3325314;pvs.moedling-libo-montessori@noeschule.at;;APS $VS;
317341;"Privatschule ""Haus der Sonne"" des Vereins ""Neue Wege Gumpoldskirchen""";2352;Gumpoldskirchen;Badener Straße 11;0650 / 71 00 637;;www.haus-der-sonne.at;APS $VS STS;
317351;Privatschule MOKIWE-Schule des Vereins MOKIWE Montessori KinderWerkstätte;2345;Brunn am Gebirge;Liechtensteinstraße 25;;;;APS $VS STS;
317418;Handelsakademie und Handelsschule des Fonds der Wiener Kaufmannschaft, Mödling;2340;Mödling;Maria Theresien-Gasse 25;02236/22289;hak.moedling@noeschule.at;www.moedling.vbs.ac.at;BBS K$S KHS KMS;
317428;"Handelsschule für Hochleistungssportler des Vereins ""Österreichisches Leistungssport Zentrum-Südstadt""";2344;Maria Enzersdorf;Johann-Steinböck-Straße 5;02236 / 26 833 - 601;hak.maria-enzersdorf@noeschule.at;;BBS K$S KMS KHS;
317437;Höhere technische Bundeslehr- und Versuchsanstalt Mödling;2340;Mödling;Technikerstraße 1-5;02236/408-0;htl.moedling@noeschule.at;htl.moedling.at;BBS T$S TMS THS KOLL;
317479;Höhere Bundeslehranstalt für wirtschaftliche Berufe Biedermannsdorf;2362;Biedermannsdorf;Perlasgasse 10;02236/71117-0;hlw.biedermannsdorf@noeschule.at;www.hlw-bmdf.ac.at;BBS W$S WMS WHS KOLL;
317489;Höhere Lehranstalten Mödling;2340;Mödling;Josef Hyrtl-Platz 3;02236/22205;hlm.moedling@noeschule.at;www.hla-moedling.at;BBS W$S WHS MODE;
317509;Schule für Sozialbetreuungsberufe mit Schwerpunkt Altenarbeit;2362;Biedermannsdorf;Perlasgasse 10;02236/71117-0;sob-bmdf@noeschule.at;www.hlw-bmdf.ac.at;BBS GES;
317810;Berufspädagogisches Institut der Österreichischen Jungarbeiterbewegung, Mödling;2340;Mödling;Dr. Bruno Buchwieser-Gasse 1;02236/232710;berpaed.moedling@noeschule.at;www.bpi.ac.at;PAI;
318011;Volksschule Breitenau am Steinfelde;2624;Breitenau am Steinfelde;Kirchenplatz 9;02635/63253;vs.breitenau@noeschule.at;www.school4you.at/2624/vsbreitenau;APS $VS;
318012;Hauptschule Aspang-Markt;2870;Aspang-Markt;Roseggergasse 3;02642/52397;hs.aspang-markt@noeschule.at;www.hsaspang.ac.at;APS $HS PTS;
318013;Allgemeine Sonderschule Gloggnitz;2640;Gloggnitz;Schulgasse 4;02662/42756;aso.gloggnitz@noeschule.at;Http://spzgloggnitz.ac.at;APS $AS SPZ;
318015;Landesberufsschule Neunkirchen;2620;Neunkirchen;Triester Straße 67;02635/65386;office@lbsneunkirchen.ac.at;www.lbsneunkirchen.ac.at;BPS BRS;
318016;Bundesgymnasium und Bundesrealgymnasium Neunkirchen;2620;Neunkirchen;Otto Glöckel-Weg 2;02635/62674-0;bg.neunkirchen@noeschule.at;www.bgneunkirchen.ac.at;AHS GYM;
318022;Hauptschule Edlitz;2842;Edlitz;Markt 12;02644/6011;hs.edlitz@noeschule.at;www.members.aon.at/hs_edlitz;APS $HS;
318023;Allgemeine Sonderschule Neunkirchen;2620;Neunkirchen;Dittrichgasse 12;02635/62005;aso.neunkirchen@noeschule.at;www.asoneunkirchen.ac.at;APS $AS SPZ;
318024;Polytechnische Schule Ternitz;2630;Ternitz;Forstnerweg 10;02630/38179;pts.ternitz@noeschule.at;www.pts.ternitz.at;APS PTS;
318025;Bundesberufsschule Gerasdorf;2731;Gerasdorf/Steinfeld;Puchberger Straße 1-2;02638/77431-630;318025@aon.at;;BPS BRS;
318026;Gymnasium und Realgymnasium Sachsenbrunn;2880;Kirchberg/Wechsel;Außen 52;02641/2202;gym.sachsenbrunn@noeschule.at;www.sachsenbrunn.at;AHS GYM;
318031;Volksschule Edlitz;2842;Edlitz;Markt 12;02644/7245;vs.edlitz@noeschule.at;;APS $VS;
318032;Hauptschule Gloggnitz;2640;Gloggnitz;Schulgasse 1;02662/423970;hs.gloggnitz@noeschule.at;www.shsgloggnitz.at;APS $HS PTS;
318036;Bundesoberstufenrealgymnasium Ternitz;2630;Ternitz;Straße d. 12. Februar 23;02630/35052;gym.ternitz@noeschule.at;www.orgternitz.at;AHS ORG;
318041;Volksschule Feistritz am Wechsel;2873;Feistritz am Wechsel;Nr. 125;02641/2167;vs.feistritz-wechsel@noeschule.at;;APS $VS;
318042;Neue Niederösterreichische Mittelschule Grünbach am Schneeberg;2733;Grünbach am Schneeberg;Schulgasse 12;02637/2269-20;hs.gruenbach-schneeberg@noeschule.at;www.ems-gruenbach.at;APS $HS NMS;
318043;Allgemeine Sonderschule Ternitz;2630;Ternitz;Stapfgasse 1;02630/37121;aso.ternitz@noeschule.at;www.asoternitz.ac.at;APS $AS $HS;
318051;Volksschule Gloggnitz;2640;Gloggnitz;Schulgasse 1;02662/42297;vs.gloggnitz@noeschule.at;www.vs-gloggnitz;APS $VS;
318053;Allgemeine Sonderschule Aspang-Markt;2870;Aspang-Markt;Schulgasse 26;02642/51155;aso.aspang@noeschule.at;;APS $AS SPZ;
318061;Volksschule Grafenbach - St. Valentin;2632;Grafenbach;Schulstraße 13;02630/37120;vs.stvalentin-grafenbach@noeschule.at;www.vsgrafenbach.ac.at;APS $VS;
318062;Neue Niederösterreichische Mittelschule Neunkirchen, Augasse;2620;Neunkirchen;Augasse 7;02635/62357;hs.neunkirchen-augasse@noeschule.at;members.aon.at/hauptschule-augasse;APS $HS NMS;
318063;Allgemeine Sonderschule Pitten;2823;Pitten;Auf der Schmelz 62;02627/85191;aso.pitten@noeschule.at;;APS $AS;
318071;Volksschule Grimmenstein;2840;Grimmenstein;Schulgasse 1;02644/7272;vs.grimmenstein@noeschule.at;;APS $VS;
318072;Hauptschule Neunkirchen, Schoellerstraße;2620;Neunkirchen;Schoellerstraße 7;02635/62668;hs.neunkirchen-schoellerstrasse@noeschule.at;www.hsneunkirchen-schoeller.ac.at;APS $HS;
318073;Allgemeine Sonderschule Kirchberg am Wechsel;2880;Kirchberg am Wechsel;Markt 300;02641/6816;aso.kirchberg-wechsel@noeschule.at;;APS $AS;
318081;Volksschule Grünbach am Schneeberg;2733;Grünbach am Schneeberg;Schulgasse 12;02637/2269-10;vs.gruenbach-schneeberg@noeschule.at;;APS $VS;
318082;Hauptschule Payerbach;2650;Payerbach;Schulgasse 11;02666/52476;hs.payerbach@noeschule.at;www.hs-payerbach.at;APS $HS;
318083;Allgemeine Sonderschule Grünbach am Schneeberg;2733;Grünbach am Schneeberg;Schulgasse 12;02637/2269-30;aso.gruenbach-schneeberg@noeschule.at;;APS $AS;
318092;Neue Niederösterreichische Mittelschule Pitten;2823;Pitten;Auf der Schmelz 62;02627/85195;hs.pitten@noeschule.at;nms-pitten.ac.at;APS $HS NMS;
318102;Neue Niederösterreichische Mittelschule Ternitz, Pottschach;2630;Ternitz;Pottschach, Franz Samwald-Straße 25;02630/37307;hs.pottschach@noeschule.at;www.nms-pottschach.com;APS $HS NMS;
318112;Neue Niederösterreichische Mittelschule Puchberg am Schneeberg;2734;Puchberg am Schneeberg;Burggasse 13;02636/3110;hs.puchberg-schneeberg@noeschule.at;www.hspuchberg.ac.at;APS $HS NMS;
318121;Volksschule Höflein an der Hohen Wand;2732;Höflein an der Hohen Wand;Ortsstraße 2;02620/2385;vs.hoeflein-hohewand@noeschule.at;www.vs-hoeflein.at;APS $VS;
318122;Hauptschule Reichenau an der Rax;2651;Reichenau an der Rax;Herzog Otto-Straße 7;02666/52880;hs.reichenau@noeschule.at;;APS $HS PTS;
318132;Neue Niederösterreichische Mittelschule Scheiblingkirchen - Thernberg;2831;Scheiblingkirchen;Schulgasse 100;02629/2308;hs.scheiblingkirchen@noeschule.at;hs.scheiblingkirchen.at;APS $HS NMS;
318141;Volksschule Kirchberg am Wechsel;2880;Kirchberg am Wechsel;Markt 300;02641/2640;vs.kirchberg-wechsel@noeschule.at;www.vskirchberg-wechsel.at;APS $VS;
318142;Neue Niederösterreichische Mittelschule Ternitz;2630;Ternitz;Friedrich Lichtenwörther-Gasse 1;02630/38718;hs.ternitz@noeschule.at;www.hsternitz.ac.at;APS $HS NMS;
318152;Hauptschule Kirchberg am Wechsel;2880;Kirchberg am Wechsel;Markt 106;02641/6100;hs.kirchberg-wechsel@noeschule.at;;APS $HS;
318161;Volksschule Mönichkirchen;2872;Mönichkirchen;Nr. 82;02649/219;vs.moenichkirchen@noeschule.at;;APS $VS;
318162;Hauptschule Schwarzau im Gebirge;2662;Schwarzau im Gebirge;Markt 29;02667/249;hs.schwarzau-gebirge@noeschule.at;;APS $HS;
318172;Hauptschule Zöbern;2871;Zöbern;Schulstraße 1;02642/8247;hs.zoebern@noeschule.at;www.hszoebern.ac.at;APS $HS;
318181;Volksschule Neunkirchen, Mühlfeld;2620;Neunkirchen;Mühlfeldstraße 4;02635/62415;vs.neunkirchen-muehlfeld@noeschule.at;www.vsmuehlfeld.ac.at/;APS $VS;
318191;Volksschule Neunkirchen, Steinfeld;2620;Neunkirchen;Dittrichstraße 12;02635/62768;vs.neunkirchen-steinfeld@noeschule.at;vssteinfeld.at;APS $VS;
318201;Volksschule Aspang-Markt, Oberaspang;2870;Aspang-Markt;Schulgasse 26;02642/52450;vs.oberaspang@noeschule.at;;APS $VS;
318211;Volksschule Otterthal;2880;Otterthal;Nr. 1;02641/8680;vs.otterthal@noeschule.at;;APS $VS;
318221;Volksschule Payerbach;2650;Payerbach;Schulgasse 11b;02666/52315;vs.payerbach@noeschule.at;;APS $VS;
318231;Volksschule Neunkirchen, Peisching;2620;Neunkirchen;Peisching, Am Mühlbach 13;02635/63182;vs.neunkirchen-peisching@noeschule.at;;APS $VS;
318251;Volksschule Pitten;2823;Pitten;Auf der Schmelz 62;02627/85192;vs.pitten@noeschule.at;www.vspitten.ac.at;APS $VS;
318261;Volksschule Ternitz, Pottschach;2630;Ternitz;Pottschach, Franz Samwald-Straße 27;02630/38334;vs.ternitz-pottschach@noeschule.at;www.musik-vs-pottschach.ternitz.at;APS $VS;
318291;Volksschule Puchberg am Schneeberg;2734;Puchberg am Schneeberg;Burggasse 11;02636/3330;vs.puchberg-schneeberg@noeschule.at;www.vspuchberg.ac.at;APS $VS;
318321;Volksschule St. Egyden am Steinfeld;2731;St. Egyden am Steinfeld;Kirchenplatz 7;02638/77807;vs.stegyden-steinfeld@noeschule.at;www.vsstegyden-steinfeld.ac.at;APS $VS;
318331;Volksschule Ternitz, St. Lorenzen;2620;Ternitz;St. Lorenzen, Liechtingergasse 2;02630/37593;vs.ternitz-stlorenzen@noeschule.at;;APS $VS;
318351;Volksschule Scheiblingkirchen - Thernberg, Scheiblingkirchen;2831;Scheiblingkirchen;Schulgasse 100;02629/3286;vs.scheiblingkirchen@noeschule.at;;APS $VS;
318361;Volksschule Schottwien;2641;Schottwien;Nr. 90;02663/8648;vs.schottwien@noeschule.at;;APS $VS;
318371;Volksschule Schwarzau im Gebirge;2662;Schwarzau im Gebirge;Markt 4;02667/214;vs.schwarzau-gebirge@noeschule.at;;APS $VS;
318381;Volksschule Schwarzau am Steinfeld;2625;Schwarzau am Steinfeld;Pittener Straße 94;02627/82542;vs.schwarzau-steinfelde@noeschule.at;;APS $VS;
318391;Volksschule Seebenstein;2824;Seebenstein;Schulallee 106;02627/47042;vs.seebenstein@noeschule.at;vsseebenstein.ac.at;APS $VS;
318418;Bundeshandelsakademie und Bundeshandelsschule Neunkirchen;2620;Neunkirchen;Schillergasse 10;02635/64110-0;hak.neunkirchen@noeschule.at;www.hakneunkirchen.schule.at;BBS K$S KMS KHS;
318421;Volksschule Ternitz, Stapfgasse;2630;Ternitz;Stapfgasse 1;02630/37502;vs.ternitz-stapfgasse@noeschule.at;www.vs-stapfgasse.ternitz.at;APS $VS;
318427;Werkmeisterschule für Berufstätige des WIFI der Kammer der gewerblichen Wirtschaft für NÖ, Neunkirchen;2620;Neunkirchen;Triesterstraße 63;;wms.neunkirchen@noeschule.at;;BBS T$S TWS;
318431;Volksschule Ternitz, Triester Straße;2630;Ternitz;Triester Straße 20;02630/38401;vs.ternitz-triesterstrasse@noeschule.at;www.vsternitz-triesterstrasse.ac.at;APS $VS;
318441;Volksschule Scheiblingkirchen - Thernberg, Thernberg;2832;Thernberg;Markt 5;02629/3588;vs.thernberg@noeschule.at;www.thernberg.at/schule.htm;APS $VS;
318449;Höhere Bundeslehranstalt für Tourismus;2680;Semmering;Hochstraße 32c;02664/8192-610;hlt.semmering@noeschule.at;www.tourismusschulen-semmering.at;BBS W$S WHS WMS TOUR;
318451;Volksschule Trattenbach;2881;Trattenbach;Nr. 76;02641/8730;vs.trattenbach@noeschule.at;;APS $VS;
318461;Volksschule Aspang-Markt, Unteraspang;2870;Aspang-Markt;Neugasse 2;02642/52395;vs.unteraspang@noeschule.at;http://vs-unter-aspang.schulweb.at/;APS $VS;
318471;Volksschule Wartmannstetten;2620;Wartmannstetten;Hafninger Straße 16;02635/63193;vs.wartmannstetten@noeschule.at;;APS $VS;
318481;Volksschule Wimpassing;2632;Wimpassing;Bundesstraße 36;02630/38719;vs.wimpassing@noeschule.at;;APS $VS;
318491;Volksschule Enzenreith, Wörth;2640;Enzenreith;Wörth 18;02662/42430;vs.enzenreith-woerth@noeschule.at;;APS $VS;
318501;Volksschule Würflach;2732;Würflach;Neunkirchner Straße 76;02620/2456;vs.wuerflach@noeschule.at;www.vs-wuerflach.at;APS $VS;
318511;Volksschule Zöbern;2871;Zöbern;Schulstraße 1;02642/8200;vs.zoebern@noeschule.at;;APS $VS;
318521;Volksschule Reichenau an der Rax;2651;Reichenauan der Rax;Schulgasse 23;02666/52235;vs.reichenau@noeschule.at;www.reichenau.at;APS $VS;
318531;Volksschule Ternitz, Kreuzäckergasse;2630;Ternitz;Kreuzäckergasse 9;02630/20468;vs.ternitz-kreuzaeckergasse@noeschule.at;www.vsternitz-kreuzaeckergasse.at;APS $VS;
318541;Privatschule Schule am Orthof des Montessori Vereins Rax;2673;Breitenstein;Speckbacherstrasse 1;0664/73652554;pvs.rax-payerbach@noeschule.at;www.schule-am-orthof.blogspot.com;APS $VS;
318720;Landwirtschaftliche Fachschule Warth;2831;Warth;Aichhof 1;02629/2222;;;BBS LFS;
319011;Volksschule Altlengbach;3033;Altlengbach;Schulgasse 3;02774/2372;vs.altlengbach@noeschule.at;www.vsaltlengbach.ac.at;APS $VS;
319012;Neue Niederösterreichische Mittelschule Böheimkirchen;3071;Böheimkirchen;Hochfeldstraße 5;02743/2421;hs.boeheimkirchen@noeschule.at;www.hsboeheimkirchen.ac.at;APS $HS PTS NMS;
319013;Allgemeine Sonderschule Herzogenburg;3130;Herzogenburg;Kirchenplatz 6;02782/83170;aso.herzogenburg@noeschule.at;;APS $AS;
319014;Polytechnische Schule Neulengbach;3040;Neulengbach;Marktfeldstraße 310;02772/53902;pts.neulengbach@noeschule.at;www.ptsneulengbach.ac.at;APS PTS;
319021;Volksschule Asperhofen;3041;Asperhofen;Kirchenplatz 5;02772/58264;vs.asperhofen@noeschule.at;;APS $VS;
319022;Neue Niederösterreichische Mittelschule Eichgraben;3032;Eichgraben;Hauptstraße 44;02773/46313;hs.eichgraben@noeschule.at;;APS $HS NMS;
319023;Allgemeine Sonderschule Ober-Grafendorf;3200;Ober-Grafendorf;Schulstraße 6;02747/2640;aso.ober-grafendorf@noeschule.at;;APS $AS SPZ;
319026;Bundesoberstufenrealgymnasium Neulengbach;3040;Neulengbach;Sindelarstraße 440;02772 54189;borg.neulengbach@noeschule.at;www.borg-neulengbach.at;AHS ORG;
319031;Volksschule Böheimkirchen;3071;Böheimkirchen;Am Berg 4;02743/2404-11;vs.boeheimkirchen@noeschule.at;www.vsboeheimkirchen.ac.at;APS $VS;
319032;Hauptschule Grünau - Rabenstein an der Pielach;3202;Hofstetten;Grünau, Kirchenplatz 5;02723/8233;hs.gruenau-rabenstein@noeschule.at;www.hs-gruenau-rabenstein.at;APS $HS;
319041;Volksschule Brand - Laaben;3053;Laaben;Nr. 66;02774/8350;vs.brand-laaben@noeschule.at;www.vsbrand-laaben.ac.at;APS $VS;
319042;Hauptschule Herzogenburg;3130;Herzogenburg;Schillerring 19;02782/83395;hs.herzogenburg@noeschule.at;www.hsherzogenburg.ac.at;APS $HS;
319043;Allgemeine Sonderschule Traismauer;3133;Traismauer;Stollhofener Hauptstraße 37;02783/6321;aso.traismauer@noeschule.at;;APS $AS SPZ;
319044;Polytechnische Schule Herzogenburg;3130;Herzogenburg;Schillerring 19;02782/84071;pts.herzogenburg@noeschule.at;www.ptsherzogenburg.ac.at;APS PTS;
319051;Volksschule Eichgraben;3032;Eichgraben;Hauptstraße 44;02773/42460;vs.eichgraben@noeschule.at;;APS $VS;
319052;Hauptschule Kirchberg an der Pielach;3204;Kirchberg an der Pielach;Schulgasse 6;02722/7229;hs.kirchberg-pielach@noeschule.at;www.hskirchberg-pielach.ac.at/;APS $HS;
319053;Allgemeine Sonderschule Wilhelmsburg;3150;Wilhelmsburg;Penknergasse 3;02746/2552-41;spz.wilhelmsburg@noeschule.at;www.spzwilhelmsburg.ac.at;APS $AS SPZ;
319061;Volksschule Kasten bei Böheimkirchen, Fahrafeld;3071;Fahrafeld bei Kasten;Nr. 32;02744/5618;vs.fahrafeld@noeschule.at;;APS $VS;
319062;Neue Niederösterreichische Mittelschule Neulengbach;3040;Neulengbach;Marktfeldstraße 310;02772/53300;hs.neulengbach@noeschule.at;hsneulengbach.ac.at;APS $HS NMS;
319071;Volksschule Frankenfels;3213;Frankenfels;Markt 13;02725/295;vs.frankenfels@noeschule.at;;APS $VS;
319072;Neue Niederösterreichische Mittelschule Ober-Grafendorf;3200;Ober-Grafendorf;Schulstraße 6;02747/2331;hs.ober-grafendorf@noeschule.at;;APS $HS NMS;
319073;Allgemeine Sonderschule Neulengbach, St. Christophen;3051;St. Christophen;Schulgasse 19;02772/53321;aso.stchristophen@noeschule.at;;APS $AS SPZ;
319074;Polytechnische Schule Kirchberg an der Pielach;3204;Kirchberg an der Pielach;Schulgasse 6;02722/7349;pts.kirchberg-pielach@noeschule.at;www.ptskirchberg-pielach.ac.at;APS PTS;
319081;Volksschule Traismauer, Gemeinlebarn;3133;Gemeinlebarn;Schulstraße 7;02276/2315;vs.gemeinlebarn@noeschule.at;;APS $VS;
319082;Hauptschule Wölbling;3124;Oberwölbling;Oberer Markt 15;02786/2245;hs.woelbling@noeschule.at;www.hswoelbling.ac.at;APS $HS;
319091;"Privatschule ""Neue Schule"" Eichgraben";3032;Eichgraben;Klostergasse 8;02773/46133;vs.eichgraben@noeschule.at;www.neueschule.at;APS $VS STS;
319101;Volksschule Inzersdorf - Getzersdorf, Getzersdorf;3131;Getzersdorf;Schulgasse 2;02782/82751;vs.getzersdorf@noeschule.at;;APS $VS;
319102;Hauptschule Prinzersdorf;3385;Prinzersdorf;Schulstraße 8;02749/2321;hs.prinzersdorf@noeschule.at;www.hs-prinzersdorf.at;APS $HS PTS;
319111;Volksschule Wilhelmsburg, Süd;3150;Wilhelmsburg;Kurzenkirchnerstraße 18;02746/4323;vs.wilhelmsburg-sued@noeschule.at;;APS $VS;
319112;Neue Niederösterreichische Mittelschule Pyhra;3143;Pyhra;Hauptstraße 15;02745/22171;hs.pyhra@noeschule.at;;APS $HS NMS;
319121;Volksschule Obritzberg - Rust;3123;Großrust;Nr. 33;02786 2292 510;vs.obritzberg-rust@noeschule.at;;APS $VS;
319131;Volksschule Hofstetten - Grünau;3202;Hofstetten-Grünau;Kirchenplatz 5;02723/8218;vs.hofstetten-gruenau@noeschule.at;www.vshofstetten-gruenau.ac.at;APS $VS;
319132;Neue Niederösterreichische Mittelschule Traismauer;3133;Traismauer;Bahnhofstraße 10;02783/6333;hs.traismauer@noeschule.at;;APS $HS NMS;
319142;Neue Niederösterreichische Mittelschule Wilhelmsburg;3150;Wilhelmsburg;Penknergasse 3;02746/2552-11;hs.wilhelmsburg@noeschule.at;www.hswilhelmsburg.ac.at;APS $HS PTS NMS;
319151;Volksschule Hafnerbach;3385;Hafnerbach;Museumstraße 43;02749/2212;vs.hafnerbach@noeschule.at;;APS $VS;
319152;Neue Niederösterreichische Mittelschule Altlengbach;3033;Altlengbach;Linden 3;02774/2400;hs.altlengbach-laabental@noeschule.at;www.hslaabental.ac.at;APS $HS NMS;
319161;Volksschule Haunoldstein;3384;Groß Sierning;Schulstraße 1;02749/2677;vs.haunoldstein@noeschule.at;;APS $VS;
319162;Neue Niederösterreichische Mittelschule Frankenfels;3213;Frankenfels;Markt 13;02725/296;hs.frankenfels@noeschule.at;www.nms-frankenfels.edupage.org;APS $HS NMS;
319171;Volksschule Herzogenburg;3130;Herzogenburg;Schulgasse 2;02782/83120;vs.herzogenburg@noeschule.at;www.vs-herzogenburg.at;APS $VS;
319172;Hauptschule Karlstetten;3121;Karlstetten;Schlossplatz 4;02741/8650;hs.karlstetten@noeschule.at;www.hskarlstetten.ac.at;APS $HS;
319181;Volksschule Inzersdorf - Getzersdorf, Inzersdorf;3131;Inzersdorf ob der Traisen;Dorfstraße 20;02782/82267;vs.inzersdorf@noeschule.at;;APS $VS;
319201;Volksschule Kapelln;3141;Kapelln;Kirchenplatz 2;02784/2252;vs.kapelln@noeschule.at;;APS $VS;
319211;Volksschule Karlstetten;3121;Karlstetten;Neidlinger Straße 6;02741/8329;vs.karlstetten@noeschule.at;www.vskarlstetten.ac.at;APS $VS;
319221;Volksschule Kasten bei Böheimkirchen;3072;Kasten bei Böheimkirchen;Nr. 17;02744/7533;vs.kasten@noeschule.at;;APS $VS;
319231;Volksschule Kirchberg an der Pielach;3204;Kirchberg an der Pielach;Schulgasse 6;02722/7228;vs.kirchberg-pielach@noeschule.at;www.kirchberg-pielach.at;APS $VS $AS;
319241;Volksschule Kirchstetten;3062;Kirchstetten;Totzenbach, Kirchenstr. 10;02743/8237;vs.kirchstetten@noeschule.at;;APS $VS;
319271;Volksschule Loich;3211;Loich;Loichgegend 9;02722/8216;vs.loich@noeschule.at;;APS $VS;
319281;Volksschule Maria Anzbach;3034;Maria Anzbach;Schwabstraße 42;02772/52192;vs.maria-anzbach@noeschule.at;www.vsmaria-anzbach.ac.at;APS $VS;
319291;Volksschule Markersdorf - Haindorf;3385;Markersdorf;Prinzersdorfer Straße 7;02749/2330;vs.markersdorf-haindorf@noeschule.at;;APS $VS $AS;
319311;Volksschule Michelbach;3074;Michelbach;Markt 10;02744/8231;vs.michelbach@noeschule.at;;APS $VS;
319331;Volksschule Neidling;3110;Neidling;Schulstraße 4;02741/8605;vs.neidling@noeschule.at;;APS $VS;
319341;Volksschule Neulengbach;3040;Neulengbach;Josef Weinheber-Straße 126;02772/52317;vs.neulengbach@noeschule.at;www.vsneulengbach.ac.at;APS $VS;
319351;Volksschule Neustift - Innermanzing;3052;Innermanzing;Neustift, Hauptstraße 11;02774/2272;vs.neustift-innermanzing@noeschule.at;vsni.at;APS $VS;
319361;Volksschule Nussdorf ob der Traisen;3134;Nußdorf ob der Traisen;Kirchenplatz 2;02783/8487;vs.nussdorf-traisen@noeschule.at;;APS $VS;
319371;Volksschule Ober-Grafendorf;3200;Ober-Grafendorf;Schulstraße 6;02747/2351;vs.ober-grafendorf@noeschule.at;;APS $VS;
319381;Volksschule Wölbling;3124;Oberwölbling;Oberer Markt 15;02786/2217;vs.woelbling@noeschule.at;;APS $VS $AS;
319411;Ganzheitliche Schule für individuelles Lernen;3200;Ober-Grafendorf;Hauptstraße 16;0699/11883578;leitung@privatschulefil.at;www.privatschulefil.at;APS $VS;
319421;Volksschule Pyhra;3143;Pyhra;Wiedener Straße 9;02745/2346;vs.pyhra@noeschule.at;www.vspyhra.ac.at;APS $VS;
319431;Volksschule Rabenstein an der Pielach;3203;Rabenstein an der Pielach;St. Pöltner Straße 14;02723/2323;vs.rabenstein@noeschule.at;;APS $VS;
319481;Volksschule St. Margarethen an der Sierning;3231;St. Margareten an der Sierning;Schulstraße 2;02747/3550;vs.stmargarethen-sierning@noeschule.at;;APS $VS;
319511;Volksschule Statzendorf;3125;Statzendorf;Hauptstraße 33;02786/2457;vs.statzendorf@noeschule.at;;APS $VS;
319541;Volksschule Stössing;3073;Stössing;Nr. 27;02744/5371;vs.stoessing@noeschule.at;;APS $VS;
319561;Volksschule Rabenstein an der Pielach, Tradigist;3203;Rabenstein an der Pielach;Tradigist  62;02722/7675;vs.tradigist@noeschule.at;;APS $VS;
319571;Volksschule Traismauer;3133;Traismauer;Alter Schulweg 2;02783/6328;vs.traismauer@noeschule.at;;APS $VS;
319591;Volksschule Weinburg;3200;Weinburg;Kirchenstraße 21;02747/2634;vs.weinburg@noeschule.at;;APS $VS;
319601;Volksschule Weißenkirchen an der Perschling;3142;Murstetten;Obere Hauptstr. 9;02784/30093;vs.weissenkirchen-perschling@noeschule.at;http://schule.weissenkirchen-perschling.at;APS $VS;
319611;Volksschule Wilhelmsburg, Nord;3150;Wilhelmsburg;Penknergasse 3;02746/2552-21;vs.wilhelmsburg-nord@noeschule.at;vs.wilhelmsburg-nord.polygonstudio.at;APS $VS;
319621;Volksschule Herzogenburg, St. Andrä an der Traisen;3130;Herzogenburg;St. Andrä, Berggasse 1;02782/85038;vs.standrae@noeschule.at;;APS $VS;
319631;Volksschule Gerersdorf;3385;Gerersdorf;Florianiplatz 1;02749/2602;vs.gerersdorf@noeschule.at;;APS $VS;
319710;Landwirtschaftliche Fachschule Pyhra;3143;Pyhra;Heuberg 16;02745/2393;;;BBS LFS;
320012;Hauptschule Gaming;3292;Gaming;Schleierfallstraße 5;07485/98210;hs.gaming@noeschule.at;www.hsgaming.ac.at;APS $HS;
320016;Bundesoberstufenrealgymnasium Scheibbs;3270;Scheibbs;Schacherlweg 1;07482/42570-0;borg.scheibbs@noeschule.at;www.borgscheibbs.ac.at;AHS ORG;
32001F;Fachhochschule Wr. Neustadt, Standort Wieselburg;3250;Wieselburg;Zeiselgraben 4;07416/53000-0;;www.wieselburg.fhwn.ac.at;FH;
320021;Volksschule Gaming;3292;Gaming;Schleierfallstraße 6;07485/97335;vs.gaming@noeschule.at;;APS $VS;
320022;Hauptschule Göstling an der Ybbs;3345;Göstling an der Ybbs;Nr. 118;07484/2295;hs.goestling@noeschule.at;www.hsgoestling.at;APS $HS;
320023;Allgemeine Sonderschule Purgstall an der Erlauf;3251;Purgstall an der Erlauf;Schulgasse 11;07489/888014;aso.purgstall@noeschule.at;;APS $AS;
320026;Bundesgymnasium und Bundesrealgymnasium Wieselburg;3250;Wieselburg/Erlauf;Erlaufpromenade 1;07416/52455-0;bg.wieselburg@noeschule.at;www.bgwieselburg.ac.at;AHS GYM;
320031;Volksschule Göstling an der Ybbs;3345;Göstling an der Ybbs;Nr. 12;07484/2227;vs.goestling@noeschule.at;www.vsgoestling.ac.at;APS $VS;
320032;Neue Niederösterreichische Mittelschule Gresten;3264;Gresten;Schulstraße 18;07487/4041;hs.gresten@noeschule.at;www.hsgresten.ac.at;APS $HS NMS;
320041;Volksschule Gresten;3264;Gresten;Schulstraße 16;07487/2279;vs.gresten@noeschule.at;;APS $VS $AS;
320042;Hauptschule Lunz am See;3293;Lunz am See;Schulstraße 5;07486/20010;hs.lunz-see@noeschule.at;www.hslunz.ac.at;APS $HS;
320052;Neue Niederösterreichische Mittelschule Oberndorf an der Melk;3281;Oberndorf an der Melk;Schulstraße 5;07483/7028;hs.oberndorf@noeschule.at;www.nmsoberndorfandermelk.at;APS $HS NMS;
320053;Allgemeine Sonderschule Scheibbs;3270;Scheibbs;Schulgasse 7;07482/43122;aso.scheibbs@noeschule.at;www.spzscheibbs.ac.at/;APS $AS SPZ;
320062;Neue Niederösterreichische Mittelschule Purgstall an der Erlauf;3251;Purgstall an der Erlauf;Schulgasse 13;07489/888012;hs.purgstall@noeschule.at;www.hspurgstall.ac.at;APS $HS NMS;
320063;Allgemeine Sonderschule Purgstall an der Erlauf, Rogatsboden;3251;Purgstall an der Erlauf;Rogatsboden 27;07482/42275-0;aso.rogatsboden@noeschule.at;www.schulerogatsboden.at;APS $AS;
320072;Neue Niederösterreichische Mittelschule Randegg;3263;Randegg;Taborweg 2;07487/6218;hs.randegg@noeschule.at;www.hsrandegg.ac.at;APS $HS NMS;
320081;Volksschule Lunz am See;3293;Lunz am See;Schulstraße 1;07486/20010-10;vs.lunz-see@noeschule.at;;APS $VS;
320082;Hauptschule Scheibbs;3270;Scheibbs;Feldgasse 3;07482/42266-0;hs.scheibbs@noeschule.at;www.hsscheibbs.ac.at;APS $HS;
320092;Hauptschule Steinakirchen am Forst;3261;Steinakirchen am Forst;Schulstraße 1;07488/71324;hs.steinakirchen@noeschule.at;http://hssteinakirchen.edupage.org;APS $HS;
320102;Hauptschule Wieselburg;3250;Wieselburg an der Erlauf;Karl-Hager-Platz 2;07416/52452;hs.wieselburg@noeschule.at;www.hswieselburg.ac.at;APS $HS;
320104;Polytechnische Schule Scheibbs;3270;Scheibbs;Gürtel 13;07482/43134;pts.scheibbs@noeschule.at;www.polyscheibbs.at;APS PTS;
320112;Private Neue Mittelschule Wolfpassing;3261;Steinakirchen;Wolfpassing 1;;pnms.wolfpassing@noeschule.at;;APS $HS NMS;
320121;Volksschule Oberndorf an der Melk;3281;Oberndorf an der Melk;Schulstraße 7;07483/7029;vs.oberndorf@noeschule.at;www.vsoberndorf.ac.at;APS $VS $AS;
320131;Volksschule Puchenstuben;3214;Puchenstuben;Nr. 20;02726/242;vs.puchenstuben@noeschule.at;www.vspuchenstuben.ac.at;APS $VS;
320141;Volksschule Purgstall an der Erlauf;3251;Purgstall an der Erlauf;Schulgasse 11;07489/888013;vs.purgstall@noeschule.at;;APS $VS;
320151;Volksschule Randegg;3263;Randegg;Taborweg 4;07487/6216;vs.randegg@noeschule.at;www.vsrandegg.ac.at;APS $VS;
320161;Volksschule Reinsberg;3264;Reinsberg;Adelheidweg Nr. 3;07487/2540;vs.reinsberg@noeschule.at;www.vsreinsberg.ac.at;APS $VS;
320181;Volksschule St. Anton an der Jeßnitz;3283;St. Anton an der Jeßnitz;Nr. 4;07482/48319;vs.stanton@noeschule.at;www.st-anton-jessnitz.gv.at;APS $VS;
320191;Volksschule St. Georgen an der Leys;3282;St. Georgen an der Leys;Schulweg 5;07482/46204;vs.stgeorgen-leys@noeschule.at;www.vsstgeorgen-leys.ac.at;APS $VS;
320201;Volksschule Scheibbs;3270;Scheibbs;Schulgasse 7;07482/42483;vs.scheibbs@noeschule.at;www.vsscheibbs.ac.at;APS $VS;
320211;Volksschule Steinakirchen am Forst;3261;Steinakirchen am Forst;Schulweg 2;07488/71407;vs.steinakirchen@noeschule.at;www.vssteinakirchen.ac.at;APS $VS;
320231;Volksschule Wang;3262;Wang;Unterer Markt 16;07488/71 509;vs.wang@noeschule.at;;APS $VS;
320241;Volksschule Wieselburg;3250;Wieselburg an der Erlauf;Karl-Hager-Platz 1;07416/52311;vs.wieselburg@noeschule.at;www.vswieselburg.ac.at;APS $VS;
320261;Private Volksschule Wolfpassing;3261;Steinakirchen;Wolfpassing 1;07488 71202;pvs.wolfpassing@noeschule.at;www.pvs-wolfpassing.at;APS $VS;
320720;"Höhere landwirtschaftliche Bundeslehranstalt ""Francisco Josephinum""";3250;Wieselburg/Erlauf;Schloß Weinzierl;07416/52437-0;direktion@hblawsb.bmlfuw.gv.at;www.josephinum.at;BBS LFS;
320760;Landwirtschaftliche Fachschule Gaming;3292;Gaming;Ötscherlandstraße 38;07485/97353;;;BBS LFS;
321011;Volksschule Absdorf;3462;Absdorf;Schulstraße 1;02278/2477;vs.absdorf@noeschule.at;www.vsabsdorf.ac.at;APS $VS;
321012;Neue Niederösterreichische Mittelschule Fels-Grafenwörth;3481;Fels am Wagram;Schulplatz 1;0664 1519818  02738/2284  oder  8887;hs.fels-wagram@noeschule.at;www.hsfels.ac.at;APS $HS NMS;
321014;Polytechnische Schule Tulln;3430;Tulln;Michael - Schwanzer - Weg 12;02272/62694;pts.tulln@noeschule.at;www.ptstulln.ac.at;APS PTS;
321016;Bundesgymnasium und Bundesrealgymnasium Tulln;3430;Tulln;Donaulände 72;02272/66227;bg.tulln@noeschule.at;www.bgtulln.ac.at;AHS GYM;
32101F;Fachhochschule Wr. Neustadt, Standort Tulln;3430;Tulln;Konrad Lorenz Straße 20 A;02272/82224-0;;;FH;
321022;Hauptschule Großweikersdorf;3701;Großweikersdorf;Präsident List-Platz 2;02955/70249;hs.grossweikersdorf@noeschule.at;www.hsgw.at;APS $HS;
321032;Neue Niederösterreichische Mittelschule Atzenbrugg;3452;Atzenbrugg;St. Pöltner Straße 8;02275/5252;hs.atzenbrugg@noeschule.at;www.hsatzenbrugg.ac.at;APS $HS NMS;
321033;Allgemeine Sonderschule Tulln;3430;Tulln;Wiener Straße 23;02272/62204;aso.tulln@noeschule.at;www.aso.tulln.ac.at;APS $AS SPZ;
321042;Hauptschule Kirchberg am Wagram;3470;Kirchberg am Wagram;Auf der Schanz 5;02279/23 62;hs.kirchberg-wagram@noeschule.at;www.hskirchberg-wagram.ac.at;APS $HS PTS;
321043;Allgemeine Sonderschule Sieghartskirchen, Ollern;3004;Ollern;Hauptplatz 8;02271/2280;aso.ollern@noeschule.at;www.asoollern.ac.at;APS $AS SPZ;
321052;Neue Niederösterreichische Mittelschule Sieghartskirchen;3443;Sieghartskirchen;Tullner Straße 1;02274/2292;hs.sieghartskirchen@noeschule.at;www.hssieghartskirchen.ac.at;APS $HS NMS;
321061;Volksschule Fels am Wagram;3481;Fels am Wagram;Schulplatz 1;02738/2340;vs.fels-wagram@noeschule.at;www.vsfels-wagram.ac.at;APS $VS;
321062;Hauptschule St. Andrä - Wördern;3423;St. Andrä - Wördern;Greifensteiner Straße 33;02242/3809010;hs.standrae-woerdern@noeschule.at;www.hsstaw.at;APS $HS;
321072;Neue Niederösterreichische Mittelschule Marc Aurel;3430;Tulln;Wiener Straße 23;02272/62633;hs.tulln-2@noeschule.at;www.hstulln-2.ac.at;APS $HS NMS;
321082;Hauptschule I Tulln;3430;Tulln;Konrad von Tulln-Gasse 2;02272/62462;hs.tulln-1@noeschule.at;www.mhs1-tulln.at;APS $HS $AS;
321091;Volksschule Grafenwörth;3484;Grafenwörth;Seebarner Straße 1;02738/2479;vs.grafenwoerth@noeschule.at;www.vsgrafenwoerth.ac.at;APS $VS;
321092;Hauptschule Zwentendorf an der Donau;3435;Zwentendorf an der Donau;Goetheplatz 1;02277/2230 -0, Direktion: 11, Lehrerz.: DW 12;hs.zwentendorf@noeschule.at;www.hszwentendorf.ac.at;APS $HS;
321102;Neue Niederösterreichische Mittelschule Tulln;3430;Tulln;Kirchengasse 32a;02272/64734-10;hs.tulln-sport@noeschule.at;www.isms-tulln.at;APS $HS NMS;
321121;Volksschule Großweikersdorf;3701;Großweikersdorf;Dr. Johann Baumgartner-Straße 1;02955/70266;vs.grossweikersdorf@noeschule.at;www.vsgrossweikersdorf.ac.at;APS $VS;
321131;Volksschule Atzenbrugg;3452;Atzenbrugg;St. Pöltner Straße 10;02275/5390;vs.atzenbrugg-heiligeneich@noeschule.at;www.vsatzenbrugg.ac.at;APS $VS;
321151;Volksschule Judenau - Baumgarten;3441;Baumgarten am Tullnerfeld;Hauptstraße 28;02274/7271;vs.judenau-baumgarten@noeschule.at;www.vsjudenau-baumgarten.ac.at;APS $VS;
321161;Volksschule Kirchberg am Wagram;3470;Kirchberg am Wagram;Auf der Schanz 5;02279/2305-1;vs.kirchberg-wagram@noeschule.at;www.vs-kirchbergwagram.at/;APS $VS;
321181;Volksschule Königsbrunn am Wagram;3465;Königsbrunn am Wagram;Am Hausberg 6;02278/3191-11;vs.koenigsbrunn-wagram@noeschule.at;www.vskoenigsbrunn-wagram.ac.at;APS $VS;
321191;Volksschule Königstetten;3433;Königstetten;Johann Gruber-Promenade 31-35;02273/2278;vs.koenigstetten@noeschule.at;www.volksschule.cc;APS $VS;
321201;Volksschule Tulln, Langenlebarn;3425;Langenlebarn;Wiener Strasse 3;02272/64106;vs.langenlebarn@noeschule.at;www.vslangenlebarn.ac.at;APS $VS;
321211;Volksschule Langenrohr;3442;Langenrohr;Schulstraße 5;02272/7370;vs.langenrohr@noeschule.at;www.vslangenrohr.ac.at;APS $VS;
321221;Volksschule Michelhausen;3451;Michelhausen;Schulgasse 2;02275/5352;vs.michelhausen@noeschule.at;www.vsmichelhausen.ac.at;APS $VS;
321271;Volksschule Sitzenberg - Reidling;3454;Reidling;Kirchengasse 8;02276/2243;vs.sitzenberg-reidling@noeschule.at;www.vssitzenberg-reidling.ac.at;APS $VS;
321281;Volksschule St. Andrä - Wördern;3423;St. Andrä - Wördern;Greifensteiner Straße 22;02242 / 32304;vs.standrae-woerdern@noeschule.at;www.vsstaw.at;APS $VS;
321291;Volksschule Sieghartskirchen;3443;Sieghartskirchen;Tullner Straße 22;02274/2291;vs.sieghartskirchen@noeschule.at;www.vssieghartskirchen.ac.at;APS $VS;
321301;Volksschule Tulbing;3434;Tulbing;Hauptstraße 3;02273/2221;vs.tulbing@noeschule.at;www.vstulbing.ac.at;APS $VS;
321311;Volksschule I Tulln;3430;Tulln;Kirchengasse 30;02272/62667;vs.tulln-1@noeschule.at;www.vstulln1.ac.at;APS $VS;
321321;Volksschule Wuermla;3042;Wuermla;Kirchenplatz 3;02275/8229;vs.wuermla@noeschule.at;www.vswuermla.ac.at;APS $VS;
321331;Volksschule Zeiselmauer - Wolfpassing;3424;Zeiselmauer;Kirchenplatz 4;02242/70474;vs.zeiselmauer-wolfpassing@noeschule.at;www.vszeiselmauer.ac.at;APS $VS;
321341;Volksschule Zwentendorf;3435;Zwentendorf;Goetheplatz 2;02277/2278-0, Dir -11, Lehrerz. -13;vs.zwentendorf@noeschule.at;www.vszwentendorf.ac.at;APS $VS;
321351;Volksschule II Tulln;3430;Tulln;Frauentorgasse 68;02272/62922;vs.tulln-2@noeschule.at;www.vstulln-2.ac.at;APS $VS;
321361;"Privatschule KreaMont ""Kreativer Lernen nach Maria Motessori""";3423;St. Andrä - Wördern;Greifensteiner Straße 31;02242/31060;pvs.standrae-woerdern@noeschule.at;www.kreamont.at;APS $VS STS;
321371;"Privatschule ""Ich bin Ich"" Heiligeneich";3452;Heiligeneich;Wiener Landstraße 5;0699/10183644;privatschule.heiligeneich@noeschule.at;;APS $VS;
321418;Handelsakademie und Handelsschule der Stadtgemeinde Tulln;3430;Tulln;Donaulände 64;02272/62572;haktulln@haktulln.ac.at;www.haktulln.ac.at;BBS K$S KMS KHS;
321427;Bundesfachschule für Flugtechnik Langenlebarn;3425;Langenlebarn;Fliegerhorst;050201 3229902;bfs.langenlebarn@noeschule.at;www.flugtechnik.at;BBS T$S TMS;
321439;Höhere Bundeslehranstalt für wirtschaftliche Berufe Tulln;3430;Tulln;Donaulände 72;02272/64767-10 oder 11;hlw.tulln@noeschule.at;www.hlwtulln.ac.at;BBS W$S WMS WHS;
321710;Landwirtschaftliche Fachschule Tulln;3430;Tulln;Frauentorgasse 72-74;02272/62515;;;BBS LFS;
321730;Höhere Bundeslehranstalt für Land- und Ernährungswirtschaft Sitzenberg;3454;Reidling;Schlossbergstraße 4;02276/2335-22;sitzenberg.d@hblasit.bmlfuw.gv.at;www.tullnerfeld.at/schulen/sitzenberg/;BBS LFS;
321910;Krankenpflegeschule Tulln;3430;Tulln;Alter Ziegelweg 10 (Zugang: Konrad Lorenz Str.);02272/601 40100;;www.tulln.lknoe.at/ausbildung/allgemeine-gesundheits-und-krankenpflegeschule.html;BBS GES;
322011;Volksschule Ludweis - Aigen;3814;Aigen bei Raabs;Nr. 37;02846/617;vs.ludweis-aigen@noeschule.at;aigen.schulweb.at;APS $VS;
322012;Hauptschule Dobersberg;3843;Dobersberg;Schulstraße 8;02843/2201;hs.dobersberg@noeschule.at;www.hsdobersberg.ac.at;APS $HS;
322013;Allgemeine Sonderschule Groß-Siegharts;3812;Groß-Siegharts;Schulgasse 1;02847/2437-14;aso.gross-siegharts@noeschule.at;www.asogrosssiegharts.ac.at;APS $AS;
322015;Bundesberufsschule für Uhrmacher Karlstein;3822;Karlstein;Raabser Straße 23;02844/202;322015@noeschule.at;;BPS BRS;
322016;Bundesgymnasium und Bundesrealgymnasium Waidhofen/Thaya;3830;Waidhofen/Thaya;Gymnasiumstraße 1;02842/52554-0;bg.waidhofen-thaya@noeschule.at;www.gymwt.at;AHS GYM;
322022;Neue Niederösterreichische Mittelschule Groß-Siegharts;3812;Groß-Siegharts;Hamerlingstraße 32;02847/2223;hs.gross-siegharts@noeschule.at;thsgrs.schulweb.at;APS $HS NMS;
322032;Hauptschule Kautzen;3851;Kautzen;Waidhofner Straße 11;02864-2277;hs.kautzen@noeschule.at;www.hskautzen.ac.at;APS $HS;
322033;Allgemeine Sonderschule Waidhofen an der Thaya;3830;Waidhofen an der Thaya;Gymnasiumstraße 6;02842/52930;aso.waidhofen-thaya@noeschule.at;www.asowaidhofen-thaya.ac.at;APS $AS SPZ;
322034;Polytechnische Schule Waidhofen an der Thaya;3830;Waidhofen an der Thaya;Gymnasiumstraße 4;02842-52447;pts.waidhofen-thaya@noeschule.at;www.ptswaidhofen-thaya.ac.at;APS PTS;
322041;Volksschule Dietmanns;3813;Dietmanns;Hauptstraße 92;02847/4666;vs.dietmanns@noeschule.at;www.vsdietmanns.ac.at;APS $VS;
322042;Neue Niederösterreichische Mittelschule Raabs an der Thaya;3820;Raabs an der Thaya;Puchheimstraße 25;02846/325;hs.raabs-thaya@noeschule.at;hsraabs-thaya.ac.at;APS $HS NMS;
322051;Volksschule Dobersberg;3843;Dobersberg;Schulstraße 8;02843/2448;vs.dobersberg@noeschule.at;www.vsdobersberg.ac.at;APS $VS;
322052;Neue Niederösterreichische Mittelschule Vitis;3902;Vitis;Zwettler Straße 5;02841/8250;hs.vitis@noeschule.at;www.hsvitis.ac.at;APS $HS NMS;
322062;Hauptschule I Waidhofen an der Thaya;3830;Waidhofen an der Thaya;Bahnhofstraße 19;02842/52539;322062@noeschule.at;www.hswaidhofen-thaya-1.ac.at/joomla-asn;APS $HS;
322081;Volksschule Gastern;3852;Gastern;Hauptstraße 4;02864/2323;vs.gastern@noeschule.at;www.vsgastern.ac.at;APS $VS;
322082;Hauptschule Waidhofen an der Thaya;3830;Waidhofen an der Thaya;Bahnhofstraße 19;02842/52900;hs.waidhofen-thaya-2@noeschule.at;www.hswaidhofen-thaya-2.ac.at;APS $HS;
322101;Volksschule Groß-Siegharts;3812;Groß-Siegharts;Schulgasse 1;02847/2437-11;vs.gross-siegharts@noeschule.at;www.vsgrosssiegharts.ac.at;APS $VS;
322141;Volksschule Karlstein an der Thaya;3822;Karlstein an der Thaya;Schillerstraße 1;02844/241;vs.karlstein@noeschule.at;www.vskarlstein.ac.at;APS $VS;
322151;Volksschule Kautzen;3851;Kautzen;Waidhofner Straße 11;02864/2351;vs.kautzen@noeschule.at;www.vskautzen.ac.at;APS $VS;
322181;Volksschule Pfaffenschlag;3834;Pfaffenschlag;Nr. 32;02848/6224;vs.pfaffenschlag@noeschule.at;www.vspfaffenschlag.ac.at;APS $VS;
322201;Volksschule Raabs an der Thaya;3820;Raabs an der Thaya;Puchheimstraße 27;02846/262;vs.raabs-thaya@noeschule.at;www.vsraabs-thaya.ac.at;APS $VS;
322211;Volksschule Thaya;3842;Thaya;Hauptstraße 8;02842/52349;vs.thaya@noeschule.at;www.vsthaya.ac.at;APS $VS;
322221;Volksschule Vitis;3902;Vitis;Zwettler Straße 5;02841/8303;vs.vitis@noeschule.at;www.vsvitis.ac.at;APS $VS;
322231;Volksschule Waidhofen an der Thaya;3830;Waidhofen an der Thaya;Gymnasiumstraße 6;02842/52451;vs.waidhofen-thaya@noeschule.at;www.vswaidhofen-thaya.ac.at;APS $VS;
322241;Volksschule Waldkirchen an der Thaya;3844;Waldkirchen an der Thaya;Nr. 50;02843/2318;vs.waldkirchen-thaya@noeschule.at;www.vswaldkirchen.ac.at;APS $VS;
322261;Volksschule Windigsteig;3841;Windigsteig;Schulstraße 3;02849/2941;vs.windigsteig@noeschule.at;www.vswindigsteig.ac.at;APS $VS;
322271;"Dorfschule Montessorihaus d. Vereins Spielräume - Verein zur Förderung des ganzheitlichen Bewusstseins""";3830;Waidhofen an der Thaya;Klein Eberharts 31;02842/5396;;;APS $VS;
322417;Höhere technische Bundeslehranstalt Karlstein;3822;Karlstein;Raabser Straße 23;02844/202;htl.karlstein@noeschule.at;www.htl-karlstein.ac.at;BBS T$S THS;
322428;Bundeshandelsakademie und Bundeshandelsschule Waidhofen/Thaya;3830;Waidhofen/Thaya;Vitiser Straße 17;02842/52303;hak.waidhofen-thaya@noeschule.at;www.hakwaidhofen-thaya.ac.at;BBS K$S KMS KHS;
323012;Neue Niederösterreichische Mittelschule Ebenfurth;2490;Ebenfurth;Hauptstraße 1;02624/52257;hs.ebenfurth@noeschule.at;www.hsebenfurth.ac.at/;APS $HS NMS;
323013;Allgemeine Sonderschule Eggendorf;2492;Eggendorf;Hauptstraße 72;02622/73238;aso.eggendorf@noeschule.at;www.asoeggendorf.ac.at;APS $AS;
323016;Gymnasium und Oberstufenrealgymnasium Klemens Maria Hofbauer, Katzelsdorf;2801;Katzelsdorf;Eichbüchlerstraße 97;02622/78 402-0;gym.katzelsdorf@noeschule.at;;AHS GYM ORG;
323021;Volksschule Bad Fischau - Brunn;2721;Bad Fischau;Schulgasse 2;02639/2400;vs.badfischau-brunn@noeschule.at;www.vsbadfischau.ac.at;APS $VS;
323022;Neue Niederösterreichische Mittelschule Bad Erlach;2822;Bad Erlach;Altagasse 6;02627/48427;hs.erlach@noeschule.at;www.hsbaderlach.ac.at;APS $HS NMS;
323023;Allgemeine Sonderschule Pernitz;2763;Pernitz;Muggendorfer Straße 15;02632/72498;aso.pernitz@noeschule.at;www.asopernitz.ac.at;APS $AS;
323025;Landesberufsschule Waldegg;2754;Waldegg/Piesting;Hauptstraße 41;02633/42278;office@lbswaldegg.ac.at;www.lbswaldegg;BPS BRS;
323031;Volksschule Bad Schönau;2853;Bad Schönau;Hauptstraße 28;02646/8445;vs.badschoenau@noeschule.at;www.vsbadschoenau.ac.at;APS $VS;
323032;Neue Niederösterreichische Mittelschule Felixdorf;2603;Felixdorf;Schulstraße 3;02628/62300;hs.felixdorf@noeschule.at;www.hsfelixdorf.ac.at;APS $HS $AS NMS;
323033;Allgemeine Sonderschule Sollenau;2601;Sollenau;Schulgasse 2;02628/47759;aso.sollenau@noeschule.at;;APS $AS SPZ;
323035;Landesberufsschule Theresienfeld;2604;Theresienfeld;Grazer Straße 24;02622/71283;direktion@lbstheresienfeld.ac.at;www.lbstheresienfeld.ac.at;BPS BRS;
323041;Volksschule Bromberg;2833;Bromberg;Hauptstraße 14;02629/8261;vs.bromberg@noeschule.at;www.vsbromberg.ac.at/;APS $VS;
323042;Neue Niederösterreichische Mittelschule Kirchschlag in der Buckligen Welt;2860;Kirchschlag in der Buckligen Welt;Am Reissenbach 8;02646/2229;hs.kirchschlag-bucklige-welt@noeschule.at;www.hskirchschlag.ac.at;APS $HS PTS NMS;
323051;Volksschule Ebenfurth;2490;Ebenfurth;Hauptstraße 1;02624/52696;vs.ebenfurth@noeschule.at;http://vs-ebenfurth.schulweb.at;APS $VS;
323052;Neue Niederösterreichische Mittelschule Krumbach;2851;Krumbach;Schulgasse 3;02647/42350;hs.krumbach@noeschule.at;www.hskrumbach.ac.at;APS $HS $AS PTS NMS;
323053;Allgemeine Sonderschule Wöllersdorf - Steinabrückl;2751;Steinabrückl;Hauptstraße 5;02622/43159;aso.woellersdorf-steinabrueckl@noeschule.at;aso-steinabrueckl.schulweb.at/;APS $AS;
323061;Volksschule Eggendorf;2492;Eggendorf;Hauptstraße 72;02622/73237;vs.eggendorf@noeschule.at;www.vseggendorf.ac.at;APS $VS;
323062;Neue Niederösterreichische Mittelschule Lanzenkirchen;2821;Lanzenkirchen;Schulgasse 100;02627/45409;hs.lanzenkirchen@noeschule.at;www.hslanzenkirchen.ac.at;APS $HS NMS;
323063;Allgemeine Sonderschule Weikersdorf am Steinfelde;2722;Weikersdorf am Steinfelde;Minifeldweg 212;02638/22059;aso.weikersdorf-steinfelde@noeschule.at;www.asoweikersdorf.ac.at;APS $AS;
323071;Volksschule Erlach;2822;Bad Erlach;Hauptstraße 13;02627/48320;vs.erlach@noeschule.at;http://www.vserlach.ac.at/;APS $VS;
323072;Hauptschule Lichtenwörth;2493;Lichtenwörth;Kirchenplatz 4;02622/75576;hs.lichtenwoerth@noeschule.at;hslichtenwoerth.ac.at/joomla-asn015;APS $HS;
323081;Volksschule Felixdorf;2603;Felixdorf;Siedlergasse 6;02628/62666;vs.felixdorf@noeschule.at;vs-felixdorf.schulweb.at;APS $VS;
323082;Hauptschule Markt Piesting;2753;Markt Piesting;Herbert Seiser-Platz 1;02633/42254;hs.markt-piesting@noeschule.at;www.hsmarktpiesting.ac.at;APS $HS;
323092;Hauptschule Pernitz;2763;Pernitz;Peter Rosegger-Straße 4;02632/72415;hs.pernitz@noeschule.at;hspernitz.schulweb.at;APS $HS PTS;
323102;Hauptschule Wiesmath;2811;Wiesmath;Schulstraße 7;02645/2250;hs.wiesmath@noeschule.at;www.hswiesmath.ac.at;APS $HS PTS;
323111;Volksschule Gutenstein;2770;Gutenstein;Markt 94;02634/7265;vs.gutenstein@noeschule.at;www.vsgutenstein.ac.at;APS $VS;
323112;Neue Niederösterreichische Mittelschule Winzendorf - Muthmannsdorf;2722;Winzendorf;Hauptstraße 258;02638/22349-10;hs.winzendorf-muthmannsdorf@noeschule.at;www.nms-wimu.at;APS $HS NMS;
323122;Hauptschule Hochneukirchen - Gschaidt;2852;Hochneukirchen;Schulgasse 3;02648/245;hs.hochneukirchen-gschaidt@noeschule.at;www.hshochneukirchen.ac.at;APS $HS;
323131;Volksschule Hochwolkersdorf;2802;Hochwolkersdorf;Schulgasse 1;02645/8500;vs.hochwolkersdorf@noeschule.at;www.vshochwolkersdorf.ac.at;APS $VS;
323132;Private Hauptschule Lanzenkirchen, Frohsdorf des Institutes Sta.Christiana;2821;Lanzenkirchen;Frohsdorf 28;02627/45235-13;phs.lanzenkirchen-frohsdorf@noeschule.at;www.stachristiana.at;APS $HS NMS;
323141;Volksschule Hollenthon;2812;Hollenthon;Nr. 70;02645/7222;vs.hollenthon@noeschule.at;www.vshollenthon.ac.at;APS $VS;
323142;Hauptschule Lichtenegg;2813;Lichtenegg;Schulstraße 10;02643/2230;hs.lichtenegg@noeschule.at;www.hslichtenegg.ac.at;APS $HS;
323151;Volksschule Katzelsdorf;2801;Katzelsdorf;Mühlgasse 4;02622/78264;vs.katzelsdorf@noeschule.at;www.vskatzelsdorf.ac.at;APS $VS;
323161;Volksschule Kirchschlag in der Buckligen Welt;2860;Kirchschlag in der Buckligen Welt;Stanger Straße 19;02646/2500;vs.kirchschlag-bucklige-welt@noeschule.at;www.vskirchschlag.ac.at;APS $VS $AS;
323171;Volksschule Krumbach;2851;Krumbach;Schulgasse 3;02647/42345;vs.krumbach@noeschule.at;www.vskrumbach.ac.at;APS $VS;
323181;Volksschule Lanzenkirchen;2821;Lanzenkirchen;Nr. 100;02627/45780;vs.lanzenkirchen@noeschule.at;www.vslanzenkirchen.ac.at;APS $VS;
323201;Volksschule Lichtenegg;2813;Lichtenegg;Schulstraße 10;02643/2382;vs.lichtenegg@noeschule.at;www.vslichtenegg.ac.at;APS $VS;
323211;Volksschule Lichtenwörth;2493;Lichtenwörth;Kirchenplatz 4;02622/75576;vs.lichtenwoerth@noeschule.at;www.vslichtenwoerth.ac.at;APS $VS;
323231;Volksschule Hochneukirchen - Gschaidt;2852;Hochneukirchen;Schulgasse 1;02648/245-20;vs.hochneukirchen-gschaidt@noeschule.at;www.vshochneukirchen.ac.at;APS $VS;
323241;Volksschule Markt Piesting;2753;Markt Piesting;Bahngasse 1;02633/42464;vs.markt-piesting@noeschule.at;vs-marktpiesting.schulweb.at;APS $VS;
323251;Volksschule Matzendorf - Hölles;2751;Matzendorf - Hölles;Kirchengasse 4;02628/62602;vs.matzendorf-hoelles@noeschule.at;http://www.vsmatzendorf.ac.at/;APS $VS;
323281;Volksschule Pernitz;2763;Pernitz;Muggendorfer Straße 15;02632/74177;vs.pernitz@noeschule.at;vs-pernitz.schulweb.at;APS $VS;
323301;Volksschule Rohr im Gebirge;2663;Rohr im Gebirge;Nr. 10;02667/8249;vs.rohr-gebirge@noeschule.at;www.vsrohrimgebirge.ac.at;APS $VS;
323321;Volksschule Schwarzenbach;2803;Schwarzenbach;Markt 45;02645/520114;vs.schwarzenbach@noeschule.at;http://www.vsschwarzenbach.ac.at/;APS $VS;
323341;Volksschule Sollenau;2601;Sollenau;Schulgasse 2;02628/47633;vs.sollenau@noeschule.at;http://www.vs-sollenau.at/;APS $VS;
323361;Volksschule Wöllersdorf - Steinabrückl, Steinabrückl;2751;Steinabrückl;Hauptstraße 5;02622/43068;vs.steinabrueckl@noeschule.at;www.vssteinabrueckl.ac.at;APS $VS;
323371;Volksschule Hohe Wand;2724;Hohe Wand - Stollhof;Hauptstraße 129;02638/88213;vs.hohe-wand@noeschule.at;www.vshohewand.ac.at;APS $VS;
323381;Volksschule Theresienfeld;2604;Theresienfeld;Roseggerstraße 6;02622/71323;vs.theresienfeld@noeschule.at;www.vs-theresienfeld.schulweb.at;APS $VS;
323411;Volksschule Waldegg;2754;Waldegg an der Piesting;Nr. 21;02633/4228531;vs.waldegg@noeschule.at;www.vswaldegg.ac.at;APS $VS;
323419;Höhere Lehranstalt für wirtschaftliche Berufe des Schulvereins Institut Sta. Christiana;2821;Lanzenkirchen;Frohsdorfer Hauptstraße 28;02627/45235-16;fs.lanzenkirchen@noeschule.at;www.hlwfrohsdorf.ac.at;BBS W$S WMS;
323421;Volksschule Walpersbach;2822;Walpersbach;Nr. 64;02627/48354;vs.walpersbach@noeschule.at;www.vs-walpersbach.schulweb.at/;APS $VS;
323431;Volksschule Weikersdorf am Steinfelde;2722;Weikersdorf am Steinfelde;Blätterstraße 62;02638/22808;vs.weikersdorf-steinfelde@noeschule.at;http://www.vs-weikersdorf.schulweb.at/;APS $VS;
323441;Volksschule Wiesmath;2811;Wiesmath;Schulstraße 22;02645/2345;vs.wiesmath@noeschule.at;www.vswiesmath.ac.at;APS $VS $AS;
323451;Volksschule Winzendorf - Muthmannsdorf;2722;Winzendorf;Frauenbachgasse 366;02638/22233;vs.winzendorf-muthmannsdorf@noeschule.at;www.vswinzendorf.ac.at;APS $VS;
323461;Volksschule Wöllersdorf - Steinabrückl, Wöllersdorf;2752;Wöllersdorf;Schulgasse 6;02633/43955;vs.woellersdorf@noeschule.at;www.vs.woellersdorf.schulweb.at;APS $VS;
323481;Volksschule Zillingdorf;2492;Zillingdorf;Rathausstraße 7;02622/73710;vs.zillingdorf@noeschule.at;www.vszillingdorf.ac.at;APS $VS;
323491;Private Volksschule Lanzenkirchen, Frohsdorf des Institutes Sta. Christiana;2821;Lanzenkirchen;Frohsdorf 28;02627/45235-12;pvs.lanzenkirchen-frohsdorf@noeschule.at;www.stachristiana.at;APS $VS;
323501;DaVinci Schule am Gut;2721;Bad Fischau-Brunn;Wr. Neustädter Straße 12;;;;APS $VS;
324011;Volksschule Ebergassing;2435;Ebergassing;Himberger Straße 3;02234/73421;vs.ebergassing@noeschule.at;ebergassing.deltatown.to;APS $VS;
324012;Neue Niederösterreichische Mittelschule Ebergassing;2435;Ebergassing;Himberger Straße 1;02234/73422;hs.ebergassing@noeschule.at;www.hsebergassing.ac.at;APS $HS NMS;
324013;Allgemeine Sonderschule Purkersdorf;3002;Purkersdorf;Schwarzhubergasse 5;02231/63601-581;spz.purkersdorf@noeschule.at;;APS $AS SPZ;
324016;Bundesgymnasium und Bundesrealgymnasium Klosterneuburg;3400;Klosterneuburg;Buchberggasse 31;02243/32155-0;bg.klosterneuburg@noeschule.at;www.bgklosterneuburg.ac.at;AHS GYM;
324021;Volksschule Fischamend;2401;Fischamend;Springholzgasse 4;02232/76376;vs.fischamend@noeschule.at;www.vs-fischamend.at;APS $VS;
324022;Hauptschule Fischamend;2401;Fischamend;Enzersdorfer Straße 18;02232/76269;hs.fischamend@noeschule.at;;APS $HS;
324023;Allgemeine Sonderschule Schwechat;2320;Schwechat;Schrödlgasse 1;01/7073083;aso.schwechat@noeschule.at;in Arbeit;APS $AS SPZ;
324026;Gymnasium u. Realgymnasium des Institutes Sacre Coeur, Pressbaum;3021;Pressbaum;Klostergasse 12;02233/52427-210;gym.pressbaum@noeschule.at;www.sacre-coeur.org;AHS GYM;
324031;Volksschule Gablitz;3003;Gablitz;Ferdinand Ebner-Gasse 6;02231/63882;vs.gablitz@noeschule.at;;APS $VS;
324032;Neue Niederösterreichische Mittelschule Gerasdorf bei Wien;2201;Gerasdorf bei Wien;Bahnstraße 26;02246/2270;324032@noeschule.at;www.hsgerasdorf.ac.at;APS $HS NMS;
324036;Bundesgymnasium und Bundesrealgymnasium Schwechat;2320;Schwechat;Ehrenbrunngasse 6;01/7078494-0;bg.schwechat@noeschule.at;www.bgschwechat.ac.at;AHS GYM;
324041;Volksschule Gerasdorf bei Wien;2201;Gerasdorf bei Wien;Schulgasse 10;02246/3960;324041@noeschule.at;www.volksschule-gerasdorf.at;APS $VS;
324042;Neue Niederösterreichische Mittelschule Gramatneusiedl;2440;Gramatneusiedl;Wiener Straße 2;02234/73411;hs.gramatneusiedl@noeschule.at;www.hsgramatneusiedl.ac.at;APS $HS NMS;
324043;Allgemeine Sonderschule Klosterneuburg;3400;Klosterneuburg;Albrechtsstraße 52a;02243/444324;324043@noeschule.at;asoklosterneuburg.schulweb.at;APS $AS SPZ;
324046;Bundesgymnasium und Bundesrealgymnasium Purkersdorf;3002;Purkersdorf;Herrengasse 4;02231/61304-0;gym.purkersdorf@noeschule.at;www.gympurkersdorf.ac.at;AHS GYM;
324051;Volksschule Gramatneusiedl;2440;Gramatneusiedl;Wiener Straße 2a;02234/73303;vs.gramatneusiedl@noeschule.at;vsgramatneusiedl.ac.at;APS $VS;
324052;Neue Niederösterreichische Mittelschule Himberg;2325;Himberg;Kirchenplatz 2;02235/86306;hs.himberg@noeschule.at;www.hauptschule-himberg.at;APS $HS NMS;
324061;Volksschule Himberg;2325;Himberg;Kirchenplatz 1;02235/87906, DW 12  Lehrerzimmer, DW 21 Direktion;vs.himberg@noeschule.at;www.vshimberg.ac.at;APS $VS;
324062;Neue Niederösterreichische Mittelschule Klosterneuburg, Hermannstraße;3400;Klosterneuburg;Hermannstraße 11;02243/444323;324062@noeschule.at;www.hsklosterneuburg-hermann.ac.at;APS $HS NMS;
324063;Allgemeine Sonderschule Fischamend;2401;Fischamend;Springholzgasse 4;02232/78717;aso.fischamend@noeschule.at;www.spz-fischamend.at;APS $AS SPZ;
324071;Volksschule Gerasdorf bei Wien, Kapellerfeld;2201;Gerasdorf bei Wien;Kapellerfeld, Schillergasse 25;02246/2940;vs.kapellerfeld@noeschule.at;www.vskapellerfeld.ac.at;APS $VS $AS;
324072;Neue Niederösterreichische Mittelschule Klosterneuburg, Langstögergasse;3400;Klosterneuburg;Langstögergasse 15;02243/444322;hs.klosterneuburg-langstoegergasse@noeschule.at;www.hsklosterneuburg-langstoeger.ac.at;APS $HS PTS NMS;
324074;Polytechnische Schule Himberg;2325;Himberg;Erberpromenade 29;02235-87914;pts.himberg@noeschule.at;www.poly-himberg.at;APS PTS;
324081;Volksschule Klosterneuburg, Kierling;3400;Klosterneuburg - Kierling;Hauptstraße 150 - 152;02243/444320;324081@noeschule.at;www.vsklosterneuburg-kierling.ac.at;APS $VS;
324082;Neue Niederösterreichische Mittelschule Lanzendorf;2326;Lanzendorf;Obere Hauptstraße 48;02235/42228;hs.lanzendorf@noeschule.at;www.imslanzendorf.at;APS $HS NMS;
324091;Volksschule Kleinneusiedl;2431;Kleinneusiedl;Fischamender Straße 10;02230/8455;vs.kleinneusiedl@noeschule.at;;APS $VS;
324092;Neue Niederösterreichische Mittelschule Pressbaum;3021;Pressbaum;Fünkhgasse 45a;02233/52866;direktion@nmspressbaum.at;www.nmspressbaum.at;APS $HS NMS;
324101;Volksschule Klosterneuburg, Albrechtstraße;3400;Klosterneuburg;Albrechtstraße 59;02243/444321;324101@noeschule.at;www.vsklosterneuburg-albrecht.ac.at;APS $VS;
324102;Neue Niederösterreichische Mittelschule Purkersdorf;3002;Purkersdorf;Alois Mayer-Gasse 4;02231/63601-551;hs.purkersdorf@noeschule.at;www.schoeffelschule.at;APS $HS PTS NMS;
324111;Volksschule Klosterneuburg, Anton-Bruckner-Gasse;3400;Klosterneuburg;Anton Bruckner-Gasse 6;02243/444-317;vs.klosterneuburg-brucknergasse@noeschule.at;www.brucknerschule.at;APS $VS;
324112;Neue Niederösterreichische Mittelschule Schwadorf;2432;Schwadorf bei Wien;Obere Umfahrungsstraße 16;02230/228811;hs.schwadorf@noeschule.at;www.ehsschwadorf.at;APS $HS NMS;
324121;Volksschule Klosterneuburg, Hermannstraße;3400;Klosterneuburg;Hermannstraße 11;02243/444318;324121@noeschule.at;www.vsklosterneuburg-hermann.ac.at;APS $VS;
324122;Neue Niederösterreichische Mittelschule Schwechat, Rannersdorf;2320;Schwechat;Europaplatz 1;DION:01/7077353-11 LEHRER:-12;hs.schwechat-rannersdorf@noeschule.at;www.hsschwechat-rannersdorf.ac.at;APS $HS NMS;
324131;Volksschule Klosterneuburg, Kritzendorf;3420;Klosterneuburg - Kritzendorf;Hauptstraße 63;02243/444319;324131@noeschule.at;www.vskritzendorf.ac.at;APS $VS;
324132;Hauptschule Schwechat, Schmidgasse;2320;Schwechat;Schmidgasse 8;01/7077193;324132@noeschule.at;www.shs-schwechat.at;APS $HS;
324141;Volksschule Lanzendorf;2326;Lanzendorf;Schulgasse 2;02235/47737;vs.lanzendorf@noeschule.at;http://vs-lanzendorf.schulweb.at;APS $VS;
324142;Private Neue Niederösterreichische Mittelschule des Institutes Sacré Coeur der Erzdiözese Wien in Pressbaum;3021;Pressbaum;Klostergasse 12;02233/52427-675;phs.pressbaum@noeschule.at;;APS $HS NMS;
324151;Volksschule Leopoldsdorf;2333;Leopoldsdorf bei Wien;Hauptstraße 30;02235/47757;vs.leopoldsdorf-wien@noeschule.at;www.vsleopoldsdorf-wien.ac.at;APS $VS;
324161;Volksschule Schwechat, Mannswörth;2323;Schwechat - Mannswörth;Mannswörther Straße 93;01/7078470;vs.schwechat-mannswoerth@noeschule.at;www.vs-mannswoerth.at;APS $VS;
324171;Volksschule Mauerbach;3001;Mauerbach;Hauptstraße 250;01/9792167;vs.mauerbach@noeschule.at;www.vsmauerbach.ac.at;APS $VS;
324181;Volksschule Moosbrunn;2440;Moosbrunn;Wiener Straße 7;02234/72682;vs.moosbrunn@noeschule.at;;APS $VS;
324191;Volksschule Pressbaum;3021;Pressbaum;Hauptstraße 77;02233/52461;vs.pressbaum@noeschule.at;www.vspressbaum.at;APS $VS;
324201;Volksschule Purkersdorf;3002;Purkersdorf;Schwarzhubergasse 7;02231/63366;vs.purkersdorf@noeschule.at;www.vspurkersdorf.ac.at;APS $VS;
324211;Volksschule Schwechat, Rannersdorf;2320;Schwechat - Rannersdorf;Stankagasse 25;01/7078452;vs.schwechat-rannersdorf@noeschule.at;;APS $VS;
324231;Volksschule Schwadorf;2432;Schwadorf bei Wien;Fischamender Straße 44;02230/2265;vs.schwadorf@noeschule.at;http://vs-schwadorf-schulweb.at;APS $VS;
324241;Volksschule I Schwechat;2320;Schwechat;Ehrenbrunngasse 8;01/7071967;vs.schwechat-1@noeschule.at;www.vs1-schwechat.com;APS $VS;
324251;Volksschule II Schwechat;2320;Schwechat;Ehrenbrunngasse 8;01/7071963;324251@noeschule.at;www.vs-schwechat.at;APS $VS;
324271;Volksschule Klosterneuburg, Weidling;3400;Klosterneuburg - Weidling;Löblichgasse 1;02243/444-316;324271@noeschule.at;www.vsweidling.ac.at;APS $VS;
324291;Volksschule Zwölfaxing;2320;Zwölfaxing;Raiffeisenstraße 27-29;01/7076123;vs.zwoelfaxing@noeschule.at;;APS $VS;
324301;Private Volksschule Kritzendorf des Schulverbundes SSND;3420;Klosterneuburg - Kritzendorf;Hauptstraße 22;02243/24878;324301@noeschule.at;www.pvskritzendorf.ac.at;APS $VS;
324311;Freiraum-Schule, Kritzendorf;3420;Klosterneuburg - Kritzendorf;Herzogenburgergasse 13;02243/22960;pvs.kritzendorf-freiraum-schule@noeschule.at;www.freiraumschule.at;APS $VS STS;
324321;Private Volksschule Pressbaum des Institutes Sacre Coeur d. Erzdiözese Wien;3021;Pressbaum;Klostergasse 12;02233/52427-482;pvs.pressbaum@noeschule.at;www.sacre-coeur.org;APS $VS;
324341;Volksschule Gerasdorf bei Wien, Seyring;2201;Gerasdorf bei Wien;Seyring, Schloss Straße 13;02246/27656;vs.seyring@noeschule.at;www.vs-seyring.at;APS $VS;
324351;Privatschule für ganzheitliches Lernen nach Maria Montessorí;3400;Klosterneuburg;Aufeldgasse 27A;02243/21947;ps.klosterneuburg-galemo@noeschule.at;www.galemo.at;APS $VS $HS STS;
324371;Volksschule Tullnerbach;3013;Tullnerbach;Norbertinumstraße 9;02233/53732;vs.tullnerbach@noeschule.at;vstullnerbach.at;APS $VS;
324417;Private Höhere Lehranstalt für BT für Informationstechnologie und Kolleg für BT für Informationstechnologie der Stadtgemeinde Schwechat;2320;Schwechat;Am Concorde Park 2,Gebäude F;;hlt.schwechat@noeschule.at;;BBS T$S TWS THS KOLL;
324419;Fachschule für wirtschaftliche Berufe Pressbaum;3021;Pressbaum;Fünkhgasse 45a;02233/52230;hlw.pressbaum@noeschule.at;www.hlwpressbaum.at;BBS W$S WHS WMS;
324710;Höhere Bundeslehranstalt und Bundesamt für Wein- und Obstbau, Klosterneuburg;3400;Klosterneuburg;Wienerstraße 74;02243/37910-0;direktion@hblawo.bmlfuw.gv.at;www.hblawo.bmlf.gv.at;BBS LFS;
324720;Landwirtschaftliche Fachschule Tullnerbach;3013;Tullnerbach-Lawies;Norbertinumstraße 9;02233/52173;;;BBS LFS;
324810;Bildungsanstalt für Kindergartenpädagogik Sacre Coeur Pressbaum;3021;Pressbaum;Klostergasse 12;02233/52427-338;bakip.pressbaum@noeschule.at;schulen.asn-noe.ac.at/bakippressbaum/;BBS BAKIP;
325011;Volksschule Allentsteig;3804;Allentsteig;Schulstraße 1;02824/2232;vs.allentsteig@noeschule.at;;APS $VS;
325012;Hauptschule Allentsteig;3804;Allentsteig;Schulstraße 1;02824/2905;hs.allentsteig@noeschule.at;www.hsallentsteig.ac.at;APS $HS;
325013;Allgemeine Sonderschule Allentsteig;3804;Allentsteig;Schulstrasse 1;02824/3170;aso.allentsteig@noeschule.at;;APS $AS;
325016;Bundesgymnasium und Bundesrealgymnasium Zwettl;3910;Zwettl;Gymnasiumstraße 1;02822/52324-0;bg.zwettl@noeschule.at;www.gymnasium-zwettl.ac.at;AHS GYM;
325021;Volksschule Altmelon;3925;Altmelon;Nr. 49;02813/328;vs.altmelon@noeschule.at;;APS $VS;
325022;Hauptschule Arbesbach;3925;Arbesbach;Schulgasse 109;02813/7002;hs.arbesbach@noeschule.at;www.hsarbesbach.ac.at;APS $HS;
325023;Allgemeine Sonderschule Zwettl;3910;Zwettl;Hammerweg 2;02822/52669;spz.zwettl@noeschule.at;spzzwettl.ac.at;APS $AS SPZ;
325031;Volksschule Pölla, Altpölla;3593;Altpölla;Nr. 50;02988/6361;vs.altpoella@noeschule.at;;APS $VS;
325032;Hauptschule Groß Gerungs;3920;Groß Gerungs;Arbesbacher Straße 224;02812/8282;hs.gross-gerungs@noeschule.at;www.hs-gerungs.ac.at;APS $HS;
325033;Sondererziehungsschule Allentsteig;3804;Allentsteig;Ottensteiner Straße 36;02824/27084;sez.allentsteig@noeschule.at;;APS $AS;
325041;Volksschule Arbesbach;3925;Arbesbach;Nr. 152;02813/7224;vs.arbesbach@noeschule.at;www.vsarbesbach.ac.at;APS $VS;
325042;Hauptschule Langschlag;3921;Langschlag;Nr. 115;02814/8267;hs.langschlag@noeschule.at;www.hs.langschlag.at;APS $HS;
325043;Allgemeine Sonderschule Ottenschlag;3631;Ottenschlag;Michael Jank-Gasse 4;02872/6477;aso.ottenschlag@noeschule.at;www.asoottenschlag.ac.at;APS $AS SPZ;
325051;Volksschule Bärnkopf;3665;Bärnkopf;Nr. 2;02874/8205;vs.baernkopf@noeschule.at;www.school4you.at/3665/vs-baernkopf/;APS $VS;
325052;Neue Niederösterreichische Mittelschule Ottenschlag;3631;Ottenschlag;Michael Jank-Gasse 6;02872/7268;hs.ottenschlag@noeschule.at;www.hs.ottenschlag.com;APS $HS NMS;
325054;Polytechnische Schule Zwettl;3910;Zwettl;Gerungser Straße 32;02822/53511;pts.zwettl@noeschule.at;www.poly.zwettl.at;APS PTS;
325062;Neue Niederösterreichische Mittelschule Rappottenstein;3911;Rappottenstein;Nr. 10;02828/8302;hs.rappottenstein@noeschule.at;www.hs.rappottenstein.at;APS $HS NMS;
325071;Volksschule Echsenbach;3903;Echsenbach;Kirchenberg 2;02849/8242;vs.echsenbach@noeschule.at;;APS $VS;
325072;Hauptschule Schönbach;3633;Schönbach;Nr. 73;02827/7000;hs.schoenbach@noeschule.at;www.hsschoenbach.at;APS $HS;
325074;Polytechnische Schule Groß Gerungs;3920;Groß Gerungs;Griesbach 46;02813/461;pts.gross-gerungs@noeschule.at;www.ptsgrossgerungs.ac.at;APS PTS;
325081;Volksschule Groß Gerungs, Etzen;3920;Groß Gerungs;Etzen 22;02812/8319;vs.etzen@noeschule.at;;APS $VS;
325082;Neue Niederösterreichische Mittelschule Schweiggers;3931;Schweiggers;Am Schulberg 5;02829/8320;hs.schweiggers@noeschule.at;www.hsschweiggers.ac.at;APS $HS NMS;
325092;Neue Niederösterreichische Mittelschule Zwettl;3910;Zwettl;Schulgasse 24;02822/52326;hs.zwettl@noeschule.at;www.hs.zwettl.at;APS $HS NMS;
325101;Volksschule Zwettl, Friedersbach;3533;Friedersbach;Nr. 86;02826/295;vs.zwettl-friedersbach@noeschule.at;;APS $VS;
325102;Private Hauptschule Zwettl des Trägervereines der Franziskanerinnen Amstetten;3910;Zwettl;Klosterstraße 10;02822/52318-15;phs.zwettl@noeschule.at;www.phszwettl.ac.at;APS $HS NMS;
325111;Volksschule Göpfritz an der Wild;3800;Göpfritz an der Wild;Hauptstraße 48;02825/8241;vs.goepfritz-wild@noeschule.at;www.vsgoepfritz-wild.ac.at;APS $VS;
325112;Hauptschule Stift Zwettl;3910;Zwettl;Stift Zwettl 12;02822/52214;hs.stift-zwettl@noeschule.at;www.hs-stiftzwettl.ac.at;APS $HS;
325121;Volksschule Grafenschlag;3912;Grafenschlag;Nr. 100;02875/8227;vs.grafenschlag@noeschule.at;;APS $VS;
325122;Hauptschule Martinsberg;3664;Martinsberg;Nr. 135;02874/6454;hs.martinsberg@noeschule.at;www.hsmartinsberg.ac.at;APS $HS;
325151;Volksschule Groß Gerungs;3920;Groß Gerungs;Arbesbacher Straße 67;02812/8363;vs.gross-gerungs@noeschule.at;vsgrossgerungs.ac.at;APS $VS $AS;
325161;Volksschule Zwettl, Großglobnitz;3910;Großglobnitz;Nr. 50;02823/256;vs.zwettl-grossglobnitz@noeschule.at;;APS $VS;
325171;Volksschule Großgöttfritz;3913;Großgöttfritz;Nr. 60;02875/8361;vs.grossgoettfritz@noeschule.at;;APS $VS;
325201;Volksschule Gutenbrunn;3665;Gutenbrunn;Jägerzeile 120;02874/7390;vs.gutenbrunn@noeschule.at;;APS $VS;
325211;Volksschule Zwettl, Jagenbach;3923;Jagenbach;Nr. 63;02829/8671;vs.zwettl-jagenbach@noeschule.at;;APS $VS;
325221;Volksschule Zwettl, Jahrings;3910;Zwettl;Jahrings 45;02822/53699;vs.zwettl-jahrings@noeschule.at;;APS $VS;
325261;Volksschule Kirchschlag;3631;Kirchschlag;Nr.  63;02872/7518;vs.kirchschlag@noeschule.at;;APS $VS;
325281;Volksschule Kottes - Purk;3623;Kottes;Nr. 90;02873/7380;vs.kottes-purk@noeschule.at;www.vskottes-purk.ac.at;APS $VS;
325291;Volksschule Langschlag;3921;Langschlag;Nr. 115;02814/7233;vs.langschlag@noeschule.at;www.vs.langschlag.at;APS $VS;
325311;Volksschule Zwettl, Marbach am Walde;3911;Marbach am Walde;Nr. 2;02828/8324;vs.marbach-walde@noeschule.at;;APS $VS;
325321;Volksschule Martinsberg;3664;Martinsberg;Nr. 24;02874/6282;vs.martinsberg@noeschule.at;;APS $VS;
325371;Volksschule Zwettl, Oberstrahlbach;3910;Zwettl;Oberstrahlbach 51;02822/54441;vs.zwettl-oberstrahlbach@noeschule.at;;APS $VS;
325381;Volksschule Ottenschlag;3631;Ottenschlag;Michael Jank-Gasse 4;02872/7380;vs.ottenschlag@noeschule.at;;APS $VS;
325419;Höhere Lehranstalt und Fachschule für wirtschaftliche Berufe Zwettl, Trägerverein Franziskanerinnen Amstetten;3910;Zwettl;Klosterstraße 10;02822/52318-17;hlw.zwettl@noeschule.at;www.hlwzwettl.ac.at;BBS W$S WHS WMS;
325421;Volksschule Rappottenstein;3911;Rappottenstein;Nr. 10a;02828/8302;vs.rappottenstein@noeschule.at;;APS $VS;
325431;Volksschule Zwettl, Rieggers;3931;Rieggers;Nr. 51;02829/7443;vs.zwettl-rieggers@noeschule.at;;APS $VS;
325438;Bundeshandelsakademie und Bundeshandelsschule Zwettl;3910;Zwettl;Hammerweg 1;02822/52380-0;hak.zwettl@noeschule.at;www.bhak-bhas-zwettl.ac.at;BBS K$S KMS KHS;
325451;Volksschule Sallingberg;3525;Sallingberg;Nr. 95;02877/8224;vs.sallingberg@noeschule.at;;APS $VS;
325471;Volksschule Zwettl, Rosenau Schloss;3924;Schloß Rosenau;Nr. 9;02822/58216;vs.zwettl-rosenau@noeschule.at;;APS $VS;
325481;Volksschule Schönbach;3633;Schönbach;Nr. 73;02827/7115;vs.schoenbach@noeschule.at;www.hsschoenbach.at/vs;APS $VS;
325491;Volksschule Schwarzenau;3900;Schwarzenau;Schulgasse 10;02849/2242;vs.schwarzenau@noeschule.at;;APS $VS;
325501;Volksschule Schweiggers;3931;Schweiggers;Am Schulberg 4;02829/8304;vs.schweiggers@noeschule.at;;APS $VS;
325551;Volksschule Bad Traunstein;3632;Bad Traunstein;Schulgasse 4;02878/6705;vs.bad-traunstein@noeschule.at;;APS $VS;
325561;Volksschule Waldhausen;3914;Waldhausen;Nr. 54;02877/7370;vs.waldhausen@noeschule.at;;APS $VS;
325591;Volksschule Zwettl, Hammerweg;3910;Zwettl;Hammerweg 2;02822/52734;vs.zwettl-hammerweg@noeschule.at;www.vs-zwettl.at;APS $VS;
325601;Private Volksschule Zwettl der Kongregation der Schulschwestern vom 3.Orden des Hl.Franziskus;3910;Zwettl;Klosterstraße 10;02822/52318-31;pvs.zwettl@noeschule.at;www.pvszwettl.ac.at;APS $VS;
325710;Landwirtschaftliche Fachschule Edelhof;3910;Zwettl;Edelhof 1;02822/52402;;;BBS LFS;
325720;Landwirtschaftliche Fachschule Zwettl;3910;Zwettl;Edelhof 2;02822/52684;;;BBS LFS;
325750;Landwirtschaftliche Berufsschule Edelhof;3910;Zwettl;Edelhof 1a;02822/54073;;;BBS LFS;
325760;Landwirtschaftliche Fachschule Ottenschlag;3631;Ottenschlag;Schloß 1;02827/7266;;;BBS LFS;
325810;Privates Kolleg für Kindergartenpädagogik des Trägervereins der Werke der Schulschwestern vom III. OSF von Amstetten;3910;Zwettl;Klosterstraße 10;;priv.bakip.zwettl@noeschule.at;;BBS BAKIP;
